{
"type": "FeatureCollection",
"name": "geo_41_短期入所療養介護（介護老人保健施設）",
"crs": { "type": "name", "properties": { "name": "urn:ogc:def:crs:OGC:1.3:CRS84" } },
"features": [
{ "type": "Feature", "properties": { "内容": "介護老人保健施設シンフォニー佐賀【短期入所療養介護（介護老人保健施設）】佐賀県佐賀市久保田町大字新田3679", "url": "https://www.kaigokensaku.mhlw.go.jp/41/index.php?action_kouhyou_detail_004_kani=true&JigyosyoCd=4151080050-00&ServiceCd=220&Type=search", "url2": "http://youyuukai-heiseikai.jp/youyu/" }, "geometry": { "type": "Point", "coordinates": [ 130.2417624, 33.2248915 ] } },
{ "type": "Feature", "properties": { "内容": "介護老人保健施設レストピア【短期入所療養介護（介護老人保健施設）】佐賀市東与賀町大字下古賀１３４９番地", "url": "https://www.kaigokensaku.mhlw.go.jp/41/index.php?action_kouhyou_detail_004_kani=true&JigyosyoCd=4151080035-00&ServiceCd=220&Type=search", "url2": null }, "geometry": { "type": "Point", "coordinates": [ 130.2925712, 33.2004911 ] } },
{ "type": "Feature", "properties": { "内容": "介護老人保健施設　しょうぶ苑【短期入所療養介護（介護老人保健施設）】佐賀県佐賀市大和町大字尼寺3227-1", "url": "https://www.kaigokensaku.mhlw.go.jp/41/index.php?action_kouhyou_detail_004_kani=true&JigyosyoCd=4151080027-00&ServiceCd=220&Type=search", "url2": "https://shobuen.com/" }, "geometry": { "type": "Point", "coordinates": [ 130.275833299999931, 33.3024226 ] } },
{ "type": "Feature", "properties": { "内容": "介護老人保健施設ライフエイド【短期入所療養介護（介護老人保健施設）】佐賀市久保泉町大字川久保5403", "url": "https://www.kaigokensaku.mhlw.go.jp/41/index.php?action_kouhyou_detail_004_kani=true&JigyosyoCd=4150180018-00&ServiceCd=220&Type=search", "url2": "http://seiyukai.org/" }, "geometry": { "type": "Point", "coordinates": [ 130.323985499999907, 33.3401702 ] } },
{ "type": "Feature", "properties": { "内容": "介護老人保健施設シルバーケア佐賀【短期入所療養介護（介護老人保健施設）】佐賀市高木瀬町大字長瀬1307番地", "url": "https://www.kaigokensaku.mhlw.go.jp/41/index.php?action_kouhyou_detail_004_kani=true&JigyosyoCd=4150180026-00&ServiceCd=220&Type=search", "url2": "http://silvercare-saga.com/" }, "geometry": { "type": "Point", "coordinates": [ 130.287385699999959, 33.2911931 ] } },
{ "type": "Feature", "properties": { "内容": "介護老人保健施設　きりん【短期入所療養介護（介護老人保健施設）】佐賀市金立町大字薬師丸1274-1", "url": "https://www.kaigokensaku.mhlw.go.jp/41/index.php?action_kouhyou_detail_004_kani=true&JigyosyoCd=4150180042-00&ServiceCd=220&Type=search", "url2": "http://www.kirin-saga.or.jp" }, "geometry": { "type": "Point", "coordinates": [ 130.314688499999988, 33.3023567 ] } },
{ "type": "Feature", "properties": { "内容": "独立行政法人地域医療機能推進機構　佐賀中部病院附属介護老人保健施設【短期入所療養介護（介護老人保健施設）】佐賀市兵庫南三丁目8-1", "url": "https://www.kaigokensaku.mhlw.go.jp/41/index.php?action_kouhyou_detail_004_kani=true&JigyosyoCd=4150180067-00&ServiceCd=220&Type=search", "url2": "http://www.saga.jcho.go.jp.rouken/" }, "geometry": { "type": "Point", "coordinates": [ 130.318414299999972, 33.2645908 ] } },
{ "type": "Feature", "properties": { "内容": "介護老人保健施設　メイプルハウス【短期入所療養介護（介護老人保健施設）】佐賀県佐賀市川副町大字早津江265番地", "url": "https://www.kaigokensaku.mhlw.go.jp/41/index.php?action_kouhyou_detail_004_kani=true&JigyosyoCd=4151080043-00&ServiceCd=220&Type=search", "url2": null }, "geometry": { "type": "Point", "coordinates": [ 130.33621740000001, 33.2049275 ] } },
{ "type": "Feature", "properties": { "内容": "医療法人社団　博文会　介護老人保健施設　白寿園【短期入所療養介護（介護老人保健施設）】佐賀県佐賀市諸富町大字諸富津220番地", "url": "https://www.kaigokensaku.mhlw.go.jp/41/index.php?action_kouhyou_detail_004_kani=true&JigyosyoCd=4151080068-00&ServiceCd=220&Type=search", "url2": null }, "geometry": { "type": "Point", "coordinates": [ 130.361822, 33.2210926 ] } },
{ "type": "Feature", "properties": { "内容": "介護老人保健施設　徐福の里【短期入所療養介護（介護老人保健施設）】佐賀県佐賀市諸富町大字大堂1049番地4", "url": "https://www.kaigokensaku.mhlw.go.jp/41/index.php?action_kouhyou_detail_004_kani=true&JigyosyoCd=4151080076-00&ServiceCd=220&Type=search", "url2": "http://moriyama-clinic.com" }, "geometry": { "type": "Point", "coordinates": [ 130.354769729499822, 33.236007839280994 ] } },
{ "type": "Feature", "properties": { "内容": "介護老人保健施設　セントポーリア【短期入所療養介護（介護老人保健施設）】佐賀県唐津市佐志字石ヶ元2119番2介護老人保健施設　セントポーリア", "url": "https://www.kaigokensaku.mhlw.go.jp/41/index.php?action_kouhyou_detail_004_kani=true&JigyosyoCd=4150280024-00&ServiceCd=220&Type=search", "url2": null }, "geometry": { "type": "Point", "coordinates": [ 129.929035807348669, 33.467896072570085 ] } },
{ "type": "Feature", "properties": { "内容": "介護老人保健施設　ケアハイツ虹【短期入所療養介護（介護老人保健施設）】唐津市浜玉町横田下177", "url": "https://www.kaigokensaku.mhlw.go.jp/41/index.php?action_kouhyou_detail_004_kani=true&JigyosyoCd=4151480011-00&ServiceCd=220&Type=search", "url2": "http://www.shouraikai.jp/" }, "geometry": { "type": "Point", "coordinates": [ 130.043522799999977, 33.431386700000026 ] } },
{ "type": "Feature", "properties": { "内容": "介護老人保健施設　アメニティきゅうらぎ【短期入所療養介護（介護老人保健施設）】佐賀県唐津市厳木町岩屋５０５番地", "url": "https://www.kaigokensaku.mhlw.go.jp/41/index.php?action_kouhyou_detail_004_kani=true&JigyosyoCd=4151480029-00&ServiceCd=220&Type=search", "url2": "https://www.hp-hirakawa.com/kyuragi" }, "geometry": { "type": "Point", "coordinates": [ 130.0325001, 33.316529 ] } },
{ "type": "Feature", "properties": { "内容": "済生会介護老人保健施設ユニット型まつら荘【短期入所療養介護（介護老人保健施設）】唐津市江川町694番地1", "url": "https://www.kaigokensaku.mhlw.go.jp/41/index.php?action_kouhyou_detail_004_kani=true&JigyosyoCd=4150280057-00&ServiceCd=220&Type=search", "url2": "http//matsurasou.jp" }, "geometry": { "type": "Point", "coordinates": [ 129.9635369, 33.4537619 ] } },
{ "type": "Feature", "properties": { "内容": "介護老人保健施設　ケアハイツやすらぎ【短期入所療養介護（介護老人保健施設）】佐賀県多久市南多久町大字下多久2118番地173", "url": "https://www.kaigokensaku.mhlw.go.jp/41/index.php?action_kouhyou_detail_004_kani=true&JigyosyoCd=4150480012-00&ServiceCd=220&Type=search", "url2": "http://yasuragi.tenjyukai.com/" }, "geometry": { "type": "Point", "coordinates": [ 130.1168573, 33.2837214 ] } },
{ "type": "Feature", "properties": { "内容": "短期入所療養介護事業所　多久いこいの里【短期入所療養介護（介護老人保健施設）】佐賀県多久市北多久町多久原2512-24", "url": "https://www.kaigokensaku.mhlw.go.jp/41/index.php?action_kouhyou_detail_004_kani=true&JigyosyoCd=4150480020-00&ServiceCd=220&Type=search", "url2": "http://www.koujinkai.net/" }, "geometry": { "type": "Point", "coordinates": [ 130.1130743, 33.2848158 ] } },
{ "type": "Feature", "properties": { "内容": "介護老人保健施設　多久いこいの里【短期入所療養介護（介護老人保健施設）】佐賀県多久市北多久町多久原2512-24", "url": "https://www.kaigokensaku.mhlw.go.jp/41/index.php?action_kouhyou_detail_004_kani=true&JigyosyoCd=4150480038-00&ServiceCd=220&Type=search", "url2": "http:/www.koujinkai.net/" }, "geometry": { "type": "Point", "coordinates": [ 130.1130743, 33.284815799999983 ] } },
{ "type": "Feature", "properties": { "内容": "介護老人保健施設　西光苑【短期入所療養介護（介護老人保健施設）】山代町峰6545番地11", "url": "https://www.kaigokensaku.mhlw.go.jp/41/index.php?action_kouhyou_detail_004_kani=true&JigyosyoCd=4150580019-00&ServiceCd=220&Type=search", "url2": "https://imari-seikouen.com" }, "geometry": { "type": "Point", "coordinates": [ 129.8172883, 33.2992866 ] } },
{ "type": "Feature", "properties": { "内容": "介護老人保健施設　ケアポート楽寿園【短期入所療養介護（介護老人保健施設）】佐賀県伊万里市二里町八谷搦1224番地", "url": "https://www.kaigokensaku.mhlw.go.jp/41/index.php?action_kouhyou_detail_004_kani=true&JigyosyoCd=4150580027-00&ServiceCd=220&Type=search", "url2": "http://www.kenjin-kai.com/rakujyuen/" }, "geometry": { "type": "Point", "coordinates": [ 129.86599810000007, 33.2791334 ] } },
{ "type": "Feature", "properties": { "内容": "短期入所療養介護　コスモス【短期入所療養介護（介護老人保健施設）】佐賀県武雄市武雄町大字永島13821番地", "url": "https://www.kaigokensaku.mhlw.go.jp/41/index.php?action_kouhyou_detail_004_kani=true&JigyosyoCd=4150680017-00&ServiceCd=220&Type=search", "url2": "http://shinoda-seikei.com/" }, "geometry": { "type": "Point", "coordinates": [ 130.034638, 33.1928046 ] } },
{ "type": "Feature", "properties": { "内容": "介護老人保健施設たんぽぽ【短期入所療養介護（介護老人保健施設）】佐賀県武雄市朝日町大字中野１１２９６－１", "url": "https://www.kaigokensaku.mhlw.go.jp/41/index.php?action_kouhyou_detail_004_kani=true&JigyosyoCd=4150680025-00&ServiceCd=220&Type=search", "url2": "https://www.ufokai.com" }, "geometry": { "type": "Point", "coordinates": [ 130.030376400000023, 33.2272036 ] } },
{ "type": "Feature", "properties": { "内容": "ケアコートゆうあい【短期入所療養介護（介護老人保健施設）】佐賀県鹿島市大字高津原2962番地1", "url": "https://www.kaigokensaku.mhlw.go.jp/41/index.php?action_kouhyou_detail_004_kani=true&JigyosyoCd=4150780015-00&ServiceCd=220&Type=search", "url2": "http://www.yuaivillage.com/" }, "geometry": { "type": "Point", "coordinates": [ 130.084520500000053, 33.104931900000011 ] } },
{ "type": "Feature", "properties": { "内容": "蛍水荘短期入所療養介護【短期入所療養介護（介護老人保健施設）】佐賀県小城市小城町８１４番地１", "url": "https://www.kaigokensaku.mhlw.go.jp/41/index.php?action_kouhyou_detail_004_kani=true&JigyosyoCd=4151380013-00&ServiceCd=220&Type=search", "url2": "https://www.kiyonet.org/keisuisou/main/1.html" }, "geometry": { "type": "Point", "coordinates": [ 130.2053137, 33.3013721 ] } },
{ "type": "Feature", "properties": { "内容": "介護老人保健施設　朋寿苑【短期入所療養介護（介護老人保健施設）】佐賀県嬉野市嬉野町大字下宿乙1919番地", "url": "https://www.kaigokensaku.mhlw.go.jp/41/index.php?action_kouhyou_detail_004_kani=true&JigyosyoCd=4151780014-00&ServiceCd=220&Type=search", "url2": "http://www.yuhokai.com" }, "geometry": { "type": "Point", "coordinates": [ 129.975378555819702, 33.099948194907576 ] } },
{ "type": "Feature", "properties": { "内容": "介護老人保健施設　うぶすな【短期入所療養介護（介護老人保健施設）】佐賀県神埼市神埼町永歌1021", "url": "https://www.kaigokensaku.mhlw.go.jp/41/index.php?action_kouhyou_detail_004_kani=true&JigyosyoCd=4151180017-00&ServiceCd=220&Type=search", "url2": null }, "geometry": { "type": "Point", "coordinates": [ 130.37621050000007, 33.2973223 ] } },
{ "type": "Feature", "properties": { "内容": "短期入所サービス　あおぞら【短期入所療養介護（介護老人保健施設）】佐賀県三養基郡基山町大字園部2307番地", "url": "https://www.kaigokensaku.mhlw.go.jp/41/index.php?action_kouhyou_detail_004_kani=true&JigyosyoCd=4151280023-00&ServiceCd=220&Type=search", "url2": "http://www.jurakuen.jp/" }, "geometry": { "type": "Point", "coordinates": [ 130.501295199999959, 33.4181642 ] } },
{ "type": "Feature", "properties": { "内容": "介護老人保健施設　アザレア【短期入所療養介護（介護老人保健施設）】佐賀県三養基郡みやき町大字簑原1116－1", "url": "https://www.kaigokensaku.mhlw.go.jp/41/index.php?action_kouhyou_detail_004_kani=true&JigyosyoCd=4151280015-00&ServiceCd=220&Type=search", "url2": "https://www.gajumaru.or.jp/yume/" }, "geometry": { "type": "Point", "coordinates": [ 130.443448200000034, 33.349077 ] } },
{ "type": "Feature", "properties": { "内容": "介護老人保健施設　グリーンヒル幸寿園【短期入所療養介護（介護老人保健施設）】佐賀県西松浦郡有田町南原甲678番地1", "url": "https://www.kaigokensaku.mhlw.go.jp/41/index.php?action_kouhyou_detail_004_kani=true&JigyosyoCd=4151580018-00&ServiceCd=220&Type=search", "url2": "http://www.kenjin-kai.com/koujyuen/" }, "geometry": { "type": "Point", "coordinates": [ 129.862746162271151, 33.193544690227199 ] } },
{ "type": "Feature", "properties": { "内容": "介護老人保健施設敬松苑【短期入所療養介護（介護老人保健施設）】佐賀県杵島郡大町町大字福母７０７番地１", "url": "https://www.kaigokensaku.mhlw.go.jp/41/index.php?action_kouhyou_detail_004_kani=true&JigyosyoCd=4151680032-00&ServiceCd=220&Type=search", "url2": "http://www.juntendo.or.jp" }, "geometry": { "type": "Point", "coordinates": [ 130.10252360000004, 33.2079735 ] } },
{ "type": "Feature", "properties": { "内容": "介護老人保健施設　ユートピアしゃくなげ【短期入所療養介護（介護老人保健施設）】佐賀県杵島郡江北町大字惣領分２４２０番地１", "url": "https://www.kaigokensaku.mhlw.go.jp/41/index.php?action_kouhyou_detail_004_kani=true&JigyosyoCd=4151680057-00&ServiceCd=220&Type=search", "url2": "www.keitendo.jp" }, "geometry": { "type": "Point", "coordinates": [ 130.173104500000022, 33.2240116 ] } },
{ "type": "Feature", "properties": { "内容": "介護老人保健施設　白い石【短期入所療養介護（介護老人保健施設）】佐賀県杵島郡白石町福吉1808", "url": "https://www.kaigokensaku.mhlw.go.jp/41/index.php?action_kouhyou_detail_004_kani=true&JigyosyoCd=4151680024-00&ServiceCd=220&Type=search", "url2": "https://tougen.or.jp" }, "geometry": { "type": "Point", "coordinates": [ 130.153442400000017, 33.185696 ] } },
{ "type": "Feature", "properties": { "内容": "介護老人保健施設　清涼荘【短期入所療養介護（介護老人保健施設）】佐賀県杵島郡白石町大字戸ヶ里1831番地18", "url": "https://www.kaigokensaku.mhlw.go.jp/41/index.php?action_kouhyou_detail_004_kani=true&JigyosyoCd=4151680065-00&ServiceCd=220&Type=search", "url2": "https://yuai-th.com" }, "geometry": { "type": "Point", "coordinates": [ 130.1247696, 33.1548033 ] } },
{ "type": "Feature", "properties": { "内容": "介護老人保健施設ふるさとの森【短期入所療養介護（介護老人保健施設）】佐賀県藤津郡太良町大字糸岐6797番地１", "url": "https://www.kaigokensaku.mhlw.go.jp/41/index.php?action_kouhyou_detail_004_kani=true&JigyosyoCd=4151780022-00&ServiceCd=220&Type=search", "url2": "https://furusatonomori1998.com/" }, "geometry": { "type": "Point", "coordinates": [ 130.163041300000032, 33.0159017 ] } }
]
}
