{
"type": "FeatureCollection",
"name": "geo_41_介護老人保健施設",
"crs": { "type": "name", "properties": { "name": "urn:ogc:def:crs:OGC:1.3:CRS84" } },
"features": [
{ "type": "Feature", "properties": { "内容": "介護老人保健施設　しょうぶ苑【介護老人保健施設】佐賀県佐賀市大和町大字尼寺3227-1", "url": "https://www.kaigokensaku.mhlw.go.jp/41/index.php?action_kouhyou_detail_004_kani=true&JigyosyoCd=4151080027-00&ServiceCd=520&Type=search", "url2": "https://shobuen.com/" }, "geometry": { "type": "Point", "coordinates": [ 130.275833299999931, 33.3024226 ] } },
{ "type": "Feature", "properties": { "内容": "介護老人保健施設ライフエイド【介護老人保健施設】佐賀市久保泉町大字川久保5403", "url": "https://www.kaigokensaku.mhlw.go.jp/41/index.php?action_kouhyou_detail_004_kani=true&JigyosyoCd=4150180018-00&ServiceCd=520&Type=search", "url2": "http://seiyuukai.org/" }, "geometry": { "type": "Point", "coordinates": [ 130.323985499999907, 33.3401702 ] } },
{ "type": "Feature", "properties": { "内容": "介護老人保健施設　シルバーケア佐賀【介護老人保健施設】佐賀市高木瀬町大字長瀬1307番地", "url": "https://www.kaigokensaku.mhlw.go.jp/41/index.php?action_kouhyou_detail_004_kani=true&JigyosyoCd=4150180026-00&ServiceCd=520&Type=search", "url2": "http://silvercare-saga.com/" }, "geometry": { "type": "Point", "coordinates": [ 130.287385699999959, 33.2911931 ] } },
{ "type": "Feature", "properties": { "内容": "介護老人保健施設　みどりの園【介護老人保健施設】佐賀市兵庫町大字渕1912番地１", "url": "https://www.kaigokensaku.mhlw.go.jp/41/index.php?action_kouhyou_detail_004_kani=true&JigyosyoCd=4150180034-00&ServiceCd=520&Type=search", "url2": "http://www.shunyoukai.jp/" }, "geometry": { "type": "Point", "coordinates": [ 130.3134698, 33.281453 ] } },
{ "type": "Feature", "properties": { "内容": "介護老人保健施設　きりん【介護老人保健施設】佐賀市金立町大字薬師丸1274-1", "url": "https://www.kaigokensaku.mhlw.go.jp/41/index.php?action_kouhyou_detail_004_kani=true&JigyosyoCd=4150180042-00&ServiceCd=520&Type=search", "url2": "http://www.kirin-saga.or.jp" }, "geometry": { "type": "Point", "coordinates": [ 130.314688499999988, 33.3023567 ] } },
{ "type": "Feature", "properties": { "内容": "介護老人保健施設エバーグリーン【介護老人保健施設】佐賀県佐賀市嘉瀬町中原1965-1", "url": "https://www.kaigokensaku.mhlw.go.jp/41/index.php?action_kouhyou_detail_004_kani=true&JigyosyoCd=4150180059-00&ServiceCd=520&Type=search", "url2": "http://www.shimada.or.jp/" }, "geometry": { "type": "Point", "coordinates": [ 130.258750700000064, 33.2429048 ] } },
{ "type": "Feature", "properties": { "内容": "独立行政法人地域医療機能推進機構　佐賀中部病院附属介護老人保健施設【介護老人保健施設】佐賀市兵庫南三丁目8-1", "url": "https://www.kaigokensaku.mhlw.go.jp/41/index.php?action_kouhyou_detail_004_kani=true&JigyosyoCd=4150180067-00&ServiceCd=520&Type=search", "url2": "http://saga.jcho.go.jp.rouken/" }, "geometry": { "type": "Point", "coordinates": [ 130.318414299999972, 33.2645908 ] } },
{ "type": "Feature", "properties": { "内容": "介護老人保健施設レストピア【介護老人保健施設】佐賀市東与賀町大字下古賀1349番地", "url": "https://www.kaigokensaku.mhlw.go.jp/41/index.php?action_kouhyou_detail_004_kani=true&JigyosyoCd=4151080035-00&ServiceCd=520&Type=search", "url2": "honbu@josyunkakai.or.jp" }, "geometry": { "type": "Point", "coordinates": [ 130.2925984, 33.2004665 ] } },
{ "type": "Feature", "properties": { "内容": "介護老人保健施設　メイプルハウス【介護老人保健施設】佐賀県佐賀市川副町大字早津江265番地", "url": "https://www.kaigokensaku.mhlw.go.jp/41/index.php?action_kouhyou_detail_004_kani=true&JigyosyoCd=4151080043-00&ServiceCd=520&Type=search", "url2": "http://www." }, "geometry": { "type": "Point", "coordinates": [ 130.336046900000042, 33.2048939 ] } },
{ "type": "Feature", "properties": { "内容": "医療法人社団　杠葉会　介護老人保健施設　白寿園【介護老人保健施設】佐賀県佐賀市諸富町大字諸富津220番地", "url": "https://www.kaigokensaku.mhlw.go.jp/41/index.php?action_kouhyou_detail_004_kani=true&JigyosyoCd=4151080068-00&ServiceCd=520&Type=search", "url2": "http://www.morodomi-ch.or.jp" }, "geometry": { "type": "Point", "coordinates": [ 130.361822, 33.2210926 ] } },
{ "type": "Feature", "properties": { "内容": "介護老人保健施設　徐福の里【介護老人保健施設】佐賀県　佐賀市　諸富町大字　大堂　１０４９－４", "url": "https://www.kaigokensaku.mhlw.go.jp/41/index.php?action_kouhyou_detail_004_kani=true&JigyosyoCd=4151080076-00&ServiceCd=520&Type=search", "url2": "http://moriyama-clinic.com" }, "geometry": { "type": "Point", "coordinates": [ 130.3544425, 33.2360213 ] } },
{ "type": "Feature", "properties": { "内容": "介護老人保健施設シンフォニー佐賀【介護老人保健施設】佐賀県佐賀市久保田町大字新田３６７９", "url": "https://www.kaigokensaku.mhlw.go.jp/41/index.php?action_kouhyou_detail_004_kani=true&JigyosyoCd=4151080050-00&ServiceCd=520&Type=search", "url2": "http://www.youyuukai-heiseikai.jp/" }, "geometry": { "type": "Point", "coordinates": [ 130.2419146134919, 33.224705387483795 ] } },
{ "type": "Feature", "properties": { "内容": "済生会介護老人保健施設まつら荘【介護老人保健施設】唐津市江川町６９４番地1", "url": "https://www.kaigokensaku.mhlw.go.jp/41/index.php?action_kouhyou_detail_004_kani=true&JigyosyoCd=4150280016-00&ServiceCd=520&Type=search", "url2": "http://matsurasou.jp/" }, "geometry": { "type": "Point", "coordinates": [ 129.963461264748418, 33.45408482514086 ] } },
{ "type": "Feature", "properties": { "内容": "介護老人保健施設セントポーリア【介護老人保健施設】佐賀県唐津市佐志石ヶ元2119-2", "url": "https://www.kaigokensaku.mhlw.go.jp/41/index.php?action_kouhyou_detail_004_kani=true&JigyosyoCd=4150280024-00&ServiceCd=520&Type=search", "url2": "http://karatsu-kaigo.com/facility/" }, "geometry": { "type": "Point", "coordinates": [ 129.92896449421707, 33.467938908226259 ] } },
{ "type": "Feature", "properties": { "内容": "介護老人保健施設のぞみ【介護老人保健施設】佐賀県唐津市養母田553-1", "url": "https://www.kaigokensaku.mhlw.go.jp/41/index.php?action_kouhyou_detail_004_kani=true&JigyosyoCd=4150280032-00&ServiceCd=520&Type=search", "url2": "http://www.shujinkai.or.jp" }, "geometry": { "type": "Point", "coordinates": [ 129.984463099999971, 33.4127368 ] } },
{ "type": "Feature", "properties": { "内容": "介護老人保健施設　城内荘【介護老人保健施設】唐津市　南城内３番４０号", "url": "https://www.kaigokensaku.mhlw.go.jp/41/index.php?action_kouhyou_detail_004_kani=true&JigyosyoCd=4150280040-00&ServiceCd=520&Type=search", "url2": "http://sankenkai.jimdo.com/" }, "geometry": { "type": "Point", "coordinates": [ 129.969744499999933, 33.4503377 ] } },
{ "type": "Feature", "properties": { "内容": "介護老人保健施設　ケアハイツ虹【介護老人保健施設】唐津市浜玉町横田下177", "url": "https://www.kaigokensaku.mhlw.go.jp/41/index.php?action_kouhyou_detail_004_kani=true&JigyosyoCd=4151480011-00&ServiceCd=520&Type=search", "url2": "http://www.shouraikai.jp/" }, "geometry": { "type": "Point", "coordinates": [ 130.043458200000032, 33.4314261 ] } },
{ "type": "Feature", "properties": { "内容": "介護老人保健施設アメニティきゅうらぎ【介護老人保健施設】佐賀県唐津市厳木町岩屋５０５番地", "url": "https://www.kaigokensaku.mhlw.go.jp/41/index.php?action_kouhyou_detail_004_kani=true&JigyosyoCd=4151480029-00&ServiceCd=520&Type=search", "url2": "https://www.hp-hirakawa.com/kyuragi" }, "geometry": { "type": "Point", "coordinates": [ 130.0325001, 33.316529 ] } },
{ "type": "Feature", "properties": { "内容": "済生会介護老人保健施設ユニット型まつら荘【介護老人保健施設】唐津市江川町６９４番地１", "url": "https://www.kaigokensaku.mhlw.go.jp/41/index.php?action_kouhyou_detail_004_kani=true&JigyosyoCd=4150280057-00&ServiceCd=520&Type=search", "url2": "http://matsurasou.jp/" }, "geometry": { "type": "Point", "coordinates": [ 129.963336539846409, 33.454017576914083 ] } },
{ "type": "Feature", "properties": { "内容": "介護老人保健施設　寿夢の郷【介護老人保健施設】佐賀県鳥栖市高田町205-1", "url": "https://www.kaigokensaku.mhlw.go.jp/41/index.php?action_kouhyou_detail_004_kani=true&JigyosyoCd=4150380014-00&ServiceCd=520&Type=search", "url2": "http://www.koukodou.or.jp/" }, "geometry": { "type": "Point", "coordinates": [ 130.525531199999932, 33.3476461 ] } },
{ "type": "Feature", "properties": { "内容": "介護老人保健施設　寿夢の郷【介護老人保健施設】佐賀県鳥栖市高田町205番地1", "url": "https://www.kaigokensaku.mhlw.go.jp/41/index.php?action_kouhyou_detail_004_kani=true&JigyosyoCd=4150380022-00&ServiceCd=520&Type=search", "url2": "www.koukodou.or.jp" }, "geometry": { "type": "Point", "coordinates": [ 130.525531199999932, 33.3476461 ] } },
{ "type": "Feature", "properties": { "内容": "介護老人保健施設　ケアハイツやすらぎ【介護老人保健施設】佐賀県多久市南多久町大字下多久２１１８番地１７３", "url": "https://www.kaigokensaku.mhlw.go.jp/41/index.php?action_kouhyou_detail_004_kani=true&JigyosyoCd=4150480012-00&ServiceCd=520&Type=search", "url2": "http://yasuragi.tenjyukai.com/" }, "geometry": { "type": "Point", "coordinates": [ 130.1168573, 33.2837214 ] } },
{ "type": "Feature", "properties": { "内容": "介護老人保健施設　多久いこいの里【介護老人保健施設】佐賀県多久市北多久町多久原2512-24", "url": "https://www.kaigokensaku.mhlw.go.jp/41/index.php?action_kouhyou_detail_004_kani=true&JigyosyoCd=4150480020-00&ServiceCd=520&Type=search", "url2": "http://www.koujinkai.net/" }, "geometry": { "type": "Point", "coordinates": [ 130.1130743, 33.2848158 ] } },
{ "type": "Feature", "properties": { "内容": "介護老人保健施設　多久いこいの里【介護老人保健施設】佐賀県多久市北多久町多久原2512-24", "url": "https://www.kaigokensaku.mhlw.go.jp/41/index.php?action_kouhyou_detail_004_kani=true&JigyosyoCd=4150480038-00&ServiceCd=520&Type=search", "url2": "http://www.koujinkai.net/" }, "geometry": { "type": "Point", "coordinates": [ 130.1130743, 33.2848158 ] } },
{ "type": "Feature", "properties": { "内容": "介護老人保健施設　西光苑【介護老人保健施設】佐賀県伊万里市山代町峰6545番地11", "url": "https://www.kaigokensaku.mhlw.go.jp/41/index.php?action_kouhyou_detail_004_kani=true&JigyosyoCd=4150580019-00&ServiceCd=520&Type=search", "url2": "http://imari-seikouen.com" }, "geometry": { "type": "Point", "coordinates": [ 129.817218300000036, 33.2988472 ] } },
{ "type": "Feature", "properties": { "内容": "介護老人保健施設　ケアポート楽寿園【介護老人保健施設】佐賀県伊万里市二里町八谷搦1224番地", "url": "https://www.kaigokensaku.mhlw.go.jp/41/index.php?action_kouhyou_detail_004_kani=true&JigyosyoCd=4150580027-00&ServiceCd=520&Type=search", "url2": "http://www.kenjin-kai.com/rakujyuen/" }, "geometry": { "type": "Point", "coordinates": [ 129.86599810000007, 33.2791334 ] } },
{ "type": "Feature", "properties": { "内容": "介護老人保健施設　コスモス【介護老人保健施設】佐賀県武雄市武雄町大字永島13821番地", "url": "https://www.kaigokensaku.mhlw.go.jp/41/index.php?action_kouhyou_detail_004_kani=true&JigyosyoCd=4150680017-00&ServiceCd=520&Type=search", "url2": "http://shinoda-seikei.com/" }, "geometry": { "type": "Point", "coordinates": [ 130.034638, 33.1928046 ] } },
{ "type": "Feature", "properties": { "内容": "介護老人保健施設たんぽぽ【介護老人保健施設】佐賀県武雄市朝日町大字中野１１２９６－１", "url": "https://www.kaigokensaku.mhlw.go.jp/41/index.php?action_kouhyou_detail_004_kani=true&JigyosyoCd=4150680025-00&ServiceCd=520&Type=search", "url2": "https://www.ufokai.com" }, "geometry": { "type": "Point", "coordinates": [ 130.030376400000023, 33.2272036 ] } },
{ "type": "Feature", "properties": { "内容": "ケアコートゆうあい【介護老人保健施設】佐賀県鹿島市大字高津原2962番地1", "url": "https://www.kaigokensaku.mhlw.go.jp/41/index.php?action_kouhyou_detail_004_kani=true&JigyosyoCd=4150780015-00&ServiceCd=520&Type=search", "url2": "http://www.yuaivillage.com/" }, "geometry": { "type": "Point", "coordinates": [ 130.084520500000053, 33.104931900000011 ] } },
{ "type": "Feature", "properties": { "内容": "介護老人保健施設蛍水荘【介護老人保健施設】佐賀県小城市小城町８１４－１", "url": "https://www.kaigokensaku.mhlw.go.jp/41/index.php?action_kouhyou_detail_004_kani=true&JigyosyoCd=4151380013-00&ServiceCd=520&Type=search", "url2": "http://www.keisuiso@po.hagakure.ne.jp" }, "geometry": { "type": "Point", "coordinates": [ 130.205204800000047, 33.3013679 ] } },
{ "type": "Feature", "properties": { "内容": "介護老人保健施設　徳富医院【介護老人保健施設】佐賀県小城市芦刈町三王崎３１６－３", "url": "https://www.kaigokensaku.mhlw.go.jp/41/index.php?action_kouhyou_detail_004_kani=true&JigyosyoCd=4151380021-00&ServiceCd=520&Type=search", "url2": "https://rikkakai.com/" }, "geometry": { "type": "Point", "coordinates": [ 130.208633600000013, 33.22205 ] } },
{ "type": "Feature", "properties": { "内容": "介護老人保健施設　朋寿苑【介護老人保健施設】佐賀県嬉野市嬉野町大字下宿乙1919番地", "url": "https://www.kaigokensaku.mhlw.go.jp/41/index.php?action_kouhyou_detail_004_kani=true&JigyosyoCd=4151780014-00&ServiceCd=520&Type=search", "url2": "http://www.yuhokai.com" }, "geometry": { "type": "Point", "coordinates": [ 129.9754322, 33.1010402 ] } },
{ "type": "Feature", "properties": { "内容": "介護老人保健施設　うぶすな【介護老人保健施設】佐賀県神埼市神埼町永歌1021", "url": "https://www.kaigokensaku.mhlw.go.jp/41/index.php?action_kouhyou_detail_004_kani=true&JigyosyoCd=4151180017-00&ServiceCd=520&Type=search", "url2": "https://kyuwakai.jp/wada_memorial_clinic/" }, "geometry": { "type": "Point", "coordinates": [ 130.37621050000007, 33.2973223 ] } },
{ "type": "Feature", "properties": { "内容": "老人保健施設あおぞら【介護老人保健施設】佐賀県三養基郡基山町大字園部2307番地", "url": "https://www.kaigokensaku.mhlw.go.jp/41/index.php?action_kouhyou_detail_004_kani=true&JigyosyoCd=4151280023-00&ServiceCd=520&Type=search", "url2": "http://www.jurakuen.jp/" }, "geometry": { "type": "Point", "coordinates": [ 130.501295199999959, 33.4181642 ] } },
{ "type": "Feature", "properties": { "内容": "介護老人保健施設　アザレア【介護老人保健施設】佐賀県三養基郡みやき町大字簑原1116－1", "url": "https://www.kaigokensaku.mhlw.go.jp/41/index.php?action_kouhyou_detail_004_kani=true&JigyosyoCd=4151280015-00&ServiceCd=520&Type=search", "url2": "https://www.gajumaru.or.jp/yume/" }, "geometry": { "type": "Point", "coordinates": [ 130.443448200000034, 33.349077 ] } },
{ "type": "Feature", "properties": { "内容": "介護老人保健施設　グリーンヒル幸寿園【介護老人保健施設】西松浦郡有田町南原甲678番地1", "url": "https://www.kaigokensaku.mhlw.go.jp/41/index.php?action_kouhyou_detail_004_kani=true&JigyosyoCd=4151580018-00&ServiceCd=520&Type=search", "url2": "http://www.kenjin-kai.com/koujyuen/" }, "geometry": { "type": "Point", "coordinates": [ 129.862645842019703, 33.193619292412393 ] } },
{ "type": "Feature", "properties": { "内容": "介護老人保健施設敬松苑【介護老人保健施設】佐賀県杵島郡大町町大字福母７０７番地１", "url": "https://www.kaigokensaku.mhlw.go.jp/41/index.php?action_kouhyou_detail_004_kani=true&JigyosyoCd=4151680032-00&ServiceCd=520&Type=search", "url2": "http://www.juntendo.or.jp" }, "geometry": { "type": "Point", "coordinates": [ 130.10252360000004, 33.2079735 ] } },
{ "type": "Feature", "properties": { "内容": "ユートピアしゃくなげ【介護老人保健施設】佐賀県杵島郡江北町大字惣領分２４２０番地１", "url": "https://www.kaigokensaku.mhlw.go.jp/41/index.php?action_kouhyou_detail_004_kani=true&JigyosyoCd=4151680057-00&ServiceCd=520&Type=search", "url2": "www.keitendo.jp" }, "geometry": { "type": "Point", "coordinates": [ 130.173104500000022, 33.2240116 ] } },
{ "type": "Feature", "properties": { "内容": "介護老人保健施設　白い石【介護老人保健施設】佐賀県杵島郡白石町福吉1808", "url": "https://www.kaigokensaku.mhlw.go.jp/41/index.php?action_kouhyou_detail_004_kani=true&JigyosyoCd=4151680024-00&ServiceCd=520&Type=search", "url2": "https://tougen.or.jp" }, "geometry": { "type": "Point", "coordinates": [ 130.153442400000017, 33.185696 ] } },
{ "type": "Feature", "properties": { "内容": "介護老人保健施設　清涼荘【介護老人保健施設】佐賀県杵島郡白石町大字戸ヶ里1831番地18", "url": "https://www.kaigokensaku.mhlw.go.jp/41/index.php?action_kouhyou_detail_004_kani=true&JigyosyoCd=4151680065-00&ServiceCd=520&Type=search", "url2": "https://yuai-th.com" }, "geometry": { "type": "Point", "coordinates": [ 130.1247696, 33.1548033 ] } },
{ "type": "Feature", "properties": { "内容": "介護老人保健施設ふるさとの森【介護老人保健施設】佐賀県藤津郡太良町大字糸岐6797番地１", "url": "https://www.kaigokensaku.mhlw.go.jp/41/index.php?action_kouhyou_detail_004_kani=true&JigyosyoCd=4151780022-00&ServiceCd=520&Type=search", "url2": "https://furusatonomori1998.com/" }, "geometry": { "type": "Point", "coordinates": [ 130.163041300000032, 33.0159017 ] } }
]
}
