{
"type": "FeatureCollection",
"name": "geo_41_1",
"crs": { "type": "name", "properties": { "name": "urn:ogc:def:crs:OGC:1.3:CRS84" } },
"features": [
{ "type": "Feature", "properties": { "ID": 4111415100110, "正式名称": "神野病院", "機関区分": 1, "都道府県コード": 41, "市区町村コード": 201, "所在地": "佐賀県佐賀市神園３ー１８－４５", "緯度": 33.271381, "経度": 130.283292, "url": "https://www.iryou.teikyouseido.mhlw.go.jp/znk-web/juminkanja/S2430/initialize?prefCd=41&kikanCd=1415100110&kikanKbn=1", "url2": "http://www.koono.or.jp", "内容": "神野病院【1:病院】【診療科目:内科_精神科】【一般病床数:0療養病床数:0精神病床数:179感染症病床数:0合計病床数:179】佐賀県佐賀市神園３ー１８－４５" }, "geometry": { "type": "Point", "coordinates": [ 130.283292, 33.271381 ] } },
{ "type": "Feature", "properties": { "ID": 4111415100240, "正式名称": "独立行政法人国立病院機構佐賀病院", "機関区分": 1, "都道府県コード": 41, "市区町村コード": 201, "所在地": "佐賀県佐賀市日の出１丁目２０－１", "緯度": 33.275741, "経度": 130.294124, "url": "https://www.iryou.teikyouseido.mhlw.go.jp/znk-web/juminkanja/S2430/initialize?prefCd=41&kikanCd=1415100240&kikanKbn=1", "url2": "https://saga.hosp.go.jp", "内容": "独立行政法人国立病院機構佐賀病院【1:病院】【診療科目:内科_代謝・内分泌内科_呼吸器内科_循環器内科_消化器内科_肝臓内科_外科_脳神経外科_消化器外科_乳腺外科_整形外科_形成外科_小児科_産婦人科_眼科_耳鼻いんこう科_皮膚科_泌尿器科_精神科_リハビリテーション科_放射線科_病理診断科_麻酔科】【一般病床数:287療養病床数:0精神病床数:0感染症病床数:0合計病床数:287】佐賀県佐賀市日の出１丁目２０－１" }, "geometry": { "type": "Point", "coordinates": [ 130.294124, 33.275741 ] } },
{ "type": "Feature", "properties": { "ID": 4111415100790, "正式名称": "医療法人諸隈病院", "機関区分": 1, "都道府県コード": 41, "市区町村コード": 201, "所在地": "佐賀県佐賀市水ケ江２－６－２２", "緯度": 33.249717, "経度": 130.308179, "url": "https://www.iryou.teikyouseido.mhlw.go.jp/znk-web/juminkanja/S2430/initialize?prefCd=41&kikanCd=1415100790&kikanKbn=1", "url2": "https://morokuma.or.jp", "内容": "医療法人諸隈病院【1:病院】【診療科目:内科_呼吸器内科_循環器内科_消化器内科_リハビリテーション科_通所リハビリテーション】【一般病床数:60療養病床数:0精神病床数:0感染症病床数:0合計病床数:60】佐賀県佐賀市水ケ江２－６－２２" }, "geometry": { "type": "Point", "coordinates": [ 130.308179, 33.249717 ] } },
{ "type": "Feature", "properties": { "ID": 4111415101120, "正式名称": "佐賀整肢学園こども発達医療センター", "機関区分": 1, "都道府県コード": 41, "市区町村コード": 201, "所在地": "佐賀県佐賀市金立町金立２２１５ー２７", "緯度": 33.31582, "経度": 130.299789, "url": "https://www.iryou.teikyouseido.mhlw.go.jp/znk-web/juminkanja/S2430/initialize?prefCd=41&kikanCd=1415101120&kikanKbn=1", "url2": "http://www.saganet.ne.jp/saseishi/", "内容": "佐賀整肢学園こども発達医療センター【1:病院】【診療科目:整形外科_小児科_児童精神科_小児外科_歯科_リハビリテーション科】【一般病床数:199療養病床数:0精神病床数:0感染症病床数:0合計病床数:199】佐賀県佐賀市金立町金立２２１５ー２７" }, "geometry": { "type": "Point", "coordinates": [ 130.299789, 33.31582 ] } },
{ "type": "Feature", "properties": { "ID": 4111415101830, "正式名称": "医療法人仁和会　小池病院", "機関区分": 1, "都道府県コード": 41, "市区町村コード": 201, "所在地": "佐賀県佐賀市嘉瀬町大字中原１９２２ー２", "緯度": 33.243161, "経度": 130.261072, "url": "https://www.iryou.teikyouseido.mhlw.go.jp/znk-web/juminkanja/S2430/initialize?prefCd=41&kikanCd=1415101830&kikanKbn=1", "url2": "http://www.koike.or.jp/", "内容": "医療法人仁和会　小池病院【1:病院】【診療科目:内科_外科_乳腺外科_放射線科_麻酔科】【一般病床数:39療養病床数:0精神病床数:0感染症病床数:0合計病床数:39】佐賀県佐賀市嘉瀬町大字中原１９２２ー２" }, "geometry": { "type": "Point", "coordinates": [ 130.261072, 33.243161 ] } },
{ "type": "Feature", "properties": { "ID": 4111415102130, "正式名称": "医療法人　福翔会　福岡病院", "機関区分": 1, "都道府県コード": 41, "市区町村コード": 201, "所在地": "佐賀県佐賀市開成六丁目１４ー１０", "緯度": 33.270686, "経度": 130.271515, "url": "https://www.iryou.teikyouseido.mhlw.go.jp/znk-web/juminkanja/S2430/initialize?prefCd=41&kikanCd=1415102130&kikanKbn=1", "url2": "http://www.4970.net/", "内容": "医療法人　福翔会　福岡病院【1:病院】【診療科目:内科_呼吸器内科_循環器内科_消化器内科_老年内科_心療内科_リハビリテーション科_放射線科_禁煙外来、健診、人間ドック】【一般病床数:0療養病床数:103精神病床数:0感染症病床数:0合計病床数:103】佐賀県佐賀市開成六丁目１４ー１０" }, "geometry": { "type": "Point", "coordinates": [ 130.271515, 33.270686 ] } },
{ "type": "Feature", "properties": { "ID": 4111415102260, "正式名称": "佐賀大学医学部附属病院", "機関区分": 1, "都道府県コード": 41, "市区町村コード": 201, "所在地": "佐賀県佐賀市鍋島５丁目１ー１", "緯度": 33.283934, "経度": 130.26671, "url": "https://www.iryou.teikyouseido.mhlw.go.jp/znk-web/juminkanja/S2430/initialize?prefCd=41&kikanCd=1415102260&kikanKbn=1", "url2": "http://www.hospital.med.saga-u.ac.jp", "内容": "佐賀大学医学部附属病院【1:病院】【診療科目:内科_血液・腫瘍内科_脳神経内科_呼吸器内科_循環器内科_消化器内科_腎臓内科_肝臓・糖尿病・内分泌内科_外科_脳神経外科_呼吸器外科_心臓血管外科_消化器外科_ペインクリニック外科_頭頸部外科_整形外科_形成外科_緩和ケア外科_小児科_産婦人科_眼科_耳鼻いんこう科_皮膚科_泌尿器科_精神科_歯科_歯科口腔外科_リウマチ科_リハビリテーション科_放射線科_病理診断科_救急科_麻酔科】【一般病床数:580療養病床数:0精神病床数:22感染症病床数:0合計病床数:602】佐賀県佐賀市鍋島５丁目１ー１" }, "geometry": { "type": "Point", "coordinates": [ 130.26671, 33.283934 ] } },
{ "type": "Feature", "properties": { "ID": 4111415102390, "正式名称": "藤川病院", "機関区分": 1, "都道府県コード": 41, "市区町村コード": 201, "所在地": "佐賀県佐賀市松原一丁目２番６号", "緯度": 33.251466, "経度": 130.299707, "url": "https://www.iryou.teikyouseido.mhlw.go.jp/znk-web/juminkanja/S2430/initialize?prefCd=41&kikanCd=1415102390&kikanKbn=1", "url2": "https://fujikawa-hospital.or.jp/", "内容": "藤川病院【1:病院】【診療科目:内科_外科_脳神経外科_整形外科_リウマチ科_リハビリテーション科_麻酔科】【一般病床数:52療養病床数:0精神病床数:0感染症病床数:0合計病床数:52】佐賀県佐賀市松原一丁目２番６号" }, "geometry": { "type": "Point", "coordinates": [ 130.299707, 33.251466 ] } },
{ "type": "Feature", "properties": { "ID": 4111415102420, "正式名称": "医療法人社団　杠葉会　もろどみ中央病院", "機関区分": 1, "都道府県コード": 41, "市区町村コード": 201, "所在地": "佐賀県佐賀市諸富町大字諸富津２３０－２", "緯度": 33.221888, "経度": 130.361925, "url": "https://www.iryou.teikyouseido.mhlw.go.jp/znk-web/juminkanja/S2430/initialize?prefCd=41&kikanCd=1415102420&kikanKbn=1", "url2": "http://www.morodomi-hp.or.jp", "内容": "医療法人社団　杠葉会　もろどみ中央病院【1:病院】【診療科目:内科_循環器内科_消化器内科_腎臓内科_神経内科_ペインクリニック内科_外科_脳神経外科_消化器外科_整形外科_眼科_耳鼻いんこう科_皮膚科_泌尿器科_リハビリテーション科_麻酔科_健診、人間ドック】【一般病床数:90療養病床数:109精神病床数:0感染症病床数:0合計病床数:199】佐賀県佐賀市諸富町大字諸富津２３０－２" }, "geometry": { "type": "Point", "coordinates": [ 130.361925, 33.221888 ] } },
{ "type": "Feature", "properties": { "ID": 4111415102680, "正式名称": "ふじの森ホスピタル", "機関区分": 1, "都道府県コード": 41, "市区町村コード": 201, "所在地": "佐賀県佐賀市富士町小副川２７２", "緯度": 33.364869, "経度": 130.246348, "url": "https://www.iryou.teikyouseido.mhlw.go.jp/znk-web/juminkanja/S2430/initialize?prefCd=41&kikanCd=1415102680&kikanKbn=1", "url2": "http://www.samejima-hospital.com", "内容": "ふじの森ホスピタル【1:病院】【診療科目:内科_精神科_心療内科】【一般病床数:0療養病床数:0精神病床数:172感染症病床数:0合計病床数:172】佐賀県佐賀市富士町小副川２７２" }, "geometry": { "type": "Point", "coordinates": [ 130.246348, 33.364869 ] } },
{ "type": "Feature", "properties": { "ID": 4111415102840, "正式名称": "医療法人安寿会田中病院", "機関区分": 1, "都道府県コード": 41, "市区町村コード": 201, "所在地": "佐賀県佐賀市嘉瀬町扇町", "緯度": 33.244494, "経度": 130.265294, "url": "https://www.iryou.teikyouseido.mhlw.go.jp/znk-web/juminkanja/S2430/initialize?prefCd=41&kikanCd=1415102840&kikanKbn=1", "url2": "https://tanakahp.com", "内容": "医療法人安寿会田中病院【1:病院】【診療科目:内科_整形外科_リウマチ科_リハビリテーション科_小児リハビリテーション科】【一般病床数:32療養病床数:0精神病床数:0感染症病床数:0合計病床数:32】佐賀県佐賀市嘉瀬町扇町" }, "geometry": { "type": "Point", "coordinates": [ 130.265294, 33.244494 ] } },
{ "type": "Feature", "properties": { "ID": 4111415102970, "正式名称": "清友病院", "機関区分": 1, "都道府県コード": 41, "市区町村コード": 201, "所在地": "佐賀県佐賀市久保泉町川久保５４５７", "緯度": 33.34029, "経度": 130.325786, "url": "https://www.iryou.teikyouseido.mhlw.go.jp/znk-web/juminkanja/S2430/initialize?prefCd=41&kikanCd=1415102970&kikanKbn=1", "url2": "http://seiyuukai.org/", "内容": "清友病院【1:病院】【診療科目:神経内科_脳神経外科_精神科_リハビリテーション科】【一般病床数:0療養病床数:0精神病床数:100感染症病床数:0合計病床数:100】佐賀県佐賀市久保泉町川久保５４５７" }, "geometry": { "type": "Point", "coordinates": [ 130.325786, 33.34029 ] } },
{ "type": "Feature", "properties": { "ID": 4111415103010, "正式名称": "福田脳神経外科病院", "機関区分": 1, "都道府県コード": 41, "市区町村コード": 201, "所在地": "佐賀県佐賀市本庄町本庄１２３６番地２", "緯度": 33.244661, "経度": 130.288292, "url": "https://www.iryou.teikyouseido.mhlw.go.jp/znk-web/juminkanja/S2430/initialize?prefCd=41&kikanCd=1415103010&kikanKbn=1", "url2": "http://www.fukudansc.jp/", "内容": "福田脳神経外科病院【1:病院】【診療科目:脳神経外科】【一般病床数:40療養病床数:0精神病床数:0感染症病床数:0合計病床数:40】佐賀県佐賀市本庄町本庄１２３６番地２" }, "geometry": { "type": "Point", "coordinates": [ 130.288292, 33.244661 ] } },
{ "type": "Feature", "properties": { "ID": 4111415103270, "正式名称": "医療法人春陽会上村病院", "機関区分": 1, "都道府県コード": 41, "市区町村コード": 201, "所在地": "佐賀県佐賀市兵庫町渕１９０３番地１", "緯度": 33.281713, "経度": 130.314233, "url": "https://www.iryou.teikyouseido.mhlw.go.jp/znk-web/juminkanja/S2430/initialize?prefCd=41&kikanCd=1415103270&kikanKbn=1", "url2": "http://www.shunyoukai.jp/", "内容": "医療法人春陽会上村病院【1:病院】【診療科目:内科_呼吸器内科_循環器内科_消化器内科_外科_整形外科_眼科_リハビリテーション科_放射線科_救急科】【一般病床数:106療養病床数:46精神病床数:0感染症病床数:0合計病床数:152】佐賀県佐賀市兵庫町渕１９０３番地１" }, "geometry": { "type": "Point", "coordinates": [ 130.314233, 33.281713 ] } },
{ "type": "Feature", "properties": { "ID": 4111415103300, "正式名称": "早津江病院", "機関区分": 1, "都道府県コード": 41, "市区町村コード": 201, "所在地": "佐賀県佐賀市川副町大字福富８２７", "緯度": 33.21186, "経度": 130.321123, "url": "https://www.iryou.teikyouseido.mhlw.go.jp/znk-web/juminkanja/S2430/initialize?prefCd=41&kikanCd=1415103300&kikanKbn=1", "url2": "https://shoufuukai.or.jp", "内容": "早津江病院【1:病院】【診療科目:精神科_心療内科】【一般病床数:0療養病床数:0精神病床数:282感染症病床数:0合計病床数:282】佐賀県佐賀市川副町大字福富８２７" }, "geometry": { "type": "Point", "coordinates": [ 130.321123, 33.21186 ] } },
{ "type": "Feature", "properties": { "ID": 4111415103690, "正式名称": "独立行政法人地域医療機能推進機構　佐賀中部病院", "機関区分": 1, "都道府県コード": 41, "市区町村コード": 201, "所在地": "佐賀県佐賀市兵庫南３丁目８－１", "緯度": 33.26441, "経度": 130.318428, "url": "https://www.iryou.teikyouseido.mhlw.go.jp/znk-web/juminkanja/S2430/initialize?prefCd=41&kikanCd=1415103690&kikanKbn=1", "url2": "http://saga.jcho.go.jp/", "内容": "独立行政法人地域医療機能推進機構　佐賀中部病院【1:病院】【診療科目:内科_血液内科_脳神経内科_呼吸器内科_循環器内科_消化器内科_外科_整形外科_形成外科_婦人科_眼科_皮膚科_泌尿器科_リハビリテーション科_放射線科_病理診断科_麻酔科】【一般病床数:160療養病床数:0精神病床数:0感染症病床数:0合計病床数:160】佐賀県佐賀市兵庫南３丁目８－１" }, "geometry": { "type": "Point", "coordinates": [ 130.318428, 33.26441 ] } },
{ "type": "Feature", "properties": { "ID": 4111415103720, "正式名称": "医療法人同愛会　サンテ溝上病院", "機関区分": 1, "都道府県コード": 41, "市区町村コード": 201, "所在地": "佐賀県佐賀市大財１ー６ー６０", "緯度": 33.256799, "経度": 130.303874, "url": "https://www.iryou.teikyouseido.mhlw.go.jp/znk-web/juminkanja/S2430/initialize?prefCd=41&kikanCd=1415103720&kikanKbn=1", "url2": "http://www.sante-mizokami.com", "内容": "医療法人同愛会　サンテ溝上病院【1:病院】【診療科目:内科_脳神経内科_循環器内科_消化器内科_脳神経外科_血管外科_整形外科_リハビリテーション科】【一般病床数:75療養病床数:0精神病床数:0感染症病床数:0合計病床数:75】佐賀県佐賀市大財１ー６ー６０" }, "geometry": { "type": "Point", "coordinates": [ 130.303874, 33.256799 ] } },
{ "type": "Feature", "properties": { "ID": 4111415200690, "正式名称": "独立行政法人国立病院機構　肥前精神医療センター", "機関区分": 1, "都道府県コード": 41, "市区町村コード": 327, "所在地": "佐賀県神埼郡吉野ヶ里町三津１６０", "緯度": 33.344985, "経度": 130.385947, "url": "https://www.iryou.teikyouseido.mhlw.go.jp/znk-web/juminkanja/S2430/initialize?prefCd=41&kikanCd=1415200690&kikanKbn=1", "url2": "https://hizen.hosp.go.jp/", "内容": "独立行政法人国立病院機構　肥前精神医療センター【1:病院】【診療科目:内科_神経内科_外科_小児科_児童精神科_精神科_老年精神科_歯科_リハビリテーション科】【一般病床数:100療養病床数:0精神病床数:446感染症病床数:0合計病床数:546】佐賀県神埼郡吉野ヶ里町三津１６０" }, "geometry": { "type": "Point", "coordinates": [ 130.385947, 33.344985 ] } },
{ "type": "Feature", "properties": { "ID": 4111415200720, "正式名称": "医療法人久和会　和田記念病院", "機関区分": 1, "都道府県コード": 41, "市区町村コード": 210, "所在地": "佐賀県神埼市神埼町尾崎３７８０", "緯度": 33.328459, "経度": 130.346979, "url": "https://www.iryou.teikyouseido.mhlw.go.jp/znk-web/juminkanja/S2430/initialize?prefCd=41&kikanCd=1415200720&kikanKbn=1", "url2": "https://www.kyuwakai.jp/", "内容": "医療法人久和会　和田記念病院【1:病院】【診療科目:内科_呼吸器内科_循環器内科_消化器内科_小児科_リハビリテーション科】【一般病床数:0療養病床数:60精神病床数:0感染症病床数:0合計病床数:60】佐賀県神埼市神埼町尾崎３７８０" }, "geometry": { "type": "Point", "coordinates": [ 130.346979, 33.328459 ] } },
{ "type": "Feature", "properties": { "ID": 4111415300170, "正式名称": "いぬお病院", "機関区分": 1, "都道府県コード": 41, "市区町村コード": 203, "所在地": "佐賀県鳥栖市萱方町１１０－１", "緯度": 33.387733, "経度": 130.509435, "url": "https://www.iryou.teikyouseido.mhlw.go.jp/znk-web/juminkanja/S2430/initialize?prefCd=41&kikanCd=1415300170&kikanKbn=1", "url2": "http://www.inuo.jp", "内容": "いぬお病院【1:病院】【診療科目:精神科_心療内科】【一般病床数:0療養病床数:0精神病床数:156感染症病床数:0合計病床数:156】佐賀県鳥栖市萱方町１１０－１" }, "geometry": { "type": "Point", "coordinates": [ 130.509435, 33.387733 ] } },
{ "type": "Feature", "properties": { "ID": 4111415300460, "正式名称": "若楠療育園", "機関区分": 1, "都道府県コード": 41, "市区町村コード": 203, "所在地": "佐賀県鳥栖市弥生が丘二丁目１３４番地１", "緯度": 33.404814, "経度": 130.523961, "url": "https://www.iryou.teikyouseido.mhlw.go.jp/znk-web/juminkanja/S2430/initialize?prefCd=41&kikanCd=1415300460&kikanKbn=1", "url2": "https://www.wakakusu-swc.or.jp/wakakusuryouikuen/", "内容": "若楠療育園【1:病院】【診療科目:内科_小児科_精神科_神経科_歯科_小児歯科_リハビリテーション科】【一般病床数:80療養病床数:0精神病床数:0感染症病床数:0合計病床数:80】佐賀県鳥栖市弥生が丘二丁目１３４番地１" }, "geometry": { "type": "Point", "coordinates": [ 130.523961, 33.404814 ] } },
{ "type": "Feature", "properties": { "ID": 4111415300620, "正式名称": "松岡病院", "機関区分": 1, "都道府県コード": 41, "市区町村コード": 203, "所在地": "佐賀県鳥栖市西新町１４２２", "緯度": 33.35418, "経度": 130.470884, "url": "https://www.iryou.teikyouseido.mhlw.go.jp/znk-web/juminkanja/S2430/initialize?prefCd=41&kikanCd=1415300620&kikanKbn=1", "url2": "http://www.matsuoka-hp.com", "内容": "松岡病院【1:病院】【診療科目:内科_糖尿病内科_循環器内科_消化器内科_神経内科_精神科_老年精神科_リウマチ科_リハビリテーション科】【一般病床数:0療養病床数:46精神病床数:202感染症病床数:0合計病床数:248】佐賀県鳥栖市西新町１４２２" }, "geometry": { "type": "Point", "coordinates": [ 130.470884, 33.35418 ] } },
{ "type": "Feature", "properties": { "ID": 4111415300750, "正式名称": "今村病院", "機関区分": 1, "都道府県コード": 41, "市区町村コード": 203, "所在地": "佐賀県鳥栖市轟木町１５２３－６", "緯度": 33.367735, "経度": 130.50513, "url": "https://www.iryou.teikyouseido.mhlw.go.jp/znk-web/juminkanja/S2430/initialize?prefCd=41&kikanCd=1415300750&kikanKbn=1", "url2": "http://www.josuikai.or.jp", "内容": "今村病院【1:病院】【診療科目:内科_呼吸器内科_循環器内科_消化器内科_腎臓内科_神経内科_外科_脳神経外科_呼吸器外科_心臓血管外科_消化器外科_肛門外科_整形外科_形成外科_小児科_婦人科_眼科_耳鼻いんこう科_美容皮膚科_泌尿器科_歯科_歯科口腔外科_アレルギー科_リハビリテーション科_放射線科_救急科_麻酔科】【一般病床数:181療養病床数:74精神病床数:0感染症病床数:0合計病床数:255】佐賀県鳥栖市轟木町１５２３－６" }, "geometry": { "type": "Point", "coordinates": [ 130.50513, 33.367735 ] } },
{ "type": "Feature", "properties": { "ID": 4111415301050, "正式名称": "独立行政法人国立病院機構東佐賀病院", "機関区分": 1, "都道府県コード": 41, "市区町村コード": 346, "所在地": "佐賀県三養基郡みやき町原古賀７３２４", "緯度": 33.337404, "経度": 130.445303, "url": "https://www.iryou.teikyouseido.mhlw.go.jp/znk-web/juminkanja/S2430/initialize?prefCd=41&kikanCd=1415301050&kikanKbn=1", "url2": "https://higashisaga.hosp.go.jp/", "内容": "独立行政法人国立病院機構東佐賀病院【1:病院】【診療科目:内科_糖尿病・内分泌内科_呼吸器内科_循環器内科_消化器内科_肝臓内科_外科_整形外科_小児科_眼科_泌尿器科_歯科_アレルギー科_リウマチ科_リハビリテーション科_放射線科】【一般病床数:301療養病床数:0精神病床数:0感染症病床数:4合計病床数:325】佐賀県三養基郡みやき町原古賀７３２４" }, "geometry": { "type": "Point", "coordinates": [ 130.445303, 33.337404 ] } },
{ "type": "Feature", "properties": { "ID": 4111415301180, "正式名称": "大島病院", "機関区分": 1, "都道府県コード": 41, "市区町村コード": 346, "所在地": "佐賀県三養基郡みやき町白壁", "緯度": 33.344959, "経度": 130.459191, "url": "https://www.iryou.teikyouseido.mhlw.go.jp/znk-web/juminkanja/S2430/initialize?prefCd=41&kikanCd=1415301180&kikanKbn=1", "url2": "http://www.ohshimahospital.jp/", "内容": "大島病院【1:病院】【診療科目:内科_神経内科_外科_脳神経外科_精神科_心療内科_リハビリテーション科】【一般病床数:24療養病床数:26精神病床数:240感染症病床数:0合計病床数:290】佐賀県三養基郡みやき町白壁" }, "geometry": { "type": "Point", "coordinates": [ 130.459191, 33.344959 ] } },
{ "type": "Feature", "properties": { "ID": 4111415301210, "正式名称": "光風会病院", "機関区分": 1, "都道府県コード": 41, "市区町村コード": 346, "所在地": "佐賀県三養基郡みやき町白壁", "緯度": 33.333932, "経度": 130.468051, "url": "https://www.iryou.teikyouseido.mhlw.go.jp/znk-web/juminkanja/S2430/initialize?prefCd=41&kikanCd=1415301210&kikanKbn=1", "url2": "http://www.kofukai/or.jp", "内容": "光風会病院【1:病院】【診療科目:精神科_心療内科】【一般病床数:0療養病床数:0精神病床数:174感染症病床数:0合計病床数:174】佐賀県三養基郡みやき町白壁" }, "geometry": { "type": "Point", "coordinates": [ 130.468051, 33.333932 ] } },
{ "type": "Feature", "properties": { "ID": 4111415301500, "正式名称": "医療法人　三樹会　三樹病院", "機関区分": 1, "都道府県コード": 41, "市区町村コード": 345, "所在地": "佐賀県三養基郡上峰町大字坊所２７６番地１", "緯度": 33.320294, "経度": 130.425111, "url": "https://www.iryou.teikyouseido.mhlw.go.jp/znk-web/juminkanja/S2430/initialize?prefCd=41&kikanCd=1415301500&kikanKbn=1", "url2": "https://miki-hosp.jp", "内容": "医療法人　三樹会　三樹病院【1:病院】【診療科目:内科_呼吸器内科_循環器内科_消化器内科_胃腸内科_外科_整形外科_リハビリテーション科】【一般病床数:40療養病床数:16精神病床数:0感染症病床数:0合計病床数:56】佐賀県三養基郡上峰町大字坊所２７６番地１" }, "geometry": { "type": "Point", "coordinates": [ 130.425111, 33.320294 ] } },
{ "type": "Feature", "properties": { "ID": 4111415301630, "正式名称": "きやま髙尾病院", "機関区分": 1, "都道府県コード": 41, "市区町村コード": 341, "所在地": "佐賀県三養基郡基山町園部２７０番地１", "緯度": 33.414741, "経度": 130.519756, "url": "https://www.iryou.teikyouseido.mhlw.go.jp/znk-web/juminkanja/S2430/initialize?prefCd=41&kikanCd=1415301630&kikanKbn=1", "url2": "http://kiyama.koukodou.or.jp/", "内容": "きやま髙尾病院【1:病院】【診療科目:内科_リハビリテーション科】【一般病床数:0療養病床数:160精神病床数:0感染症病床数:0合計病床数:160】佐賀県三養基郡基山町園部２７０番地１" }, "geometry": { "type": "Point", "coordinates": [ 130.519756, 33.414741 ] } },
{ "type": "Feature", "properties": { "ID": 4111415301760, "正式名称": "やよいがおか鹿毛病院", "機関区分": 1, "都道府県コード": 41, "市区町村コード": 203, "所在地": "佐賀県鳥栖市弥生が丘二丁目１４３番地", "緯度": 33.405036, "経度": 130.522211, "url": "https://www.iryou.teikyouseido.mhlw.go.jp/znk-web/juminkanja/S2430/initialize?prefCd=41&kikanCd=1415301760&kikanKbn=1", "url2": "http://kagehospital.or.jp", "内容": "やよいがおか鹿毛病院【1:病院】【診療科目:内科_糖尿病内科_内分泌内科_呼吸器内科_循環器内科_消化器内科_腎臓内科_外科_脳神経外科_心臓血管外科_消化器外科_整形外科_形成外科_泌尿器科_リウマチ科_リハビリテーション科_放射線科_放射線診断科_麻酔科】【一般病床数:140療養病床数:119精神病床数:0感染症病床数:0合計病床数:259】佐賀県鳥栖市弥生が丘二丁目１４３番地" }, "geometry": { "type": "Point", "coordinates": [ 130.522211, 33.405036 ] } },
{ "type": "Feature", "properties": { "ID": 4111415301890, "正式名称": "医療法人啓心会　啓心会病院", "機関区分": 1, "都道府県コード": 41, "市区町村コード": 203, "所在地": "佐賀県鳥栖市原町浦田６７０ー１", "緯度": 33.379428, "経度": 130.5341, "url": "https://www.iryou.teikyouseido.mhlw.go.jp/znk-web/juminkanja/S2430/initialize?prefCd=41&kikanCd=1415301890&kikanKbn=1", "url2": "http://www.keisinkai.jp", "内容": "医療法人啓心会　啓心会病院【1:病院】【診療科目:内科_呼吸器内科_胃腸内科_整形外科_心療内科_リハビリテーション科】【一般病床数:0療養病床数:180精神病床数:0感染症病床数:0合計病床数:180】佐賀県鳥栖市原町浦田６７０ー１" }, "geometry": { "type": "Point", "coordinates": [ 130.5341, 33.379428 ] } },
{ "type": "Feature", "properties": { "ID": 4111415301920, "正式名称": "医療法人　好古堂　すむのさと高尾病院", "機関区分": 1, "都道府県コード": 41, "市区町村コード": 203, "所在地": "佐賀県鳥栖市高田町２１０－１", "緯度": 33.348401, "経度": 130.524219, "url": "https://www.iryou.teikyouseido.mhlw.go.jp/znk-web/juminkanja/S2430/initialize?prefCd=41&kikanCd=1415301920&kikanKbn=1", "url2": "http://www.koukodou.or.jp", "内容": "医療法人　好古堂　すむのさと高尾病院【1:病院】【診療科目:内科_呼吸器内科_循環器内科_消化器内科_神経内科_皮膚科_リハビリテーション科】【一般病床数:0療養病床数:182精神病床数:0感染症病床数:0合計病床数:182】佐賀県鳥栖市高田町２１０－１" }, "geometry": { "type": "Point", "coordinates": [ 130.524219, 33.348401 ] } },
{ "type": "Feature", "properties": { "ID": 4111415302190, "正式名称": "医療法人仁徳会　今村病院", "機関区分": 1, "都道府県コード": 41, "市区町村コード": 203, "所在地": "佐賀県鳥栖市本通町１丁目８５５番地１０", "緯度": 33.373651, "経度": 130.517185, "url": "https://www.iryou.teikyouseido.mhlw.go.jp/znk-web/juminkanja/S2430/initialize?prefCd=41&kikanCd=1415302190&kikanKbn=1", "url2": "http://www.jintokukai.jp/", "内容": "医療法人仁徳会　今村病院【1:病院】【診療科目:内科_糖尿病内科_呼吸器内科_循環器内科_消化器内科_老年内科_外科_整形外科_皮膚科_リハビリテーション科_禁煙外来、通所リハビリテーション】【一般病床数:0療養病床数:50精神病床数:0感染症病床数:0合計病床数:50】佐賀県鳥栖市本通町１丁目８５５番地１０" }, "geometry": { "type": "Point", "coordinates": [ 130.517185, 33.373651 ] } },
{ "type": "Feature", "properties": { "ID": 4111415400230, "正式名称": "中多久病院", "機関区分": 1, "都道府県コード": 41, "市区町村コード": 204, "所在地": "佐賀県多久市北多久町多久原２５１２ー２４", "緯度": 33.28507, "経度": 130.113251, "url": "https://www.iryou.teikyouseido.mhlw.go.jp/znk-web/juminkanja/S2430/initialize?prefCd=41&kikanCd=1415400230&kikanKbn=1", "url2": "http://koujinkai.net", "内容": "中多久病院【1:病院】【診療科目:内科_神経内科_精神科】【一般病床数:0療養病床数:0精神病床数:155感染症病床数:0合計病床数:155】佐賀県多久市北多久町多久原２５１２ー２４" }, "geometry": { "type": "Point", "coordinates": [ 130.113251, 33.28507 ] } },
{ "type": "Feature", "properties": { "ID": 4111415400360, "正式名称": "医療法人剛友会諸隈病院", "機関区分": 1, "都道府県コード": 41, "市区町村コード": 204, "所在地": "佐賀県多久市北多久町多久原２４１４－７０", "緯度": 33.286292, "経度": 130.114279, "url": "https://www.iryou.teikyouseido.mhlw.go.jp/znk-web/juminkanja/S2430/initialize?prefCd=41&kikanCd=1415400360&kikanKbn=1", "url2": "http://morokuma-hos.jp", "内容": "医療法人剛友会諸隈病院【1:病院】【診療科目:内科_人工透析内科_神経内科_外科_整形外科_リハビリテーション科】【一般病床数:44療養病床数:0精神病床数:0感染症病床数:0合計病床数:44】佐賀県多久市北多久町多久原２４１４－７０" }, "geometry": { "type": "Point", "coordinates": [ 130.114279, 33.286292 ] } },
{ "type": "Feature", "properties": { "ID": 4111415500130, "正式名称": "医療法人　松籟会　松籟病院", "機関区分": 1, "都道府県コード": 41, "市区町村コード": 202, "所在地": "佐賀県唐津市鏡４３０４番地の１", "緯度": 33.440551, "経度": 130.011617, "url": "https://www.iryou.teikyouseido.mhlw.go.jp/znk-web/juminkanja/S2430/initialize?prefCd=41&kikanCd=1415500130&kikanKbn=1", "url2": "http://www.shouraikai.jp/shourai/", "内容": "医療法人　松籟会　松籟病院【1:病院】【診療科目:精神科_心療内科】【一般病床数:0療養病床数:0精神病床数:264感染症病床数:0合計病床数:264】佐賀県唐津市鏡４３０４番地の１" }, "geometry": { "type": "Point", "coordinates": [ 130.011617, 33.440551 ] } },
{ "type": "Feature", "properties": { "ID": 4111415500390, "正式名称": "社会福祉法人恩賜財団済生会支部　佐賀県済生会唐津病院", "機関区分": 1, "都道府県コード": 41, "市区町村コード": 202, "所在地": "佐賀県唐津市元旗町８１７番地", "緯度": 33.455048, "経度": 129.96301, "url": "https://www.iryou.teikyouseido.mhlw.go.jp/znk-web/juminkanja/S2430/initialize?prefCd=41&kikanCd=1415500390&kikanKbn=1", "url2": "http://www.saiseikai-karatsu.com", "内容": "社会福祉法人恩賜財団済生会支部　佐賀県済生会唐津病院【1:病院】【診療科目:内科_糖尿病内科_呼吸器内科_循環器内科_消化器内科_腎臓内科_神経内科_外科_脳神経外科_呼吸器外科_血管外科_消化器外科_乳腺外科_整形外科_耳鼻いんこう科_リウマチ科_リハビリテーション科_放射線科_麻酔科】【一般病床数:193療養病床数:0精神病床数:0感染症病床数:0合計病床数:193】佐賀県唐津市元旗町８１７番地" }, "geometry": { "type": "Point", "coordinates": [ 129.96301, 33.455048 ] } },
{ "type": "Feature", "properties": { "ID": 4111415501140, "正式名称": "医療法人整和会副島整形外科病院", "機関区分": 1, "都道府県コード": 41, "市区町村コード": 202, "所在地": "佐賀県唐津市和多田天満町一丁目２番１号", "緯度": 33.432801, "経度": 129.987064, "url": "https://www.iryou.teikyouseido.mhlw.go.jp/znk-web/juminkanja/S2430/initialize?prefCd=41&kikanCd=1415501140&kikanKbn=1", "url2": "http://seiwakai-karatsu.or.jp/", "内容": "医療法人整和会副島整形外科病院【1:病院】【診療科目:整形外科_リハビリテーション科】【一般病床数:24療養病床数:30精神病床数:0感染症病床数:0合計病床数:54】佐賀県唐津市和多田天満町一丁目２番１号" }, "geometry": { "type": "Point", "coordinates": [ 129.987064, 33.432801 ] } },
{ "type": "Feature", "properties": { "ID": 4111415501690, "正式名称": "医療法人松籟会　河畔病院", "機関区分": 1, "都道府県コード": 41, "市区町村コード": 202, "所在地": "佐賀県唐津市松南町１１９ー２", "緯度": 33.438689, "経度": 129.996674, "url": "https://www.iryou.teikyouseido.mhlw.go.jp/znk-web/juminkanja/S2430/initialize?prefCd=41&kikanCd=1415501690&kikanKbn=1", "url2": "http://www.shouraikai.jp/kahan/", "内容": "医療法人松籟会　河畔病院【1:病院】【診療科目:内科_糖尿病内科_脳神経内科_循環器内科_消化器内科_緩和ケア内科_外科_脳神経外科_消化器外科_乳腺外科_整形外科_リハビリテーション科】【一般病床数:67療養病床数:84精神病床数:0感染症病床数:0合計病床数:151】佐賀県唐津市松南町１１９ー２" }, "geometry": { "type": "Point", "coordinates": [ 129.996674, 33.438689 ] } },
{ "type": "Feature", "properties": { "ID": 4111415501850, "正式名称": "唐津第一病院", "機関区分": 1, "都道府県コード": 41, "市区町村コード": 202, "所在地": "佐賀県唐津市朝日町１０７１ー４", "緯度": 33.452732, "経度": 129.96228, "url": "https://www.iryou.teikyouseido.mhlw.go.jp/znk-web/juminkanja/S2430/initialize?prefCd=41&kikanCd=1415501850&kikanKbn=1", "url2": "http://karatsu-kaigo.com/karatsu-first-hospital/", "内容": "唐津第一病院【1:病院】【診療科目:内科_糖尿病内科_呼吸器内科_循環器内科_消化器内科_胃腸内科_腎臓内科_肝臓内科_神経内科_老年内科_外科_肛門外科_整形外科_皮膚科_リハビリテーション科_放射線科】【一般病床数:0療養病床数:101精神病床数:0感染症病床数:0合計病床数:101】佐賀県唐津市朝日町１０７１ー４" }, "geometry": { "type": "Point", "coordinates": [ 129.96228, 33.452732 ] } },
{ "type": "Feature", "properties": { "ID": 4111415501980, "正式名称": "医療法人　修腎会　藤崎病院", "機関区分": 1, "都道府県コード": 41, "市区町村コード": 202, "所在地": "佐賀県唐津市栄町２５７６番地９", "緯度": 33.446994, "経度": 129.977481, "url": "https://www.iryou.teikyouseido.mhlw.go.jp/znk-web/juminkanja/S2430/initialize?prefCd=41&kikanCd=1415501980&kikanKbn=1", "url2": "http://www.shujinkai.or.jp/", "内容": "医療法人　修腎会　藤崎病院【1:病院】【診療科目:内科_循環器内科_腎臓内科_皮膚科_泌尿器科_人工透析】【一般病床数:32療養病床数:30精神病床数:0感染症病床数:0合計病床数:62】佐賀県唐津市栄町２５７６番地９" }, "geometry": { "type": "Point", "coordinates": [ 129.977481, 33.446994 ] } },
{ "type": "Feature", "properties": { "ID": 4111415502150, "正式名称": "医療法人平川病院", "機関区分": 1, "都道府県コード": 41, "市区町村コード": 202, "所在地": "佐賀県唐津市山本６４４番地５", "緯度": 33.393944, "経度": 129.979566, "url": "https://www.iryou.teikyouseido.mhlw.go.jp/znk-web/juminkanja/S2430/initialize?prefCd=41&kikanCd=1415502150&kikanKbn=1", "url2": "https://www.hp-hirakawa.com", "内容": "医療法人平川病院【1:病院】【診療科目:内科_胃腸内科_外科_ペインクリニック外科_リハビリテーション科_麻酔科】【一般病床数:40療養病床数:0精神病床数:0感染症病床数:0合計病床数:40】佐賀県唐津市山本６４４番地５" }, "geometry": { "type": "Point", "coordinates": [ 129.979566, 33.393944 ] } },
{ "type": "Feature", "properties": { "ID": 4111415502280, "正式名称": "唐津東松浦医師会医療センター", "機関区分": 1, "都道府県コード": 41, "市区町村コード": 202, "所在地": "佐賀県唐津市千代田町２５６６番地１１", "緯度": 33.44866, "経度": 129.974815, "url": "https://www.iryou.teikyouseido.mhlw.go.jp/znk-web/juminkanja/S2430/initialize?prefCd=41&kikanCd=1415502280&kikanKbn=1", "url2": "http://www.karatsu.saga.med.or.jp/", "内容": "唐津東松浦医師会医療センター【1:病院】【診療科目:内科_胃腸内科_外科_リハビリテーション科_放射線科】【一般病床数:50療養病床数:0精神病床数:0感染症病床数:0合計病床数:50】佐賀県唐津市千代田町２５６６番地１１" }, "geometry": { "type": "Point", "coordinates": [ 129.974815, 33.44866 ] } },
{ "type": "Feature", "properties": { "ID": 4111415502310, "正式名称": "医療法人尚誠会冬野病院", "機関区分": 1, "都道府県コード": 41, "市区町村コード": 202, "所在地": "佐賀県唐津市相知町相知２２６４", "緯度": 33.351477, "経度": 130.007092, "url": "https://www.iryou.teikyouseido.mhlw.go.jp/znk-web/juminkanja/S2430/initialize?prefCd=41&kikanCd=1415502310&kikanKbn=1", "url2": null, "内容": "医療法人尚誠会冬野病院【1:病院】【診療科目:内科_消化器内科_胃腸内科_腎臓内科】【一般病床数:0療養病床数:55精神病床数:0感染症病床数:0合計病床数:55】佐賀県唐津市相知町相知２２６４" }, "geometry": { "type": "Point", "coordinates": [ 130.007092, 33.351477 ] } },
{ "type": "Feature", "properties": { "ID": 4111415502440, "正式名称": "医療法人　至誠堂　宇都宮病院", "機関区分": 1, "都道府県コード": 41, "市区町村コード": 202, "所在地": "佐賀県唐津市厳木町本山３８６－１", "緯度": 33.331647, "経度": 130.036757, "url": "https://www.iryou.teikyouseido.mhlw.go.jp/znk-web/juminkanja/S2430/initialize?prefCd=41&kikanCd=1415502440&kikanKbn=1", "url2": "http://www.utunomiya.jp", "内容": "医療法人　至誠堂　宇都宮病院【1:病院】【診療科目:内科_呼吸器内科_循環器内科_消化器内科_神経内科_整形外科_耳鼻いんこう科_皮膚科_リハビリテーション科】【一般病床数:0療養病床数:48精神病床数:0感染症病床数:0合計病床数:48】佐賀県唐津市厳木町本山３８６－１" }, "geometry": { "type": "Point", "coordinates": [ 130.036757, 33.331647 ] } },
{ "type": "Feature", "properties": { "ID": 4111415502570, "正式名称": "からつ医療福祉センター", "機関区分": 1, "都道府県コード": 41, "市区町村コード": 202, "所在地": "佐賀県唐津市双水２８０６", "緯度": 33.396694, "経度": 129.984982, "url": "https://www.iryou.teikyouseido.mhlw.go.jp/znk-web/juminkanja/S2430/initialize?prefCd=41&kikanCd=1415502570&kikanKbn=1", "url2": "http://www.saganet.ne.jp/ssgk/", "内容": "からつ医療福祉センター【1:病院】【診療科目:整形外科_小児科_耳鼻いんこう科_泌尿器科_歯科_リハビリテーション科】【一般病床数:46療養病床数:0精神病床数:0感染症病床数:0合計病床数:46】佐賀県唐津市双水２８０６" }, "geometry": { "type": "Point", "coordinates": [ 129.984982, 33.396694 ] } },
{ "type": "Feature", "properties": { "ID": 4111415502600, "正式名称": "医療法人賛健会城内病院", "機関区分": 1, "都道府県コード": 41, "市区町村コード": 202, "所在地": "佐賀県唐津市南城内２番１７号", "緯度": 33.449882, "経度": 129.970065, "url": "https://www.iryou.teikyouseido.mhlw.go.jp/znk-web/juminkanja/S2430/initialize?prefCd=41&kikanCd=1415502600&kikanKbn=1", "url2": "http://jyonai-hp.sankenkai.or.jp", "内容": "医療法人賛健会城内病院【1:病院】【診療科目:内科_糖尿病内科_循環器内科_消化器内科_漢方内科_外科_整形外科_眼科_リウマチ科_リハビリテーション科_麻酔科】【一般病床数:49療養病床数:96精神病床数:0感染症病床数:0合計病床数:145】佐賀県唐津市南城内２番１７号" }, "geometry": { "type": "Point", "coordinates": [ 129.970065, 33.449882 ] } },
{ "type": "Feature", "properties": { "ID": 4111415502730, "正式名称": "唐津市民病院きたはた", "機関区分": 1, "都道府県コード": 41, "市区町村コード": 202, "所在地": "佐賀県唐津市北波多徳須恵１４２４番地１", "緯度": 33.374196, "経度": 129.946431, "url": "https://www.iryou.teikyouseido.mhlw.go.jp/znk-web/juminkanja/S2430/initialize?prefCd=41&kikanCd=1415502730&kikanKbn=1", "url2": "http://www.city.karatsu.lg.jp/soshiki/53/", "内容": "唐津市民病院きたはた【1:病院】【診療科目:内科_外科_整形外科_小児科_耳鼻いんこう科_リハビリテーション科】【一般病床数:0療養病床数:56精神病床数:0感染症病床数:0合計病床数:56】佐賀県唐津市北波多徳須恵１４２４番地１" }, "geometry": { "type": "Point", "coordinates": [ 129.946431, 33.374196 ] } },
{ "type": "Feature", "properties": { "ID": 4111415502860, "正式名称": "虹と海のホスピタル", "機関区分": 1, "都道府県コード": 41, "市区町村コード": 202, "所在地": "佐賀県唐津市原８４２－１", "緯度": 33.419289, "経度": 129.997127, "url": "https://www.iryou.teikyouseido.mhlw.go.jp/znk-web/juminkanja/S2430/initialize?prefCd=41&kikanCd=1415502860&kikanKbn=1", "url2": "https://www.nijitoumi.or.jp/", "内容": "虹と海のホスピタル【1:病院】【診療科目:内科_精神科_心療内科】【一般病床数:0療養病床数:0精神病床数:265感染症病床数:0合計病床数:265】佐賀県唐津市原８４２－１" }, "geometry": { "type": "Point", "coordinates": [ 129.997127, 33.419289 ] } },
{ "type": "Feature", "properties": { "ID": 4111415502990, "正式名称": "唐津赤十字病院", "機関区分": 1, "都道府県コード": 41, "市区町村コード": 202, "所在地": "佐賀県唐津市和多田２４３０", "緯度": 33.435059, "経度": 129.974002, "url": "https://www.iryou.teikyouseido.mhlw.go.jp/znk-web/juminkanja/S2430/initialize?prefCd=41&kikanCd=1415502990&kikanKbn=1", "url2": "https://www.karatsu.jrc.or.jp", "内容": "唐津赤十字病院【1:病院】【診療科目:内科_感染症内科_血液内科_糖尿病内科_脳神経内科_呼吸器内科_循環器内科_消化器内科_腎臓内科_腫瘍内科_膠原病内科_外科_脳神経外科_呼吸器外科_心臓血管外科_消化器外科_肝臓・胆のう・膵臓外科_乳腺外科_整形外科_形成外科_小児科_産婦人科_眼科_耳鼻いんこう科_皮膚科_泌尿器科_精神科_歯科口腔外科_リハビリテーション科_放射線科_病理診断科_救急科_麻酔科】【一般病床数:300療養病床数:0精神病床数:0感染症病床数:4合計病床数:304】佐賀県唐津市和多田２４３０" }, "geometry": { "type": "Point", "coordinates": [ 129.974002, 33.435059 ] } },
{ "type": "Feature", "properties": { "ID": 4111415600290, "正式名称": "医療法人　博友会　堀田病院", "機関区分": 1, "都道府県コード": 41, "市区町村コード": 205, "所在地": "佐賀県伊万里市立花町２９７４番地５", "緯度": 33.269373, "経度": 129.886411, "url": "https://www.iryou.teikyouseido.mhlw.go.jp/znk-web/juminkanja/S2430/initialize?prefCd=41&kikanCd=1415600290&kikanKbn=1", "url2": "http://www.hupital.jp", "内容": "医療法人　博友会　堀田病院【1:病院】【診療科目:内科_精神科_心療内科】【一般病床数:0療養病床数:0精神病床数:180感染症病床数:0合計病床数:180】佐賀県伊万里市立花町２９７４番地５" }, "geometry": { "type": "Point", "coordinates": [ 129.886411, 33.269373 ] } },
{ "type": "Feature", "properties": { "ID": 4111415601040, "正式名称": "医療法人二期会　小島病院", "機関区分": 1, "都道府県コード": 41, "市区町村コード": 205, "所在地": "佐賀県伊万里市黒川町塩屋２０５ー１", "緯度": 33.331005, "経度": 129.851329, "url": "https://www.iryou.teikyouseido.mhlw.go.jp/znk-web/juminkanja/S2430/initialize?prefCd=41&kikanCd=1415601040&kikanKbn=1", "url2": "https://nikikai-kojima.com", "内容": "医療法人二期会　小島病院【1:病院】【診療科目:内科_精神科_リハビリテーション科】【一般病床数:36療養病床数:34精神病床数:0感染症病床数:0合計病床数:70】佐賀県伊万里市黒川町塩屋２０５ー１" }, "geometry": { "type": "Point", "coordinates": [ 129.851329, 33.331005 ] } },
{ "type": "Feature", "properties": { "ID": 4111415601170, "正式名称": "医療法人　朋友会　山口病院", "機関区分": 1, "都道府県コード": 41, "市区町村コード": 205, "所在地": "佐賀県伊万里市新天町３０５番地", "緯度": 33.26854, "経度": 129.874634, "url": "https://www.iryou.teikyouseido.mhlw.go.jp/znk-web/juminkanja/S2430/initialize?prefCd=41&kikanCd=1415601170&kikanKbn=1", "url2": "http://www.yamaguchi-hp-imari.jp/", "内容": "医療法人　朋友会　山口病院【1:病院】【診療科目:内科_呼吸器内科_循環器内科_胃腸内科_整形外科_リハビリテーション科】【一般病床数:0療養病床数:60精神病床数:0感染症病床数:0合計病床数:60】佐賀県伊万里市新天町３０５番地" }, "geometry": { "type": "Point", "coordinates": [ 129.874634, 33.26854 ] } },
{ "type": "Feature", "properties": { "ID": 4111415601620, "正式名称": "山のサナーレ・クリニック", "機関区分": 1, "都道府県コード": 41, "市区町村コード": 205, "所在地": "佐賀県伊万里市立花町３２３番地２", "緯度": 33.257763, "経度": 129.878384, "url": "https://www.iryou.teikyouseido.mhlw.go.jp/znk-web/juminkanja/S2430/initialize?prefCd=41&kikanCd=1415601620&kikanKbn=1", "url2": "http://www.sanare.or.jp/", "内容": "山のサナーレ・クリニック【1:病院】【診療科目:精神科_神経科_心療内科】【一般病床数:0療養病床数:0精神病床数:144感染症病床数:0合計病床数:144】佐賀県伊万里市立花町３２３番地２" }, "geometry": { "type": "Point", "coordinates": [ 129.878384, 33.257763 ] } },
{ "type": "Feature", "properties": { "ID": 4111415601750, "正式名称": "西田病院", "機関区分": 1, "都道府県コード": 41, "市区町村コード": 205, "所在地": "佐賀県伊万里市山代町楠久８９０番地２", "緯度": 33.296888, "経度": 129.816856, "url": "https://www.iryou.teikyouseido.mhlw.go.jp/znk-web/juminkanja/S2430/initialize?prefCd=41&kikanCd=1415601750&kikanKbn=1", "url2": "https://nishida-hp.jp/", "内容": "西田病院【1:病院】【診療科目:内科_呼吸器内科_消化器内科_人工透析内科_緩和ケア内科_外科_呼吸器外科_心臓血管外科_消化器外科_乳腺外科_肛門外科_整形外科_リハビリテーション科_放射線科_麻酔科】【一般病床数:48療養病床数:50精神病床数:0感染症病床数:0合計病床数:98】佐賀県伊万里市山代町楠久８９０番地２" }, "geometry": { "type": "Point", "coordinates": [ 129.816856, 33.296888 ] } },
{ "type": "Feature", "properties": { "ID": 4111415601880, "正式名称": "山元記念病院", "機関区分": 1, "都道府県コード": 41, "市区町村コード": 205, "所在地": "佐賀県伊万里市二里町八谷搦８８－４", "緯度": 33.274511, "経度": 129.871329, "url": "https://www.iryou.teikyouseido.mhlw.go.jp/znk-web/juminkanja/S2430/initialize?prefCd=41&kikanCd=1415601880&kikanKbn=1", "url2": "http://www.kenjin-kai.com/", "内容": "山元記念病院【1:病院】【診療科目:内科_呼吸器内科_循環器内科_消化器内科_外科_脳神経外科_呼吸器外科_心臓血管外科_消化器外科_整形外科_リハビリテーション科_放射線科_麻酔科】【一般病床数:54療養病床数:96精神病床数:0感染症病床数:0合計病床数:150】佐賀県伊万里市二里町八谷搦８８－４" }, "geometry": { "type": "Point", "coordinates": [ 129.871329, 33.274511 ] } },
{ "type": "Feature", "properties": { "ID": 4111415601910, "正式名称": "前田病院", "機関区分": 1, "都道府県コード": 41, "市区町村コード": 205, "所在地": "佐賀県伊万里市立花町２７４２－１", "緯度": 33.265124, "経度": 129.890272, "url": "https://www.iryou.teikyouseido.mhlw.go.jp/znk-web/juminkanja/S2430/initialize?prefCd=41&kikanCd=1415601910&kikanKbn=1", "url2": "http://www.maeda-imari.or.jp/", "内容": "前田病院【1:病院】【診療科目:内科_血液内科_糖尿病内科_呼吸器内科_消化器内科_腎臓内科_漢方内科_脳神経外科_整形外科_リハビリテーション科】【一般病床数:0療養病床数:89精神病床数:0感染症病床数:0合計病床数:89】佐賀県伊万里市立花町２７４２－１" }, "geometry": { "type": "Point", "coordinates": [ 129.890272, 33.265124 ] } },
{ "type": "Feature", "properties": { "ID": 4111415602050, "正式名称": "伊万里有田共立病院", "機関区分": 1, "都道府県コード": 41, "市区町村コード": 401, "所在地": "佐賀県西松浦郡有田町二ノ瀬甲８６０番地", "緯度": 33.238759, "経度": 129.851618, "url": "https://www.iryou.teikyouseido.mhlw.go.jp/znk-web/juminkanja/S2430/initialize?prefCd=41&kikanCd=1415602050&kikanKbn=1", "url2": "http://www.imari-arita-hp.or.jp", "内容": "伊万里有田共立病院【1:病院】【診療科目:内科_糖尿病内科_糖尿病・代謝内科_脳神経内科_呼吸器内科_消化器内科_外科_脳神経外科_心臓血管外科_消化器外科_腫瘍外科_内視鏡外科_整形外科_形成外科_小児科_婦人科_眼科_耳鼻いんこう科_泌尿器科_リウマチ科_リハビリテーション科_放射線科_病理診断科_救急科_麻酔科_健診、人間ドック】【一般病床数:202療養病床数:0精神病床数:0感染症病床数:4合計病床数:206】佐賀県西松浦郡有田町二ノ瀬甲８６０番地" }, "geometry": { "type": "Point", "coordinates": [ 129.851618, 33.238759 ] } },
{ "type": "Feature", "properties": { "ID": 4111415602180, "正式名称": "伊万里整形外科病院", "機関区分": 1, "都道府県コード": 41, "市区町村コード": 205, "所在地": "佐賀県伊万里市木須町４４５０番地", "緯度": 33.284136, "経度": 129.871058, "url": "https://www.iryou.teikyouseido.mhlw.go.jp/znk-web/juminkanja/S2430/initialize?prefCd=41&kikanCd=1415602180&kikanKbn=1", "url2": "https://imari-orthopedics-hospital.jimdosite.com/", "内容": "伊万里整形外科病院【1:病院】【診療科目:内科_整形外科_リウマチ科_リハビリテーション科】【一般病床数:0療養病床数:69精神病床数:0感染症病床数:0合計病床数:69】佐賀県伊万里市木須町４４５０番地" }, "geometry": { "type": "Point", "coordinates": [ 129.871058, 33.284136 ] } },
{ "type": "Feature", "properties": { "ID": 4111415700480, "正式名称": "医療法人敬和会持田病院", "機関区分": 1, "都道府県コード": 41, "市区町村コード": 206, "所在地": "佐賀県武雄市武雄町武雄５８５８番地１", "緯度": 33.189496, "経度": 130.009263, "url": "https://www.iryou.teikyouseido.mhlw.go.jp/znk-web/juminkanja/S2430/initialize?prefCd=41&kikanCd=1415700480&kikanKbn=1", "url2": "http://www2.saganet.ne.jp/mochida3/", "内容": "医療法人敬和会持田病院【1:病院】【診療科目:内科_血液内科_消化器内科】【一般病床数:0療養病床数:47精神病床数:0感染症病床数:0合計病床数:47】佐賀県武雄市武雄町武雄５８５８番地１" }, "geometry": { "type": "Point", "coordinates": [ 130.009263, 33.189496 ] } },
{ "type": "Feature", "properties": { "ID": 4111415700930, "正式名称": "大野病院", "機関区分": 1, "都道府県コード": 41, "市区町村コード": 206, "所在地": "佐賀県武雄市山内町大野６３５１－１", "緯度": 33.210603, "経度": 129.939241, "url": "https://www.iryou.teikyouseido.mhlw.go.jp/znk-web/juminkanja/S2430/initialize?prefCd=41&kikanCd=1415700930&kikanKbn=1", "url2": "http://www.ryumondo.or.jp/", "内容": "大野病院【1:病院】【診療科目:内科_リハビリテーション科】【一般病床数:0療養病床数:148精神病床数:0感染症病床数:0合計病床数:148】佐賀県武雄市山内町大野６３５１－１" }, "geometry": { "type": "Point", "coordinates": [ 129.939241, 33.210603 ] } },
{ "type": "Feature", "properties": { "ID": 4111415701230, "正式名称": "医療法人　敬天堂　古賀病院", "機関区分": 1, "都道府県コード": 41, "市区町村コード": 424, "所在地": "佐賀県杵島郡江北町上小田１１５０", "緯度": 33.218486, "経度": 130.137509, "url": "https://www.iryou.teikyouseido.mhlw.go.jp/znk-web/juminkanja/S2430/initialize?prefCd=41&kikanCd=1415701230&kikanKbn=1", "url2": "http://www.keitendo.jp/", "内容": "医療法人　敬天堂　古賀病院【1:病院】【診療科目:内科_呼吸器内科_消化器内科_外科_消化器外科_整形外科_リハビリテーション科】【一般病床数:0療養病床数:60精神病床数:0感染症病床数:0合計病床数:60】佐賀県杵島郡江北町上小田１１５０" }, "geometry": { "type": "Point", "coordinates": [ 130.137509, 33.218486 ] } },
{ "type": "Feature", "properties": { "ID": 4111415701650, "正式名称": "白石共立病院", "機関区分": 1, "都道府県コード": 41, "市区町村コード": 425, "所在地": "佐賀県杵島郡白石町福田１２９６", "緯度": 33.18211, "経度": 130.140363, "url": "https://www.iryou.teikyouseido.mhlw.go.jp/znk-web/juminkanja/S2430/initialize?prefCd=41&kikanCd=1415701650&kikanKbn=1", "url2": "http://shiroishikyouritsu.jp", "内容": "白石共立病院【1:病院】【診療科目:内科_糖尿病・内分泌内科_糖尿病・代謝内科_呼吸器内科_循環器内科_消化器内科_腎臓内科_人工透析内科_肝臓内科_神経内科_外科_脳神経外科_呼吸器外科_気管食道外科_心臓血管外科_消化器外科_肛門外科_整形外科_小児科_皮膚科_アレルギー科_リウマチ科_リハビリテーション科_放射線科_病理診断科_救急科】【一般病床数:108療養病床数:42精神病床数:0感染症病床数:0合計病床数:150】佐賀県杵島郡白石町福田１２９６" }, "geometry": { "type": "Point", "coordinates": [ 130.140363, 33.18211 ] } },
{ "type": "Feature", "properties": { "ID": 4111415701810, "正式名称": "医療法人　醇和会　有島病院", "機関区分": 1, "都道府県コード": 41, "市区町村コード": 425, "所在地": "佐賀県杵島郡白石町戸ケ里２３５２番地３", "緯度": 33.154308, "経度": 130.125254, "url": "https://www.iryou.teikyouseido.mhlw.go.jp/znk-web/juminkanja/S2430/initialize?prefCd=41&kikanCd=1415701810&kikanKbn=1", "url2": "http://arishima-hp.com", "内容": "医療法人　醇和会　有島病院【1:病院】【診療科目:内科_循環器内科_消化器内科_小児科_児童精神科_リハビリテーション科】【一般病床数:0療養病床数:60精神病床数:0感染症病床数:0合計病床数:60】佐賀県杵島郡白石町戸ケ里２３５２番地３" }, "geometry": { "type": "Point", "coordinates": [ 130.125254, 33.154308 ] } },
{ "type": "Feature", "properties": { "ID": 4111415701940, "正式名称": "祐愛会高島病院", "機関区分": 1, "都道府県コード": 41, "市区町村コード": 425, "所在地": "佐賀県杵島郡白石町戸ケ里", "緯度": 33.155196, "経度": 130.124837, "url": "https://www.iryou.teikyouseido.mhlw.go.jp/znk-web/juminkanja/S2430/initialize?prefCd=41&kikanCd=1415701940&kikanKbn=1", "url2": "http://shijikai.com/outline/", "内容": "祐愛会高島病院【1:病院】【診療科目:内科_循環器内科_消化器内科_外科_小児科_児童精神科_リハビリテーション科】【一般病床数:0療養病床数:92精神病床数:0感染症病床数:0合計病床数:92】佐賀県杵島郡白石町戸ケ里" }, "geometry": { "type": "Point", "coordinates": [ 130.124837, 33.155196 ] } },
{ "type": "Feature", "properties": { "ID": 4111415702240, "正式名称": "医療法人武岡病院", "機関区分": 1, "都道府県コード": 41, "市区町村コード": 424, "所在地": "佐賀県杵島郡江北町大字山口１２８２", "緯度": 33.216829, "経度": 130.159332, "url": "https://www.iryou.teikyouseido.mhlw.go.jp/znk-web/juminkanja/S2430/initialize?prefCd=41&kikanCd=1415702240&kikanKbn=1", "url2": "http://takeoka-hp.or.jp/", "内容": "医療法人武岡病院【1:病院】【診療科目:内科_呼吸器内科_循環器内科_胃腸内科_外科_整形外科_小児科_泌尿器科_リハビリテーション科】【一般病床数:0療養病床数:30精神病床数:0感染症病床数:0合計病床数:30】佐賀県杵島郡江北町大字山口１２８２" }, "geometry": { "type": "Point", "coordinates": [ 130.159332, 33.216829 ] } },
{ "type": "Feature", "properties": { "ID": 4111415702370, "正式名称": "白石保養院", "機関区分": 1, "都道府県コード": 41, "市区町村コード": 425, "所在地": "佐賀県杵島郡白石町大字福吉２１３４ー１", "緯度": 33.188943, "経度": 130.136529, "url": "https://www.iryou.teikyouseido.mhlw.go.jp/znk-web/juminkanja/S2430/initialize?prefCd=41&kikanCd=1415702370&kikanKbn=1", "url2": "http://www.siroisi.com/", "内容": "白石保養院【1:病院】【診療科目:精神科_心療内科】【一般病床数:0療養病床数:0精神病床数:248感染症病床数:0合計病床数:248】佐賀県杵島郡白石町大字福吉２１３４ー１" }, "geometry": { "type": "Point", "coordinates": [ 130.136529, 33.188943 ] } },
{ "type": "Feature", "properties": { "ID": 4111415800120, "正式名称": "社会医療法人　祐愛会織田病院", "機関区分": 1, "都道府県コード": 41, "市区町村コード": 207, "所在地": "佐賀県鹿島市大字高津原４３０６番地", "緯度": 33.111451, "経度": 130.095702, "url": "https://www.iryou.teikyouseido.mhlw.go.jp/znk-web/juminkanja/S2430/initialize?prefCd=41&kikanCd=1415800120&kikanKbn=1", "url2": "http://www.yuai-hc.jp", "内容": "社会医療法人　祐愛会織田病院【1:病院】【診療科目:内科_呼吸器内科_循環器内科_消化器内科_肝臓内科_外科_脳神経外科_呼吸器外科_心臓血管外科_消化器外科_乳腺外科_肛門外科_頭頸部外科_整形外科_形成外科_耳鼻いんこう科_皮膚科_リハビリテーション科_放射線科_放射線診断科_救急科_麻酔科】【一般病床数:131療養病床数:0精神病床数:0感染症病床数:0合計病床数:131】佐賀県鹿島市大字高津原４３０６番地" }, "geometry": { "type": "Point", "coordinates": [ 130.095702, 33.111451 ] } },
{ "type": "Feature", "properties": { "ID": 4111415800410, "正式名称": "医療法人犬塚病院", "機関区分": 1, "都道府県コード": 41, "市区町村コード": 207, "所在地": "佐賀県鹿島市大字高津原６０２ー３", "緯度": 33.107424, "経度": 130.096507, "url": "https://www.iryou.teikyouseido.mhlw.go.jp/znk-web/juminkanja/S2430/initialize?prefCd=41&kikanCd=1415800410&kikanKbn=1", "url2": "http://www.inuzuka-hp.or.jp", "内容": "医療法人犬塚病院【1:病院】【診療科目:内科_糖尿病・内分泌内科_呼吸器内科_循環器内科_消化器内科_リハビリテーション科_放射線科】【一般病床数:60療養病床数:0精神病床数:0感染症病床数:0合計病床数:60】佐賀県鹿島市大字高津原６０２ー３" }, "geometry": { "type": "Point", "coordinates": [ 130.096507, 33.107424 ] } },
{ "type": "Feature", "properties": { "ID": 4111415800670, "正式名称": "町立太良病院", "機関区分": 1, "都道府県コード": 41, "市区町村コード": 441, "所在地": "佐賀県藤津郡太良町大字多良１５２０番地１２", "緯度": 33.027601, "経度": 130.17928, "url": "https://www.iryou.teikyouseido.mhlw.go.jp/znk-web/juminkanja/S2430/initialize?prefCd=41&kikanCd=1415800670&kikanKbn=1", "url2": "https://tara-hp.com/", "内容": "町立太良病院【1:病院】【診療科目:内科_循環器内科_外科_整形外科_小児科_耳鼻いんこう科_リハビリテーション科】【一般病床数:60療養病床数:0精神病床数:0感染症病床数:0合計病床数:60】佐賀県藤津郡太良町大字多良１５２０番地１２" }, "geometry": { "type": "Point", "coordinates": [ 130.17928, 33.027601 ] } },
{ "type": "Feature", "properties": { "ID": 4111415800700, "正式名称": "医療法人　陽明会　樋口病院", "機関区分": 1, "都道府県コード": 41, "市区町村コード": 209, "所在地": "佐賀県嬉野市塩田町馬場下甲１番地", "緯度": 33.13317, "経度": 130.062065, "url": "https://www.iryou.teikyouseido.mhlw.go.jp/znk-web/juminkanja/S2430/initialize?prefCd=41&kikanCd=1415800700&kikanKbn=1", "url2": "https://higuchi-hospital.com/", "内容": "医療法人　陽明会　樋口病院【1:病院】【診療科目:内科_脳神経内科_老年内科_整形外科_小児科_耳鼻いんこう科_リハビリテーション科】【一般病床数:45療養病床数:35精神病床数:0感染症病床数:0合計病床数:80】佐賀県嬉野市塩田町馬場下甲１番地" }, "geometry": { "type": "Point", "coordinates": [ 130.062065, 33.13317 ] } },
{ "type": "Feature", "properties": { "ID": 4111415801000, "正式名称": "嬉野温泉病院", "機関区分": 1, "都道府県コード": 41, "市区町村コード": 209, "所在地": "佐賀県嬉野市嬉野町下宿乙１９１９番地", "緯度": 33.101249, "経度": 129.977102, "url": "https://www.iryou.teikyouseido.mhlw.go.jp/znk-web/juminkanja/S2430/initialize?prefCd=41&kikanCd=1415801000&kikanKbn=1", "url2": "http://www.yuhokai.com/", "内容": "嬉野温泉病院【1:病院】【診療科目:内科_整形外科_児童精神科_眼科_皮膚科_泌尿器科_精神科_心療内科_老年精神科_リハビリテーション科】【一般病床数:53療養病床数:102精神病床数:532感染症病床数:0合計病床数:687】佐賀県嬉野市嬉野町下宿乙１９１９番地" }, "geometry": { "type": "Point", "coordinates": [ 129.977102, 33.101249 ] } },
{ "type": "Feature", "properties": { "ID": 4111415900150, "正式名称": "ふじおか病院", "機関区分": 1, "都道府県コード": 41, "市区町村コード": 201, "所在地": "佐賀県佐賀市大和町尼寺２６８５", "緯度": 33.307154, "経度": 130.283152, "url": "https://www.iryou.teikyouseido.mhlw.go.jp/znk-web/juminkanja/S2430/initialize?prefCd=41&kikanCd=1415900150&kikanKbn=1", "url2": "http://www.fjok-hsp.com/", "内容": "ふじおか病院【1:病院】【診療科目:内科_呼吸器内科_循環器内科_胃腸内科_リハビリテーション科】【一般病床数:30療養病床数:58精神病床数:0感染症病床数:0合計病床数:88】佐賀県佐賀市大和町尼寺２６８５" }, "geometry": { "type": "Point", "coordinates": [ 130.283152, 33.307154 ] } },
{ "type": "Feature", "properties": { "ID": 4111415900280, "正式名称": "医療法人智仁会佐賀リハビリテーション病院", "機関区分": 1, "都道府県コード": 41, "市区町村コード": 201, "所在地": "佐賀県佐賀市南佐賀一丁目１７番１号", "緯度": 33.238301, "経度": 130.312484, "url": "https://www.iryou.teikyouseido.mhlw.go.jp/znk-web/juminkanja/S2430/initialize?prefCd=41&kikanCd=1415900280&kikanKbn=1", "url2": "http://www.sagareha.or.jp", "内容": "医療法人智仁会佐賀リハビリテーション病院【1:病院】【診療科目:内科_脳神経内科_皮膚科_リハビリテーション科】【一般病床数:0療養病床数:96精神病床数:0感染症病床数:0合計病床数:96】佐賀県佐賀市南佐賀一丁目１７番１号" }, "geometry": { "type": "Point", "coordinates": [ 130.312484, 33.238301 ] } },
{ "type": "Feature", "properties": { "ID": 4111415900310, "正式名称": "佐賀市立富士大和温泉病院", "機関区分": 1, "都道府県コード": 41, "市区町村コード": 201, "所在地": "佐賀県佐賀市富士町梅野１７２１番地１", "緯度": 33.356815, "経度": 130.249431, "url": "https://www.iryou.teikyouseido.mhlw.go.jp/znk-web/juminkanja/S2430/initialize?prefCd=41&kikanCd=1415900310&kikanKbn=1", "url2": "http://www.hospitalfj.saga.jp/", "内容": "佐賀市立富士大和温泉病院【1:病院】【診療科目:内科_呼吸器内科_循環器内科_消化器内科_外科_整形外科_眼科_リハビリテーション科_放射線科】【一般病床数:54療養病床数:27精神病床数:0感染症病床数:0合計病床数:81】佐賀県佐賀市富士町梅野１７２１番地１" }, "geometry": { "type": "Point", "coordinates": [ 130.249431, 33.356815 ] } },
{ "type": "Feature", "properties": { "ID": 4111415900440, "正式名称": "島田病院", "機関区分": 1, "都道府県コード": 41, "市区町村コード": 201, "所在地": "佐賀県佐賀市嘉瀬町中原１６７９番地１", "緯度": 33.239106, "経度": 130.259045, "url": "https://www.iryou.teikyouseido.mhlw.go.jp/znk-web/juminkanja/S2430/initialize?prefCd=41&kikanCd=1415900440&kikanKbn=1", "url2": "http://www.shimada.or.jp/", "内容": "島田病院【1:病院】【診療科目:内科_消化器内科_歯科_歯科口腔外科_リハビリテーション科】【一般病床数:0療養病床数:84精神病床数:0感染症病床数:0合計病床数:84】佐賀県佐賀市嘉瀬町中原１６７９番地１" }, "geometry": { "type": "Point", "coordinates": [ 130.259045, 33.239106 ] } },
{ "type": "Feature", "properties": { "ID": 4111415900570, "正式名称": "医療法人社団　　敬愛会　　佐賀記念病院", "機関区分": 1, "都道府県コード": 41, "市区町村コード": 201, "所在地": "佐賀県佐賀市高木瀬町長瀬１２４０－１", "緯度": 33.293072, "経度": 130.282569, "url": "https://www.iryou.teikyouseido.mhlw.go.jp/znk-web/juminkanja/S2430/initialize?prefCd=41&kikanCd=1415900570&kikanKbn=1", "url2": "http://sagakinen.jp/", "内容": "医療法人社団　　敬愛会　　佐賀記念病院【1:病院】【診療科目:内科_血液内科_糖尿病内科_呼吸器内科_循環器内科_消化器内科_胃腸内科_神経内科_整形外科_形成外科_眼科_耳鼻いんこう科_皮膚科_歯科_歯科口腔外科_リウマチ科_リハビリテーション科_放射線科_麻酔科_禁煙外来】【一般病床数:120療養病床数:57精神病床数:0感染症病床数:0合計病床数:177】佐賀県佐賀市高木瀬町長瀬１２４０－１" }, "geometry": { "type": "Point", "coordinates": [ 130.282569, 33.293072 ] } },
{ "type": "Feature", "properties": { "ID": 4111415900730, "正式名称": "地方独立行政法人　佐賀県医療センター好生館", "機関区分": 1, "都道府県コード": 41, "市区町村コード": 201, "所在地": "佐賀県佐賀市嘉瀬町中原４００番地", "緯度": 33.2412, "経度": 130.267639, "url": "https://www.iryou.teikyouseido.mhlw.go.jp/znk-web/juminkanja/S2430/initialize?prefCd=41&kikanCd=1415900730&kikanKbn=1", "url2": "http://www.koseikan.jp/index.html", "内容": "地方独立行政法人　佐賀県医療センター好生館【1:病院】【診療科目:内科_血液内科_糖尿病・代謝内科_脳神経内科_呼吸器内科_循環器内科_消化器内科_腎臓内科_肝臓内科_腫瘍内科_緩和ケア内科_外科_脳神経外科_呼吸器外科_心臓血管外科_消化器外科_肝臓・胆のう・膵臓外科_整形外科_形成外科_小児科_小児外科_産婦人科_眼科_耳鼻いんこう科_皮膚科_泌尿器科_精神科_歯科口腔外科_リハビリテーション科_放射線科_病理診断科_救急科_麻酔科】【一般病床数:437療養病床数:0精神病床数:0感染症病床数:8合計病床数:445】佐賀県佐賀市嘉瀬町中原４００番地" }, "geometry": { "type": "Point", "coordinates": [ 130.267639, 33.2412 ] } },
{ "type": "Feature", "properties": { "ID": 4111415900860, "正式名称": "医療法人ひらまつ病院", "機関区分": 1, "都道府県コード": 41, "市区町村コード": 208, "所在地": "佐賀県小城市小城町１０００番地１", "緯度": 33.298081, "経度": 130.200974, "url": "https://www.iryou.teikyouseido.mhlw.go.jp/znk-web/juminkanja/S2430/initialize?prefCd=41&kikanCd=1415900860&kikanKbn=1", "url2": "http://hiramatsu-hp.or.jp/", "内容": "医療法人ひらまつ病院【1:病院】【診療科目:内科_呼吸器内科_循環器内科_消化器内科_人工透析内科_神経内科_外科_脳神経外科_呼吸器外科_消化器外科_肛門外科_整形外科_小児科_眼科_皮膚科_泌尿器科_リウマチ科_リハビリテーション科_放射線科_麻酔科】【一般病床数:86療養病床数:104精神病床数:0感染症病床数:0合計病床数:190】佐賀県小城市小城町１０００番地１" }, "geometry": { "type": "Point", "coordinates": [ 130.200974, 33.298081 ] } },
{ "type": "Feature", "properties": { "ID": 4111415900990, "正式名称": "なゆたの森病院", "機関区分": 1, "都道府県コード": 41, "市区町村コード": 201, "所在地": "佐賀県佐賀市本庄町本庄２６９番地１", "緯度": 33.237488, "経度": 130.293269, "url": "https://www.iryou.teikyouseido.mhlw.go.jp/znk-web/juminkanja/S2430/initialize?prefCd=41&kikanCd=1415900990&kikanKbn=1", "url2": "http://www.shiseikai-g.or.jp/", "内容": "なゆたの森病院【1:病院】【診療科目:内科_循環器内科_消化器内科_腎臓内科_緩和ケア内科_リハビリテーション科_放射線科】【一般病床数:105療養病床数:60精神病床数:0感染症病床数:0合計病床数:165】佐賀県佐賀市本庄町本庄２６９番地１" }, "geometry": { "type": "Point", "coordinates": [ 130.293269, 33.237488 ] } },
{ "type": "Feature", "properties": { "ID": 4111415901030, "正式名称": "江口病院", "機関区分": 1, "都道府県コード": 41, "市区町村コード": 208, "所在地": "佐賀県小城市三日月町金田１１７８－１", "緯度": 33.259857, "経度": 130.228857, "url": "https://www.iryou.teikyouseido.mhlw.go.jp/znk-web/juminkanja/S2430/initialize?prefCd=41&kikanCd=1415901030&kikanKbn=1", "url2": "http://www.eguchi-hospital.com/", "内容": "江口病院【1:病院】【診療科目:内科_糖尿病内科_糖尿病・内分泌内科_呼吸器内科_循環器内科_消化器内科_皮膚科_リハビリテーション科】【一般病床数:42療養病床数:56精神病床数:0感染症病床数:0合計病床数:98】佐賀県小城市三日月町金田１１７８－１" }, "geometry": { "type": "Point", "coordinates": [ 130.228857, 33.259857 ] } },
{ "type": "Feature", "properties": { "ID": 4111415901160, "正式名称": "医療法人啓仁会　橋本病院", "機関区分": 1, "都道府県コード": 41, "市区町村コード": 210, "所在地": "佐賀県神埼市神埼町本告牟田２９９４ー１", "緯度": 33.305237, "経度": 130.367889, "url": "https://www.iryou.teikyouseido.mhlw.go.jp/znk-web/juminkanja/S2430/initialize?prefCd=41&kikanCd=1415901160&kikanKbn=1", "url2": "https://keijin-hashimoto.com/hospital.html/", "内容": "医療法人啓仁会　橋本病院【1:病院】【診療科目:内科_糖尿病内科_呼吸器内科_消化器内科_胃腸内科_内視鏡内科_外科_消化器外科_肛門外科_整形外科_リハビリテーション科】【一般病床数:40療養病床数:0精神病床数:0感染症病床数:0合計病床数:40】佐賀県神埼市神埼町本告牟田２９９４ー１" }, "geometry": { "type": "Point", "coordinates": [ 130.367889, 33.305237 ] } },
{ "type": "Feature", "properties": { "ID": 4111415901290, "正式名称": "医療法人社団真仁会境野病院", "機関区分": 1, "都道府県コード": 41, "市区町村コード": 201, "所在地": "佐賀県佐賀市松原４丁目２番２８号", "緯度": 33.251833, "経度": 130.306917, "url": "https://www.iryou.teikyouseido.mhlw.go.jp/znk-web/juminkanja/S2430/initialize?prefCd=41&kikanCd=1415901290&kikanKbn=1", "url2": "https://www.shinjinkai.jp/", "内容": "医療法人社団真仁会境野病院【1:病院】【診療科目:内科_整形外科_リハビリテーション科】【一般病床数:37療養病床数:0精神病床数:0感染症病床数:0合計病床数:37】佐賀県佐賀市松原４丁目２番２８号" }, "geometry": { "type": "Point", "coordinates": [ 130.306917, 33.251833 ] } },
{ "type": "Feature", "properties": { "ID": 4111415901320, "正式名称": "医療法人公和会　横須賀病院", "機関区分": 1, "都道府県コード": 41, "市区町村コード": 201, "所在地": "佐賀県佐賀市巨勢町高尾３２４ー１５", "緯度": 33.255463, "経度": 130.32437, "url": "https://www.iryou.teikyouseido.mhlw.go.jp/znk-web/juminkanja/S2430/initialize?prefCd=41&kikanCd=1415901320&kikanKbn=1", "url2": "https://yokosuka-hp.jp", "内容": "医療法人公和会　横須賀病院【1:病院】【診療科目:内科_外科_脳神経外科_消化器外科_胸部外科_整形外科_皮膚科_リハビリテーション科】【一般病床数:90療養病床数:0精神病床数:0感染症病床数:0合計病床数:90】佐賀県佐賀市巨勢町高尾３２４ー１５" }, "geometry": { "type": "Point", "coordinates": [ 130.32437, 33.255463 ] } },
{ "type": "Feature", "properties": { "ID": 4111415901450, "正式名称": "医療法人社団啓祐会神埼病院", "機関区分": 1, "都道府県コード": 41, "市区町村コード": 210, "所在地": "佐賀県神埼市神埼町鶴３１９４ー３", "緯度": 33.318172, "経度": 130.371184, "url": "https://www.iryou.teikyouseido.mhlw.go.jp/znk-web/juminkanja/S2430/initialize?prefCd=41&kikanCd=1415901450&kikanKbn=1", "url2": "http://hosp-kan.webmedipr.jp/index.html", "内容": "医療法人社団啓祐会神埼病院【1:病院】【診療科目:内科_外科_脳神経外科_整形外科_皮膚科_リハビリテーション科_麻酔科】【一般病床数:0療養病床数:99精神病床数:0感染症病床数:0合計病床数:99】佐賀県神埼市神埼町鶴３１９４ー３" }, "geometry": { "type": "Point", "coordinates": [ 130.371184, 33.318172 ] } },
{ "type": "Feature", "properties": { "ID": 4111415901580, "正式名称": "公立佐賀中央病院", "機関区分": 1, "都道府県コード": 41, "市区町村コード": 204, "所在地": "佐賀県多久市東多久町別府３５６２番地", "緯度": 33.284924, "経度": 130.14352, "url": "https://www.iryou.teikyouseido.mhlw.go.jp/znk-web/juminkanja/S2430/initialize?prefCd=41&kikanCd=1415901580&kikanKbn=1", "url2": "https://sagachuo-pb.jp", "内容": "公立佐賀中央病院【1:病院】【診療科目:内科_糖尿病内科_脳神経内科_呼吸器内科_循環器内科_腎臓内科_外科_脳神経外科_整形外科_小児科_産婦人科_眼科_耳鼻いんこう科_皮膚科_泌尿器科_リウマチ科_リハビリテーション科】【一般病床数:95療養病床数:45精神病床数:0感染症病床数:0合計病床数:140】佐賀県多久市東多久町別府３５６２番地" }, "geometry": { "type": "Point", "coordinates": [ 130.14352, 33.284924 ] } },
{ "type": "Feature", "properties": { "ID": 4111416000190, "正式名称": "順天堂病院", "機関区分": 1, "都道府県コード": 41, "市区町村コード": 423, "所在地": "佐賀県杵島郡大町町福母７０７－２", "緯度": 33.208486, "経度": 130.10293, "url": "https://www.iryou.teikyouseido.mhlw.go.jp/znk-web/juminkanja/S2430/initialize?prefCd=41&kikanCd=1416000190&kikanKbn=1", "url2": "http://juntendo.or.jp", "内容": "順天堂病院【1:病院】【診療科目:内科_呼吸器内科_消化器内科_神経内科_外科_整形外科_皮膚科_リハビリテーション科_放射線科】【一般病床数:0療養病床数:115精神病床数:0感染症病床数:0合計病床数:115】佐賀県杵島郡大町町福母７０７－２" }, "geometry": { "type": "Point", "coordinates": [ 130.10293, 33.208486 ] } },
{ "type": "Feature", "properties": { "ID": 4111416000220, "正式名称": "福田病院", "機関区分": 1, "都道府県コード": 41, "市区町村コード": 209, "所在地": "佐賀県嬉野市嬉野町下宿甲４７１４－１０", "緯度": 33.1023, "経度": 129.995502, "url": "https://www.iryou.teikyouseido.mhlw.go.jp/znk-web/juminkanja/S2430/initialize?prefCd=41&kikanCd=1416000220&kikanKbn=1", "url2": "http://www.ureshinofukuda.qcweb.jp", "内容": "福田病院【1:病院】【診療科目:呼吸器内科_胃腸内科_外科_脳神経外科_整形外科_形成外科_リハビリテーション科_放射線科】【一般病床数:47療養病床数:25精神病床数:0感染症病床数:0合計病床数:72】佐賀県嬉野市嬉野町下宿甲４７１４－１０" }, "geometry": { "type": "Point", "coordinates": [ 129.995502, 33.1023 ] } },
{ "type": "Feature", "properties": { "ID": 4111416000350, "正式名称": "医療法人　天心堂　志田病院", "機関区分": 1, "都道府県コード": 41, "市区町村コード": 207, "所在地": "佐賀県鹿島市中村２１３４ー４", "緯度": 33.1188, "経度": 130.097651, "url": "https://www.iryou.teikyouseido.mhlw.go.jp/znk-web/juminkanja/S2430/initialize?prefCd=41&kikanCd=1416000350&kikanKbn=1", "url2": "https://shidahp.com", "内容": "医療法人　天心堂　志田病院【1:病院】【診療科目:内科_消化器内科_外科_整形外科_小児科_リウマチ科_リハビリテーション科】【一般病床数:0療養病床数:80精神病床数:0感染症病床数:0合計病床数:80】佐賀県鹿島市中村２１３４ー４" }, "geometry": { "type": "Point", "coordinates": [ 130.097651, 33.1188 ] } },
{ "type": "Feature", "properties": { "ID": 4111416000510, "正式名称": "副島整形外科病院", "機関区分": 1, "都道府県コード": 41, "市区町村コード": 206, "所在地": "佐賀県武雄市武雄町富岡７６４１ー１", "緯度": 33.196592, "経度": 130.016842, "url": "https://www.iryou.teikyouseido.mhlw.go.jp/znk-web/juminkanja/S2430/initialize?prefCd=41&kikanCd=1416000510&kikanKbn=1", "url2": "http://soejimaseikei.or.jp/", "内容": "副島整形外科病院【1:病院】【診療科目:整形外科_形成外科_リハビリテーション科_麻酔科】【一般病床数:77療養病床数:0精神病床数:0感染症病床数:0合計病床数:77】佐賀県武雄市武雄町富岡７６４１ー１" }, "geometry": { "type": "Point", "coordinates": [ 130.016842, 33.196592 ] } },
{ "type": "Feature", "properties": { "ID": 4111416000770, "正式名称": "新武雄病院", "機関区分": 1, "都道府県コード": 41, "市区町村コード": 206, "所在地": "佐賀県武雄市武雄町富岡１２６２８", "緯度": 33.197857, "経度": 130.035006, "url": "https://www.iryou.teikyouseido.mhlw.go.jp/znk-web/juminkanja/S2430/initialize?prefCd=41&kikanCd=1416000770&kikanKbn=1", "url2": "http://www.shintakeo-hp.or.jp", "内容": "新武雄病院【1:病院】【診療科目:内科_呼吸器内科_循環器内科_消化器内科_総合診療科_外科_脳神経外科_呼吸器外科_消化器外科_肛門外科_整形外科_形成外科_耳鼻いんこう科_泌尿器科_リウマチ科_リハビリテーション科_放射線科_救急科_麻酔科】【一般病床数:195療養病床数:0精神病床数:0感染症病床数:0合計病床数:195】佐賀県武雄市武雄町富岡１２６２８" }, "geometry": { "type": "Point", "coordinates": [ 130.035006, 33.197857 ] } },
{ "type": "Feature", "properties": { "ID": 4111416000800, "正式名称": "医療法人浄心会園田病院", "機関区分": 1, "都道府県コード": 41, "市区町村コード": 206, "所在地": "佐賀県武雄市武雄町武雄３６４８番地１", "緯度": 33.186219, "経度": 130.012207, "url": "https://www.iryou.teikyouseido.mhlw.go.jp/znk-web/juminkanja/S2430/initialize?prefCd=41&kikanCd=1416000800&kikanKbn=1", "url2": "http://sonodahp.jp", "内容": "医療法人浄心会園田病院【1:病院】【診療科目:精神科_心療内科】【一般病床数:0療養病床数:0精神病床数:189感染症病床数:0合計病床数:189】佐賀県武雄市武雄町武雄３６４８番地１" }, "geometry": { "type": "Point", "coordinates": [ 130.012207, 33.186219 ] } },
{ "type": "Feature", "properties": { "ID": 4111416000930, "正式名称": "独立行政法人国立病院機構嬉野医療センター", "機関区分": 1, "都道府県コード": 41, "市区町村コード": 209, "所在地": "佐賀県嬉野市嬉野町大字下宿甲４７６０－１", "緯度": 33.105131, "経度": 129.997015, "url": "https://www.iryou.teikyouseido.mhlw.go.jp/znk-web/juminkanja/S2430/initialize?prefCd=41&kikanCd=1416000930&kikanKbn=1", "url2": "https://ureshino.hosp.go.jp/", "内容": "独立行政法人国立病院機構嬉野医療センター【1:病院】【診療科目:内科_糖尿病・内分泌内科_呼吸器内科_循環器内科_消化器内科_神経内科_外科_脳神経外科_呼吸器外科_心臓血管外科_消化器外科_乳腺外科_整形外科_呼吸器・乳腺外科_小児科_産婦人科_眼科_耳鼻いんこう科_皮膚科_泌尿器科_歯科口腔外科_リウマチ科_リハビリテーション科_放射線科_病理診断科_救急科_麻酔科】【一般病床数:395療養病床数:0精神病床数:0感染症病床数:4合計病床数:399】佐賀県嬉野市嬉野町大字下宿甲４７６０－１" }, "geometry": { "type": "Point", "coordinates": [ 129.997015, 33.105131 ] } },
{ "type": "Feature", "properties": { "ID": 4111416001070, "正式名称": "医療法人誠晴曾ふきあげ納富病院", "機関区分": 1, "都道府県コード": 41, "市区町村コード": 207, "所在地": "佐賀県鹿島市高津原１８６７番地１", "緯度": 33.099101, "経度": 130.089873, "url": "https://www.iryou.teikyouseido.mhlw.go.jp/znk-web/juminkanja/S2430/initialize?prefCd=41&kikanCd=1416001070&kikanKbn=1", "url2": "https://www.seiseikai-hc.jp/", "内容": "医療法人誠晴曾ふきあげ納富病院【1:病院】【診療科目:内科_循環器内科_消化器内科_外科_皮膚科_美容皮膚科_泌尿器科_放射線科】【一般病床数:30療養病床数:0精神病床数:0感染症病床数:0合計病床数:30】佐賀県鹿島市高津原１８６７番地１" }, "geometry": { "type": "Point", "coordinates": [ 130.089873, 33.099101 ] } }
]
}
