{
"type": "FeatureCollection",
"name": "geo_41_短期入所生活介護",
"crs": { "type": "name", "properties": { "name": "urn:ogc:def:crs:OGC:1.3:CRS84" } },
"features": [
{ "type": "Feature", "properties": { "内容": "南鴎荘ショートステイサービス【短期入所生活介護】佐賀市久保田町大字久富３４５９番地２", "url": "https://www.kaigokensaku.mhlw.go.jp/41/index.php?action_kouhyou_detail_004_kani=true&JigyosyoCd=4171000039-00&ServiceCd=210&Type=search", "url2": "https://www.nanousou.com" }, "geometry": { "type": "Point", "coordinates": [ 130.238202600000022, 33.2195266 ] } },
{ "type": "Feature", "properties": { "内容": "扇寿壮短期入所生活介護【短期入所生活介護】佐賀市嘉瀬町大字中原２５８５", "url": "https://www.kaigokensaku.mhlw.go.jp/41/index.php?action_kouhyou_detail_004_kani=true&JigyosyoCd=4170100111-00&ServiceCd=210&Type=search", "url2": null }, "geometry": { "type": "Point", "coordinates": [ 130.253795699999955, 33.2395133 ] } },
{ "type": "Feature", "properties": { "内容": "シオンの園ショートステイ【短期入所生活介護】佐賀市大和町大字久留間3865-1", "url": "https://www.kaigokensaku.mhlw.go.jp/41/index.php?action_kouhyou_detail_004_kani=true&JigyosyoCd=4161090032-00&ServiceCd=210&Type=search", "url2": "https://www.zion.or.jp/" }, "geometry": { "type": "Point", "coordinates": [ 130.2433294, 33.3123104 ] } },
{ "type": "Feature", "properties": { "内容": "短期入所生活介護桂寿苑【短期入所生活介護】佐賀市久保泉町大字川久保１９８６番地１", "url": "https://www.kaigokensaku.mhlw.go.jp/41/index.php?action_kouhyou_detail_004_kani=true&JigyosyoCd=4170100020-00&ServiceCd=210&Type=search", "url2": "http://www.ryoyuukai.jp" }, "geometry": { "type": "Point", "coordinates": [ 130.318774279098534, 33.322313371427235 ] } },
{ "type": "Feature", "properties": { "内容": "ショートステイ　ケアポート晴寿【短期入所生活介護】佐賀県佐賀市高木瀬町東高木1170", "url": "https://www.kaigokensaku.mhlw.go.jp/41/index.php?action_kouhyou_detail_004_kani=true&JigyosyoCd=4170100012-00&ServiceCd=210&Type=search", "url2": "http://www.seijyukai.com/" }, "geometry": { "type": "Point", "coordinates": [ 130.299030251064977, 33.287467448530087 ] } },
{ "type": "Feature", "properties": { "内容": "つぼみ荘　ショートステイ【短期入所生活介護】佐賀市北川副町光法1480-2", "url": "https://www.kaigokensaku.mhlw.go.jp/41/index.php?action_kouhyou_detail_004_kani=true&JigyosyoCd=4170100103-00&ServiceCd=210&Type=search", "url2": "http://www.tsubomi-sou.jp" }, "geometry": { "type": "Point", "coordinates": [ 130.331258400000024, 33.2321383 ] } },
{ "type": "Feature", "properties": { "内容": "社会福祉法人　春陽会　特別養護老人ホーム　春庵【短期入所生活介護】佐賀県佐賀市鍋島町蛎久１３１３番地", "url": "https://www.kaigokensaku.mhlw.go.jp/41/index.php?action_kouhyou_detail_004_kani=true&JigyosyoCd=4170101044-00&ServiceCd=210&Type=search", "url2": "http://www.2006shunan.sakura.ne.jp" }, "geometry": { "type": "Point", "coordinates": [ 130.280577900000026, 33.2879155 ] } },
{ "type": "Feature", "properties": { "内容": "きんりゅうケアセンター桂寿苑　短期入所生活介護【短期入所生活介護】佐賀市金立町千布4088-1", "url": "https://www.kaigokensaku.mhlw.go.jp/41/index.php?action_kouhyou_detail_004_kani=true&JigyosyoCd=4170101507-00&ServiceCd=210&Type=search", "url2": "https://www.ryoyuukai.jp" }, "geometry": { "type": "Point", "coordinates": [ 130.297306899999967, 33.2981177 ] } },
{ "type": "Feature", "properties": { "内容": "シオンの園　ショートステイ末広【短期入所生活介護】佐賀県佐賀市末広一丁目９番２８号", "url": "https://www.kaigokensaku.mhlw.go.jp/41/index.php?action_kouhyou_detail_004_kani=true&JigyosyoCd=4170102620-00&ServiceCd=210&Type=search", "url2": "http://www2.saganet.ne.jp/zion" }, "geometry": { "type": "Point", "coordinates": [ 130.2791211, 33.2464413 ] } },
{ "type": "Feature", "properties": { "内容": "特別養護老人ホーム　ロザリオの園　短期入所事業【短期入所生活介護】佐賀県佐賀市大和町大字久池井1386-2", "url": "https://www.kaigokensaku.mhlw.go.jp/41/index.php?action_kouhyou_detail_004_kani=true&JigyosyoCd=4171000013-00&ServiceCd=210&Type=search", "url2": "http://www.rosaryo.jp/" }, "geometry": { "type": "Point", "coordinates": [ 130.288170700000023, 33.3257233 ] } },
{ "type": "Feature", "properties": { "内容": "なごみ荘ショートステイサービス【短期入所生活介護】佐賀市富士町大字小副川５６２", "url": "https://www.kaigokensaku.mhlw.go.jp/41/index.php?action_kouhyou_detail_004_kani=true&JigyosyoCd=4171000047-00&ServiceCd=210&Type=search", "url2": "https://www.kenjyu-nagomi.jp" }, "geometry": { "type": "Point", "coordinates": [ 130.244152217196614, 33.36523145498797 ] } },
{ "type": "Feature", "properties": { "内容": "けやき荘ショートステイサービス【短期入所生活介護】佐賀県佐賀市川副町大字福富866－1", "url": "https://www.kaigokensaku.mhlw.go.jp/41/index.php?action_kouhyou_detail_004_kani=true&JigyosyoCd=4171000054-00&ServiceCd=210&Type=search", "url2": "http://www.keyakisou.or.jp/" }, "geometry": { "type": "Point", "coordinates": [ 130.32128160000002, 33.2134622 ] } },
{ "type": "Feature", "properties": { "内容": "福寿園ショートステイサービス【短期入所生活介護】佐賀県佐賀市諸富町大字諸富津２０９番地３", "url": "https://www.kaigokensaku.mhlw.go.jp/41/index.php?action_kouhyou_detail_004_kani=true&JigyosyoCd=4171000096-00&ServiceCd=210&Type=search", "url2": "https://fukujukaisaga.com/" }, "geometry": { "type": "Point", "coordinates": [ 130.360997099999963, 33.2197317 ] } },
{ "type": "Feature", "properties": { "内容": "シルバーケア三瀬短期入所生活介護【短期入所生活介護】佐賀県佐賀市三瀬村三瀬38番地1", "url": "https://www.kaigokensaku.mhlw.go.jp/41/index.php?action_kouhyou_detail_004_kani=true&JigyosyoCd=4171100045-00&ServiceCd=210&Type=search", "url2": "http://www.saganet.ne.jp/KEIAIKAI/" }, "geometry": { "type": "Point", "coordinates": [ 130.270790600000026, 33.4378293 ] } },
{ "type": "Feature", "properties": { "内容": "栄荘ショートステイサービス【短期入所生活介護】佐賀県唐津市栄町2588-19", "url": "https://www.kaigokensaku.mhlw.go.jp/41/index.php?action_kouhyou_detail_004_kani=true&JigyosyoCd=4170200028-00&ServiceCd=210&Type=search", "url2": "http://www.k-fukushikai.jp/sakae_gaiyou.html" }, "geometry": { "type": "Point", "coordinates": [ 129.976963500000011, 33.4493601 ] } },
{ "type": "Feature", "properties": { "内容": "特別養護老人ホームめずら荘指定（介護予防）短期入所生活介護事業所【短期入所生活介護】佐賀県唐津市東唐津4丁目7-26", "url": "https://www.kaigokensaku.mhlw.go.jp/41/index.php?action_kouhyou_detail_004_kani=true&JigyosyoCd=4170200093-00&ServiceCd=210&Type=search", "url2": "http://mezurasou.jp/" }, "geometry": { "type": "Point", "coordinates": [ 129.988582299999962, 33.448877100000018 ] } },
{ "type": "Feature", "properties": { "内容": "特別養護老人ホームちぐさの【短期入所生活介護】唐津市北波多徳須恵1201-1", "url": "https://www.kaigokensaku.mhlw.go.jp/41/index.php?action_kouhyou_detail_004_kani=true&JigyosyoCd=4170200796-00&ServiceCd=210&Type=search", "url2": "http://otakaro.wixsite.com/takachihoen" }, "geometry": { "type": "Point", "coordinates": [ 129.9467998, 33.3735265 ] } },
{ "type": "Feature", "properties": { "内容": "宝寿荘ショートステイサービス【短期入所生活介護】唐津市呼子町殿ノ浦797番地23", "url": "https://www.kaigokensaku.mhlw.go.jp/41/index.php?action_kouhyou_detail_004_kani=true&JigyosyoCd=4170201406-00&ServiceCd=210&Type=search", "url2": "k‐fukushikai.jp" }, "geometry": { "type": "Point", "coordinates": [ 129.889237200000025, 33.531855 ] } },
{ "type": "Feature", "properties": { "内容": "（介護予防）短期入所生活介護　浜玉荘ショートステイサービス【短期入所生活介護】佐賀県唐津市浜玉町東山田２３９９番地", "url": "https://www.kaigokensaku.mhlw.go.jp/41/index.php?action_kouhyou_detail_004_kani=true&JigyosyoCd=4171400049-00&ServiceCd=210&Type=search", "url2": "http://k-hukushikai/h_about_riyou.html" }, "geometry": { "type": "Point", "coordinates": [ 130.045613600000024, 33.4300291 ] } },
{ "type": "Feature", "properties": { "内容": "作礼荘ショートステイサービス【短期入所生活介護】佐賀県唐津市相知町中山3544番地1", "url": "https://www.kaigokensaku.mhlw.go.jp/41/index.php?action_kouhyou_detail_004_kani=true&JigyosyoCd=4171400072-00&ServiceCd=210&Type=search", "url2": "http://www.k-fukushikai.jp/" }, "geometry": { "type": "Point", "coordinates": [ 130.015995100000026, 33.3509978 ] } },
{ "type": "Feature", "properties": { "内容": "潮荘ショートステイサービス【短期入所生活介護】佐賀県唐津市鎮西町打上3075番地1", "url": "https://www.kaigokensaku.mhlw.go.jp/41/index.php?action_kouhyou_detail_004_kani=true&JigyosyoCd=4171400106-00&ServiceCd=210&Type=search", "url2": "http://www.k-fukusikai.jp/" }, "geometry": { "type": "Point", "coordinates": [ 129.901211200000034, 33.5166544 ] } },
{ "type": "Feature", "properties": { "内容": "岬荘ショートステイサービス【短期入所生活介護】佐賀県唐津市肥前町鶴牧106番地11", "url": "https://www.kaigokensaku.mhlw.go.jp/41/index.php?action_kouhyou_detail_004_kani=true&JigyosyoCd=4171400171-00&ServiceCd=210&Type=search", "url2": "www.k-fukushikai.jp/" }, "geometry": { "type": "Point", "coordinates": [ 129.835607399999958, 33.4485187 ] } },
{ "type": "Feature", "properties": { "内容": "ケア付有料老人ホーム　ばんざい【短期入所生活介護】佐賀県鳥栖市江島町3388-1", "url": "https://www.kaigokensaku.mhlw.go.jp/41/index.php?action_kouhyou_detail_004_kani=true&JigyosyoCd=4170300562-00&ServiceCd=210&Type=search", "url2": "http://banzai-lohas.co.jp" }, "geometry": { "type": "Point", "coordinates": [ 130.482229500000017, 33.3447951 ] } },
{ "type": "Feature", "properties": { "内容": "短期入所生活介護　真心の園　ショートステイ【短期入所生活介護】佐賀県鳥栖市村田町1250番地1", "url": "https://www.kaigokensaku.mhlw.go.jp/41/index.php?action_kouhyou_detail_004_kani=true&JigyosyoCd=4170300034-00&ServiceCd=210&Type=search", "url2": "http://www.magokoro.or.jp" }, "geometry": { "type": "Point", "coordinates": [ 130.47861594302222, 33.364876359620006 ] } },
{ "type": "Feature", "properties": { "内容": "社会福祉法人健翔会　ひまわりの園短期入所サービス【短期入所生活介護】佐賀県鳥栖市田代本町924-1", "url": "https://www.kaigokensaku.mhlw.go.jp/41/index.php?action_kouhyou_detail_004_kani=true&JigyosyoCd=4170300042-00&ServiceCd=210&Type=search", "url2": "http://www.kensyoukai.or.jp" }, "geometry": { "type": "Point", "coordinates": [ 130.518192799999952, 33.3944258 ] } },
{ "type": "Feature", "properties": { "内容": "鳥栖ショートステイそよ風【短期入所生活介護】佐賀県鳥栖市曽根崎町2382番地", "url": "https://www.kaigokensaku.mhlw.go.jp/41/index.php?action_kouhyou_detail_004_kani=true&JigyosyoCd=4170301255-00&ServiceCd=210&Type=search", "url2": null }, "geometry": { "type": "Point", "coordinates": [ 130.5234246, 33.3780533 ] } },
{ "type": "Feature", "properties": { "内容": "短期入所サービス寿楽園【短期入所生活介護】佐賀県鳥栖市弥生が丘二丁目146番地1", "url": "https://www.kaigokensaku.mhlw.go.jp/41/index.php?action_kouhyou_detail_004_kani=true&JigyosyoCd=4171200043-00&ServiceCd=210&Type=search", "url2": "http://www.jurakuen.jp/" }, "geometry": { "type": "Point", "coordinates": [ 130.522867, 33.403280600000016 ] } },
{ "type": "Feature", "properties": { "内容": "特別養護老人ホーム　　天寿荘【短期入所生活介護】佐賀県多久市北多久町大字小侍640番地１", "url": "https://www.kaigokensaku.mhlw.go.jp/41/index.php?action_kouhyou_detail_004_kani=true&JigyosyoCd=4170400305-00&ServiceCd=210&Type=search", "url2": "http://www.tenjyukai.com" }, "geometry": { "type": "Point", "coordinates": [ 130.101128490180059, 33.289891270823915 ] } },
{ "type": "Feature", "properties": { "内容": "ショートステイサービス　敬愛園【短期入所生活介護】佐賀県伊万里市黒川町大黒川2201番地", "url": "https://www.kaigokensaku.mhlw.go.jp/41/index.php?action_kouhyou_detail_004_kani=true&JigyosyoCd=4170500039-00&ServiceCd=210&Type=search", "url2": "http://imari-keiaikai.com" }, "geometry": { "type": "Point", "coordinates": [ 129.865575900000067, 33.335224900000014 ] } },
{ "type": "Feature", "properties": { "内容": "ショートステイ　グランパランいまり【短期入所生活介護】佐賀県伊万里市大坪町乙1579番地2", "url": "https://www.kaigokensaku.mhlw.go.jp/41/index.php?action_kouhyou_detail_004_kani=true&JigyosyoCd=4170500286-00&ServiceCd=210&Type=search", "url2": "http://kashinkai.or.jp" }, "geometry": { "type": "Point", "coordinates": [ 129.896309200000019, 33.2745712 ] } },
{ "type": "Feature", "properties": { "内容": "地域密着型特別養護老人ホームさくら【短期入所生活介護】佐賀県伊万里市山代町楠久929番地87", "url": "https://www.kaigokensaku.mhlw.go.jp/41/index.php?action_kouhyou_detail_004_kani=true&JigyosyoCd=4170500542-00&ServiceCd=210&Type=search", "url2": "http://www.hakujin-imari.com" }, "geometry": { "type": "Point", "coordinates": [ 129.8180754, 33.297831 ] } },
{ "type": "Feature", "properties": { "内容": "ショートステイグランパラントゥール【短期入所生活介護】佐賀県伊万里市大坪町乙１５７９番地１５", "url": "https://www.kaigokensaku.mhlw.go.jp/41/index.php?action_kouhyou_detail_004_kani=true&JigyosyoCd=4170500559-00&ServiceCd=210&Type=search", "url2": "http//kashinkai.or.jP" }, "geometry": { "type": "Point", "coordinates": [ 129.897178599999961, 33.2740269 ] } },
{ "type": "Feature", "properties": { "内容": "ショートステイ　伊万里【短期入所生活介護】伊万里市二里町大里甲1704-7101　～　107", "url": "https://www.kaigokensaku.mhlw.go.jp/41/index.php?action_kouhyou_detail_004_kani=true&JigyosyoCd=4170500617-00&ServiceCd=210&Type=search", "url2": null }, "geometry": { "type": "Point", "coordinates": [ 129.8688062, 33.2639742 ] } },
{ "type": "Feature", "properties": { "内容": "長生園短期入所生活介護事業【短期入所生活介護】佐賀県伊万里市立花町２７０３番地２", "url": "https://www.kaigokensaku.mhlw.go.jp/41/index.php?action_kouhyou_detail_004_kani=true&JigyosyoCd=4170500013-00&ServiceCd=210&Type=search", "url2": "http://chousei-imari.jp" }, "geometry": { "type": "Point", "coordinates": [ 129.89025220000002, 33.264877 ] } },
{ "type": "Feature", "properties": { "内容": "ショートステイグランパランモワ【短期入所生活介護】佐賀県伊万里市大坪町乙1579番地2", "url": "https://www.kaigokensaku.mhlw.go.jp/41/index.php?action_kouhyou_detail_004_kani=true&JigyosyoCd=4170500500-00&ServiceCd=210&Type=search", "url2": "http://kashinkai.or.jp/" }, "geometry": { "type": "Point", "coordinates": [ 129.896309200000019, 33.2745712 ] } },
{ "type": "Feature", "properties": { "内容": "大野病院　ショートステイ【短期入所生活介護】佐賀県武雄市山内町大字大野6351番地1", "url": "https://www.kaigokensaku.mhlw.go.jp/41/index.php?action_kouhyou_detail_004_kani=true&JigyosyoCd=4111610947-00&ServiceCd=210&Type=search", "url2": "http://www.ryumondo.or.jp" }, "geometry": { "type": "Point", "coordinates": [ 129.9392345, 33.2106009 ] } },
{ "type": "Feature", "properties": { "内容": "御船荘ショートステイサービスセンター【短期入所生活介護】佐賀県武雄市東川登町大字永野3494番地1", "url": "https://www.kaigokensaku.mhlw.go.jp/41/index.php?action_kouhyou_detail_004_kani=true&JigyosyoCd=4170600029-00&ServiceCd=210&Type=search", "url2": "https://takeo-seiwafukushikai.jp/" }, "geometry": { "type": "Point", "coordinates": [ 130.017252658474746, 33.164926003019858 ] } },
{ "type": "Feature", "properties": { "内容": "ショートステイサービス　そよかぜの杜【短期入所生活介護】佐賀県武雄市山内町大字大野7045番地", "url": "https://www.kaigokensaku.mhlw.go.jp/41/index.php?action_kouhyou_detail_004_kani=true&JigyosyoCd=4171600069-00&ServiceCd=210&Type=search", "url2": "https://www.seiwafukushikai.net/" }, "geometry": { "type": "Point", "coordinates": [ 129.9350154, 33.2058735 ] } },
{ "type": "Feature", "properties": { "内容": "ショートステイ杏花苑【短期入所生活介護】佐賀県武雄市北方町大字志久4641-26", "url": "https://www.kaigokensaku.mhlw.go.jp/41/index.php?action_kouhyou_detail_004_kani=true&JigyosyoCd=4171600085-00&ServiceCd=210&Type=search", "url2": "https://kyokaen.wixsite.com/nicelandkitagata" }, "geometry": { "type": "Point", "coordinates": [ 130.084927959524549, 33.221474436227368 ] } },
{ "type": "Feature", "properties": { "内容": "ショートステイ　ひいらぎ【短期入所生活介護】佐賀県武雄市武内町大字真手野２６３４６番地", "url": "https://www.kaigokensaku.mhlw.go.jp/41/index.php?action_kouhyou_detail_004_kani=true&JigyosyoCd=4170600128-00&ServiceCd=210&Type=search", "url2": "http://www.tokurou.com" }, "geometry": { "type": "Point", "coordinates": [ 129.970220208223708, 33.24524682578118 ] } },
{ "type": "Feature", "properties": { "内容": "好日の園短期入所サービス【短期入所生活介護】佐賀県鹿島市古枝乙1035番地2", "url": "https://www.kaigokensaku.mhlw.go.jp/41/index.php?action_kouhyou_detail_004_kani=true&JigyosyoCd=4170700027-00&ServiceCd=210&Type=search", "url2": "https://www.koujitu.or.jp/" }, "geometry": { "type": "Point", "coordinates": [ 130.112687398178082, 33.074313539193419 ] } },
{ "type": "Feature", "properties": { "内容": "短期入所生活介護清水園【短期入所生活介護】佐賀県小城市小城町773番地", "url": "https://www.kaigokensaku.mhlw.go.jp/41/index.php?action_kouhyou_detail_004_kani=true&JigyosyoCd=4171300017-00&ServiceCd=210&Type=search", "url2": "http://wwwkiyonet@star.saganet.ne.jp" }, "geometry": { "type": "Point", "coordinates": [ 130.206441343655342, 33.300044588306953 ] } },
{ "type": "Feature", "properties": { "内容": "介護老人保健施設蛍水荘【短期入所生活介護】佐賀県小城市小城町814-1", "url": "https://www.kaigokensaku.mhlw.go.jp/41/index.php?action_kouhyou_detail_004_kani=true&JigyosyoCd=4151380013-00&ServiceCd=210&Type=search", "url2": "http://www.keisuiso@po.hagakure.ne.jp" }, "geometry": { "type": "Point", "coordinates": [ 130.205106, 33.301389 ] } },
{ "type": "Feature", "properties": { "内容": "短期入所生活介護事業　鳳寿苑【短期入所生活介護】佐賀県小城市甲柳原６８番地１", "url": "https://www.kaigokensaku.mhlw.go.jp/41/index.php?action_kouhyou_detail_004_kani=true&JigyosyoCd=4171300025-00&ServiceCd=210&Type=search", "url2": "http://jikeikai.saga.jp/" }, "geometry": { "type": "Point", "coordinates": [ 130.209889400000066, 33.2726452 ] } },
{ "type": "Feature", "properties": { "内容": "あしはらの園ショートステイ【短期入所生活介護】佐賀県小城市芦刈町三王崎1523番地", "url": "https://www.kaigokensaku.mhlw.go.jp/41/index.php?action_kouhyou_detail_004_kani=true&JigyosyoCd=4171300108-00&ServiceCd=210&Type=search", "url2": "https://rikushinfukushikai.com/" }, "geometry": { "type": "Point", "coordinates": [ 130.2072001, 33.2248365 ] } },
{ "type": "Feature", "properties": { "内容": "清水園短期入所生活介護【短期入所生活介護】佐賀県小城市小城町773番地", "url": "https://www.kaigokensaku.mhlw.go.jp/41/index.php?action_kouhyou_detail_004_kani=true&JigyosyoCd=4171300496-00&ServiceCd=210&Type=search", "url2": "http://wwwkiyonet@star.saganet.ne.jp" }, "geometry": { "type": "Point", "coordinates": [ 130.1946623, 33.2853992 ] } },
{ "type": "Feature", "properties": { "内容": "短期入所生活介護事業　済昭園【短期入所生活介護】佐賀県嬉野市塩田町大字五町田甲3432番地3", "url": "https://www.kaigokensaku.mhlw.go.jp/41/index.php?action_kouhyou_detail_004_kani=true&JigyosyoCd=4171700018-00&ServiceCd=210&Type=search", "url2": "http://www.saisyouen.jp" }, "geometry": { "type": "Point", "coordinates": [ 130.062403099999983, 33.1253621 ] } },
{ "type": "Feature", "properties": { "内容": "ショートステイうれしの【短期入所生活介護】佐賀県嬉野市嬉野町大字下宿甲2088番地", "url": "https://www.kaigokensaku.mhlw.go.jp/41/index.php?action_kouhyou_detail_004_kani=true&JigyosyoCd=4171700059-00&ServiceCd=210&Type=search", "url2": "http://tokuyou-ureshino.jp/" }, "geometry": { "type": "Point", "coordinates": [ 129.992402500000026, 33.111745 ] } },
{ "type": "Feature", "properties": { "内容": "短期入所生活介護事業済昭園・清涼館【短期入所生活介護】佐賀県嬉野市塩田町大字五町田甲７７番地", "url": "https://www.kaigokensaku.mhlw.go.jp/41/index.php?action_kouhyou_detail_004_kani=true&JigyosyoCd=4171700117-00&ServiceCd=210&Type=search", "url2": "http://www.saisyouen.jp" }, "geometry": { "type": "Point", "coordinates": [ 130.062403099999983, 33.1253621 ] } },
{ "type": "Feature", "properties": { "内容": "こすもす苑ショートステイ【短期入所生活介護】佐賀県神埼市千代田町詫田９８３番地", "url": "https://www.kaigokensaku.mhlw.go.jp/41/index.php?action_kouhyou_detail_004_kani=true&JigyosyoCd=4171100011-00&ServiceCd=210&Type=search", "url2": "https://cosmosen.com" }, "geometry": { "type": "Point", "coordinates": [ 130.378439, 33.2673805 ] } },
{ "type": "Feature", "properties": { "内容": "佐賀整肢学園　かんざき清流苑【短期入所生活介護】佐賀県神埼市神埼町鶴２９２７番地２", "url": "https://www.kaigokensaku.mhlw.go.jp/41/index.php?action_kouhyou_detail_004_kani=true&JigyosyoCd=4171100037-00&ServiceCd=210&Type=search", "url2": "http://k-seiryu.wixsite.com/mysite" }, "geometry": { "type": "Point", "coordinates": [ 130.3700351, 33.3221697 ] } },
{ "type": "Feature", "properties": { "内容": "ショートステイサービス昌普久苑【短期入所生活介護】神埼市脊振町鹿路２２９０番地６", "url": "https://www.kaigokensaku.mhlw.go.jp/41/index.php?action_kouhyou_detail_004_kani=true&JigyosyoCd=4171100128-00&ServiceCd=210&Type=search", "url2": "https://shofukuen.com/tokuyou_sefuri/" }, "geometry": { "type": "Point", "coordinates": [ 130.317982499999971, 33.3733116 ] } },
{ "type": "Feature", "properties": { "内容": "特別養護老人ホーム　シルバーケア吉野ヶ里【短期入所生活介護】佐賀県神埼郡吉野ヶ里町大字吉田1493番地1", "url": "https://www.kaigokensaku.mhlw.go.jp/41/index.php?action_kouhyou_detail_004_kani=true&JigyosyoCd=4171100201-00&ServiceCd=210&Type=search", "url2": "https://www.silvercare-yoshinogari.com/" }, "geometry": { "type": "Point", "coordinates": [ 130.396216399999958, 33.3317081 ] } },
{ "type": "Feature", "properties": { "内容": "さがケアセンターそよ風【短期入所生活介護】佐賀県三養基郡上峰町大字坊所1523－53さがケアセンターそよ風", "url": "https://www.kaigokensaku.mhlw.go.jp/41/index.php?action_kouhyou_detail_004_kani=true&JigyosyoCd=4171200373-00&ServiceCd=210&Type=search", "url2": "http:www.unimat-ｒｃ.co.jp/" }, "geometry": { "type": "Point", "coordinates": [ 130.4149926, 33.3309582 ] } },
{ "type": "Feature", "properties": { "内容": "ショートステイプルメリア【短期入所生活介護】佐賀県三養基郡上峰町大字前牟田１８９６番地", "url": "https://www.kaigokensaku.mhlw.go.jp/41/index.php?action_kouhyou_detail_004_kani=true&JigyosyoCd=4171200696-00&ServiceCd=210&Type=search", "url2": "https://www.gajumaru.or.jp/" }, "geometry": { "type": "Point", "coordinates": [ 130.418225799999959, 33.3134598 ] } },
{ "type": "Feature", "properties": { "内容": "ショートスティ　なかばる紀水苑【短期入所生活介護】佐賀県三養基郡みやき町大字簑原４２６０番地", "url": "https://www.kaigokensaku.mhlw.go.jp/41/index.php?action_kouhyou_detail_004_kani=true&JigyosyoCd=4171200191-00&ServiceCd=210&Type=search", "url2": "http://kisuikai.net/" }, "geometry": { "type": "Point", "coordinates": [ 130.450648264387496, 33.36386196368327 ] } },
{ "type": "Feature", "properties": { "内容": "ショートステイ花のみね【短期入所生活介護】佐賀県三養基郡みやき町大字西島２７３０番地１", "url": "https://www.kaigokensaku.mhlw.go.jp/41/index.php?action_kouhyou_detail_004_kani=true&JigyosyoCd=4171200209-00&ServiceCd=210&Type=search", "url2": "https://peraichi.com/landing_peges/view/mirai-hananomine1" }, "geometry": { "type": "Point", "coordinates": [ 130.450996600000053, 33.3044642 ] } },
{ "type": "Feature", "properties": { "内容": "ショートステイ　花のみね弐番館【短期入所生活介護】佐賀県三養基郡みやき町大字中津隈5919番地", "url": "https://www.kaigokensaku.mhlw.go.jp/41/index.php?action_kouhyou_detail_004_kani=true&JigyosyoCd=4171200365-00&ServiceCd=210&Type=search", "url2": "hananomine-2@forest.ocn.ne.jp" }, "geometry": { "type": "Point", "coordinates": [ 130.446258837881516, 33.323779199233279 ] } },
{ "type": "Feature", "properties": { "内容": "特別養護老人ホーム　玄海園【短期入所生活介護】佐賀県東松浦郡玄海町大字平尾432-8", "url": "https://www.kaigokensaku.mhlw.go.jp/41/index.php?action_kouhyou_detail_004_kani=true&JigyosyoCd=4171400239-00&ServiceCd=210&Type=search", "url2": "http://www.tenjyukai.com" }, "geometry": { "type": "Point", "coordinates": [ 129.849907499999972, 33.4937474 ] } },
{ "type": "Feature", "properties": { "内容": "｢くにみ｣短期入所生活介護事業所【短期入所生活介護】佐賀県西松浦郡有田町立部乙2460番地", "url": "https://www.kaigokensaku.mhlw.go.jp/41/index.php?action_kouhyou_detail_004_kani=true&JigyosyoCd=4171500038-00&ServiceCd=210&Type=search", "url2": "http://aritakunimi.com/" }, "geometry": { "type": "Point", "coordinates": [ 129.847964400000023, 33.2102356 ] } },
{ "type": "Feature", "properties": { "内容": "特別養護老人ホーム　それいゆホームズ【短期入所生活介護】佐賀県西松浦郡有田町二ノ瀬甲1250番地1", "url": "https://www.kaigokensaku.mhlw.go.jp/41/index.php?action_kouhyou_detail_004_kani=true&JigyosyoCd=4171500053-00&ServiceCd=210&Type=search", "url2": "http://www.jikou-kai.net/" }, "geometry": { "type": "Point", "coordinates": [ 129.85731, 33.2353217 ] } },
{ "type": "Feature", "properties": { "内容": "社会福祉法人　慈光会　特別養護老人施設　りんでんホームズ【短期入所生活介護】佐賀県西松浦郡有田町戸矢乙614-1", "url": "https://www.kaigokensaku.mhlw.go.jp/41/index.php?action_kouhyou_detail_004_kani=true&JigyosyoCd=4171500087-00&ServiceCd=210&Type=search", "url2": "http://www.jikou-kai.net/ｒinden/index.html" }, "geometry": { "type": "Point", "coordinates": [ 129.899439, 33.1622573 ] } },
{ "type": "Feature", "properties": { "内容": "介護付複合福祉施設　パークハウス・有田【短期入所生活介護】佐賀県西松浦郡有田町原明乙114番地1", "url": "https://www.kaigokensaku.mhlw.go.jp/41/index.php?action_kouhyou_detail_004_kani=true&JigyosyoCd=4171500160-00&ServiceCd=210&Type=search", "url2": "http://jikou-kai.net/park/index.html" }, "geometry": { "type": "Point", "coordinates": [ 129.851398603704837, 33.184409827390411 ] } },
{ "type": "Feature", "properties": { "内容": "短期入所生活介護　すみれ園【短期入所生活介護】佐賀県杵島郡大町町大字福母3031-1", "url": "https://www.kaigokensaku.mhlw.go.jp/41/index.php?action_kouhyou_detail_004_kani=true&JigyosyoCd=4171600010-00&ServiceCd=210&Type=search", "url2": "https://seijinkai-sumireen.com/" }, "geometry": { "type": "Point", "coordinates": [ 130.101293, 33.2193 ] } },
{ "type": "Feature", "properties": { "内容": "ショートステイ　たけおか【短期入所生活介護】佐賀県杵島郡江北町大字山口1282番地", "url": "https://www.kaigokensaku.mhlw.go.jp/41/index.php?action_kouhyou_detail_004_kani=true&JigyosyoCd=4111611382-00&ServiceCd=210&Type=search", "url2": "http://takeoka-hp.or.jp/" }, "geometry": { "type": "Point", "coordinates": [ 130.159524799999986, 33.216854 ] } },
{ "type": "Feature", "properties": { "内容": "特別養護老人ホーム　るんびに園【短期入所生活介護】佐賀県杵島郡江北町惣領分４１５３", "url": "https://www.kaigokensaku.mhlw.go.jp/41/index.php?action_kouhyou_detail_004_kani=true&JigyosyoCd=4171600036-00&ServiceCd=210&Type=search", "url2": "http://jizankai.jp" }, "geometry": { "type": "Point", "coordinates": [ 130.1766404, 33.2276056 ] } },
{ "type": "Feature", "properties": { "内容": "ショートステイ桜の園【短期入所生活介護】佐賀県杵島郡白石町大字福富下分２３８７番地３", "url": "https://www.kaigokensaku.mhlw.go.jp/41/index.php?action_kouhyou_detail_004_kani=true&JigyosyoCd=4171600028-00&ServiceCd=210&Type=search", "url2": "http://www.sakuranosono.biz/" }, "geometry": { "type": "Point", "coordinates": [ 130.198991799999931, 33.1922521 ] } },
{ "type": "Feature", "properties": { "内容": "特別養護老人ホーム歌垣之園【短期入所生活介護】佐賀県杵島郡白石町大字大渡６００番地１", "url": "https://www.kaigokensaku.mhlw.go.jp/41/index.php?action_kouhyou_detail_004_kani=true&JigyosyoCd=4171600044-00&ServiceCd=210&Type=search", "url2": "http://www.cableone.ne.jp/~utagaki-sato" }, "geometry": { "type": "Point", "coordinates": [ 130.103245777673379, 33.198838805056361 ] } },
{ "type": "Feature", "properties": { "内容": "特別養護老人ホーム　光風荘【短期入所生活介護】佐賀県藤津郡太良町大字多良1849番地9", "url": "https://www.kaigokensaku.mhlw.go.jp/41/index.php?action_kouhyou_detail_004_kani=true&JigyosyoCd=4171700026-00&ServiceCd=210&Type=search", "url2": null }, "geometry": { "type": "Point", "coordinates": [ 130.178892799999971, 33.0280597 ] } }
]
}
