{
"type": "FeatureCollection",
"name": "geo_41_定期巡回・随時対応型訪問介護看護",
"crs": { "type": "name", "properties": { "name": "urn:ogc:def:crs:OGC:1.3:CRS84" } },
"features": [
{ "type": "Feature", "properties": { "内容": "サニーコート水ヶ江【定期巡回・随時対応型訪問介護看護】水ヶ江２丁目8番14号アクアポートA", "url": "https://www.kaigokensaku.mhlw.go.jp/41/index.php?action_kouhyou_detail_004_kani=true&JigyosyoCd=4190100802-00&ServiceCd=760&Type=search", "url2": "https://sunnycourt.info" }, "geometry": { "type": "Point", "coordinates": [ 130.306838, 33.2487659 ] } },
{ "type": "Feature", "properties": { "内容": "定期巡回・随時対応型訪問介護看護ちとせ【定期巡回・随時対応型訪問介護看護】佐賀県佐賀市北川副町光法1777番8号", "url": "https://www.kaigokensaku.mhlw.go.jp/41/index.php?action_kouhyou_detail_004_kani=true&JigyosyoCd=4190100836-00&ServiceCd=760&Type=search", "url2": null }, "geometry": { "type": "Point", "coordinates": [ 130.325113, 33.2345926 ] } },
{ "type": "Feature", "properties": { "内容": "ヘルパーステーション西与賀【定期巡回・随時対応型訪問介護看護】佐賀県佐賀市西与賀町大字高太郎184番地1サニーコート佐賀", "url": "https://www.kaigokensaku.mhlw.go.jp/41/index.php?action_kouhyou_detail_004_kani=true&JigyosyoCd=4190100620-00&ServiceCd=760&Type=search", "url2": "https://sunnycourt.info" }, "geometry": { "type": "Point", "coordinates": [ 130.268372699999986, 33.2253612 ] } },
{ "type": "Feature", "properties": { "内容": "合同会社　結絆【定期巡回・随時対応型訪問介護看護】佐賀県唐津市見借３４５９番地１３", "url": "https://www.kaigokensaku.mhlw.go.jp/41/index.php?action_kouhyou_detail_004_kani=true&JigyosyoCd=4190200586-00&ServiceCd=760&Type=search", "url2": "https://yuina.co.jp/" }, "geometry": { "type": "Point", "coordinates": [ 129.935018, 33.4443102 ] } },
{ "type": "Feature", "properties": { "内容": "定期巡回ステーション　あおば【定期巡回・随時対応型訪問介護看護】佐賀県唐津市和多田大土井６－５６", "url": "https://www.kaigokensaku.mhlw.go.jp/41/index.php?action_kouhyou_detail_004_kani=true&JigyosyoCd=4190200818-00&ServiceCd=760&Type=search", "url2": "http://www.day-aoba.com" }, "geometry": { "type": "Point", "coordinates": [ 129.9880407, 33.4256196 ] } },
{ "type": "Feature", "properties": { "内容": "定期巡回ステーションゆいな佐志【定期巡回・随時対応型訪問介護看護】佐賀県唐津市佐志浜町4066番地1", "url": "https://www.kaigokensaku.mhlw.go.jp/41/index.php?action_kouhyou_detail_004_kani=true&JigyosyoCd=4190200826-00&ServiceCd=760&Type=search", "url2": "https://yuina.co.jp/" }, "geometry": { "type": "Point", "coordinates": [ 129.936720900000012, 33.4757306 ] } },
{ "type": "Feature", "properties": { "内容": "定期巡回随時対応型訪問介護看護グランパランエール【定期巡回・随時対応型訪問介護看護】佐賀県伊万里市大坪町乙1518-4", "url": "https://www.kaigokensaku.mhlw.go.jp/41/index.php?action_kouhyou_detail_004_kani=true&JigyosyoCd=4190500142-00&ServiceCd=760&Type=search", "url2": "https://kashinkai.or.jp" }, "geometry": { "type": "Point", "coordinates": [ 129.8973205, 33.2747102 ] } },
{ "type": "Feature", "properties": { "内容": "定期巡回竜門堂【定期巡回・随時対応型訪問介護看護】佐賀県武雄市山内町大字三間坂甲14043番地", "url": "https://www.kaigokensaku.mhlw.go.jp/41/index.php?action_kouhyou_detail_004_kani=true&JigyosyoCd=4190600058-00&ServiceCd=760&Type=search", "url2": "ryumondo.or.jp" }, "geometry": { "type": "Point", "coordinates": [ 129.945727052355892, 33.193639298009941 ] } },
{ "type": "Feature", "properties": { "内容": "在宅ケアサポートゆうあい【定期巡回・随時対応型訪問介護看護】佐賀県鹿島市大字高津原2962番地1介護老人保健施設ケアコートゆうあい", "url": "https://www.kaigokensaku.mhlw.go.jp/41/index.php?action_kouhyou_detail_004_kani=true&JigyosyoCd=4190700114-00&ServiceCd=760&Type=search", "url2": "http://www.yuaivillage.com/" }, "geometry": { "type": "Point", "coordinates": [ 130.095519299999978, 33.1113979 ] } },
{ "type": "Feature", "properties": { "内容": "清水園定期巡回・随時対応型訪問介護看護事業所【定期巡回・随時対応型訪問介護看護】佐賀県小城市小城町８２６番地１", "url": "https://www.kaigokensaku.mhlw.go.jp/41/index.php?action_kouhyou_detail_004_kani=true&JigyosyoCd=4191300039-00&ServiceCd=760&Type=search", "url2": "http://www.kiyonet@stsr.saganet.ne.jp" }, "geometry": { "type": "Point", "coordinates": [ 130.205968699999971, 33.3002513 ] } }
]
}
