{
"type": "FeatureCollection",
"name": "geo_41_介護医療院",
"crs": { "type": "name", "properties": { "name": "urn:ogc:def:crs:OGC:1.3:CRS84" } },
"features": [
{ "type": "Feature", "properties": { "内容": "介護医療院　愛咲【介護医療院】佐賀県佐賀市水ヶ江二丁目7-23", "url": "https://www.kaigokensaku.mhlw.go.jp/41/index.php?action_kouhyou_detail_004_kani=true&JigyosyoCd=41B0100013-00&ServiceCd=550&Type=search", "url2": "http://www.shida-hp.com" }, "geometry": { "type": "Point", "coordinates": [ 130.308039300000019, 33.2492334 ] } },
{ "type": "Feature", "properties": { "内容": "介護医療院　兵庫の郷【介護医療院】佐賀県佐賀市兵庫町大字渕4604番地1", "url": "https://www.kaigokensaku.mhlw.go.jp/41/index.php?action_kouhyou_detail_004_kani=true&JigyosyoCd=41B0100021-00&ServiceCd=550&Type=search", "url2": "http://shunyoukai.jp" }, "geometry": { "type": "Point", "coordinates": [ 130.314168522688902, 33.283159707750222 ] } },
{ "type": "Feature", "properties": { "内容": "宇都宮病院【介護医療院】佐賀県唐津市厳木町本山386-1", "url": "https://www.kaigokensaku.mhlw.go.jp/41/index.php?action_kouhyou_detail_004_kani=true&JigyosyoCd=41B0200011-00&ServiceCd=550&Type=search", "url2": "http://www.utunomiya.jp/" }, "geometry": { "type": "Point", "coordinates": [ 130.036955585705527, 33.331440325676795 ] } },
{ "type": "Feature", "properties": { "内容": "諸隈病院介護医療院【介護医療院】佐賀県多久市北多久町大字多久原２４１４－７０", "url": "https://www.kaigokensaku.mhlw.go.jp/41/index.php?action_kouhyou_detail_004_kani=true&JigyosyoCd=41B0400017-00&ServiceCd=550&Type=search", "url2": "https://morokuma-hos.jp/" }, "geometry": { "type": "Point", "coordinates": [ 130.1143502, 33.2862978 ] } },
{ "type": "Feature", "properties": { "内容": "医療法人小副川医院介護医療院【介護医療院】佐賀県伊万里市二里町八谷搦870番地1", "url": "https://www.kaigokensaku.mhlw.go.jp/41/index.php?action_kouhyou_detail_004_kani=true&JigyosyoCd=41B0500030-00&ServiceCd=550&Type=search", "url2": null }, "geometry": { "type": "Point", "coordinates": [ 129.859225, 33.268526 ] } },
{ "type": "Feature", "properties": { "内容": "医療法人　水上医院　介護医療院【介護医療院】佐賀県伊万里市山代町立岩２６７１－１", "url": "https://www.kaigokensaku.mhlw.go.jp/41/index.php?action_kouhyou_detail_004_kani=true&JigyosyoCd=41B0500014-00&ServiceCd=550&Type=search", "url2": null }, "geometry": { "type": "Point", "coordinates": [ 129.790739164418028, 33.335883790202523 ] } },
{ "type": "Feature", "properties": { "内容": "大野病院介護医療院【介護医療院】佐賀県武雄市山内町大字大野6351番地1", "url": "https://www.kaigokensaku.mhlw.go.jp/41/index.php?action_kouhyou_detail_004_kani=true&JigyosyoCd=41B0600012-00&ServiceCd=550&Type=search", "url2": "https;//www.ryumondo.or.jp" }, "geometry": { "type": "Point", "coordinates": [ 129.939272100000039, 33.2106937 ] } },
{ "type": "Feature", "properties": { "内容": "介護医療院和田記念病院【介護医療院】佐賀県神埼市神埼町尾崎3780", "url": "https://www.kaigokensaku.mhlw.go.jp/41/index.php?action_kouhyou_detail_004_kani=true&JigyosyoCd=41B2000013-00&ServiceCd=550&Type=search", "url2": "https://kyuwakai.jp/index.html" }, "geometry": { "type": "Point", "coordinates": [ 130.347082300000011, 33.3280263 ] } },
{ "type": "Feature", "properties": { "内容": "古賀小児科内科病院介護医療院【介護医療院】佐賀県杵島郡江北町大字上小田280-1", "url": "https://www.kaigokensaku.mhlw.go.jp/41/index.php?action_kouhyou_detail_004_kani=true&JigyosyoCd=41B1600011-00&ServiceCd=550&Type=search", "url2": "https://eijyukai-saga.jp" }, "geometry": { "type": "Point", "coordinates": [ 130.144954299999966, 33.2259132 ] } },
{ "type": "Feature", "properties": { "内容": "高島病院介護医療院【介護医療院】佐賀県杵島郡白石町大字戸ヶ里1831番地18", "url": "https://www.kaigokensaku.mhlw.go.jp/41/index.php?action_kouhyou_detail_004_kani=true&JigyosyoCd=41B1600037-00&ServiceCd=550&Type=search", "url2": "https://yuai-th.com" }, "geometry": { "type": "Point", "coordinates": [ 130.1247696, 33.1548033 ] } }
]
}
