{
"type": "FeatureCollection",
"name": "geo_41_特定施設入居者生活介護（有料老人ホーム）",
"crs": { "type": "name", "properties": { "name": "urn:ogc:def:crs:OGC:1.3:CRS84" } },
"features": [
{ "type": "Feature", "properties": { "内容": "ディ－フェスタリリ－フ東与賀Ⅱ【特定施設入居者生活介護（有料老人ホーム）】佐賀県佐賀市東与賀町大字田中191-1", "url": "https://www.kaigokensaku.mhlw.go.jp/41/index.php?action_kouhyou_detail_004_kani=true&JigyosyoCd=4170103628-00&ServiceCd=331&Type=search", "url2": "https://www.daiwaliving-care.co.jp/" }, "geometry": { "type": "Point", "coordinates": [ 130.287281799999988, 33.2142828 ] } },
{ "type": "Feature", "properties": { "内容": "介護付き有料老人ホームうち（家）【特定施設入居者生活介護（有料老人ホーム）】佐賀県佐賀市鍋島町大字森田583番1", "url": "https://www.kaigokensaku.mhlw.go.jp/41/index.php?action_kouhyou_detail_004_kani=true&JigyosyoCd=4170103107-00&ServiceCd=331&Type=search", "url2": "http://anzu_nabeshima/index/index.html" }, "geometry": { "type": "Point", "coordinates": [ 130.262121100000059, 33.2726357 ] } },
{ "type": "Feature", "properties": { "内容": "シルバーホーム幸【特定施設入居者生活介護（有料老人ホーム）】佐賀市神野西1丁目4番18号", "url": "https://www.kaigokensaku.mhlw.go.jp/41/index.php?action_kouhyou_detail_004_kani=true&JigyosyoCd=4170100723-00&ServiceCd=331&Type=search", "url2": "http://satihome.sakura.ne.jp/" }, "geometry": { "type": "Point", "coordinates": [ 130.291258500000026, 33.2635845 ] } },
{ "type": "Feature", "properties": { "内容": "ハウスｏｆクローバー【特定施設入居者生活介護（有料老人ホーム）】佐賀市大財5丁目1番20号", "url": "https://www.kaigokensaku.mhlw.go.jp/41/index.php?action_kouhyou_detail_004_kani=true&JigyosyoCd=4170100822-00&ServiceCd=331&Type=search", "url2": null }, "geometry": { "type": "Point", "coordinates": [ 130.303843499999971, 33.2616656 ] } },
{ "type": "Feature", "properties": { "内容": "ナーシングホーム華【特定施設入居者生活介護（有料老人ホーム）】佐賀市久保泉町大字川久保２１２０番地７", "url": "https://www.kaigokensaku.mhlw.go.jp/41/index.php?action_kouhyou_detail_004_kani=true&JigyosyoCd=4170100855-00&ServiceCd=331&Type=search", "url2": "http://friendly-hana.com/index.html" }, "geometry": { "type": "Point", "coordinates": [ 130.31790332883611, 33.32416082378888 ] } },
{ "type": "Feature", "properties": { "内容": "ケアハイツ田園【特定施設入居者生活介護（有料老人ホーム）】佐賀県佐賀市嘉瀬町中原2050番地12", "url": "https://www.kaigokensaku.mhlw.go.jp/41/index.php?action_kouhyou_detail_004_kani=true&JigyosyoCd=4170101770-00&ServiceCd=331&Type=search", "url2": "http://www.shimada.or.jp/" }, "geometry": { "type": "Point", "coordinates": [ 130.258145, 33.2460157 ] } },
{ "type": "Feature", "properties": { "内容": "介護付有料老人ホーム　カーサ・デ佐賀【特定施設入居者生活介護（有料老人ホーム）】佐賀市高木瀬町長瀬１２９４－４", "url": "https://www.kaigokensaku.mhlw.go.jp/41/index.php?action_kouhyou_detail_004_kani=true&JigyosyoCd=4170102232-00&ServiceCd=331&Type=search", "url2": null }, "geometry": { "type": "Point", "coordinates": [ 130.287385699999959, 33.2911931 ] } },
{ "type": "Feature", "properties": { "内容": "介護付有料老人ホームまどい【特定施設入居者生活介護（有料老人ホーム）】佐賀県佐賀市本庄町大字本庄264番地1介護付有料老人ホームまどい", "url": "https://www.kaigokensaku.mhlw.go.jp/41/index.php?action_kouhyou_detail_004_kani=true&JigyosyoCd=4170103115-00&ServiceCd=331&Type=search", "url2": null }, "geometry": { "type": "Point", "coordinates": [ 130.292728500000067, 33.2379174 ] } },
{ "type": "Feature", "properties": { "内容": "介護付有料老人ホーム木の香【特定施設入居者生活介護（有料老人ホーム）】佐賀市本庄町大字本庄264番地1介護付有料老人ホーム木の香", "url": "https://www.kaigokensaku.mhlw.go.jp/41/index.php?action_kouhyou_detail_004_kani=true&JigyosyoCd=4170103313-00&ServiceCd=331&Type=search", "url2": null }, "geometry": { "type": "Point", "coordinates": [ 130.2932668, 33.238296 ] } },
{ "type": "Feature", "properties": { "内容": "ディ－フェスタリリ－フ東与賀【特定施設入居者生活介護（有料老人ホーム）】佐賀県佐賀市東与賀町大字田中191-1", "url": "https://www.kaigokensaku.mhlw.go.jp/41/index.php?action_kouhyou_detail_004_kani=true&JigyosyoCd=4170103354-00&ServiceCd=331&Type=search", "url2": "https://www.daiwaliving-care.co.jp/" }, "geometry": { "type": "Point", "coordinates": [ 130.286990900000035, 33.2143534 ] } },
{ "type": "Feature", "properties": { "内容": "介護付有料老人ホームクローヴィオ兵庫北【特定施設入居者生活介護（有料老人ホーム）】佐賀県佐賀市兵庫北５丁目12－12", "url": "https://www.kaigokensaku.mhlw.go.jp/41/index.php?action_kouhyou_detail_004_kani=true&JigyosyoCd=4170103503-00&ServiceCd=331&Type=search", "url2": "http://lsneo.com/" }, "geometry": { "type": "Point", "coordinates": [ 130.308782799999989, 33.2738207 ] } },
{ "type": "Feature", "properties": { "内容": "介護付き有料老人ホーム　兵庫の郷【特定施設入居者生活介護（有料老人ホーム）】佐賀県佐賀市兵庫町大字渕4604番地1", "url": "https://www.kaigokensaku.mhlw.go.jp/41/index.php?action_kouhyou_detail_004_kani=true&JigyosyoCd=4170103537-00&ServiceCd=331&Type=search", "url2": "http://shunyoukai.jp" }, "geometry": { "type": "Point", "coordinates": [ 130.314206989024541, 33.283132529196216 ] } },
{ "type": "Feature", "properties": { "内容": "介護付有料老人ホームシニアライフ佐賀3号館【特定施設入居者生活介護（有料老人ホーム）】佐賀県佐賀市高木瀬町長瀬1294-1シニアライフ佐賀3号館", "url": "https://www.kaigokensaku.mhlw.go.jp/41/index.php?action_kouhyou_detail_004_kani=true&JigyosyoCd=4170103545-00&ServiceCd=331&Type=search", "url2": "https://jinfield.jp" }, "geometry": { "type": "Point", "coordinates": [ 130.280691895123852, 33.291948427941861 ] } },
{ "type": "Feature", "properties": { "内容": "介護付き有料老人ホーム　ケアポート晴寿【特定施設入居者生活介護（有料老人ホーム）】佐賀県佐賀市高木瀬町東高木1170", "url": "https://www.kaigokensaku.mhlw.go.jp/41/index.php?action_kouhyou_detail_004_kani=true&JigyosyoCd=4170103560-00&ServiceCd=331&Type=search", "url2": "http://www.seijyukai.com/" }, "geometry": { "type": "Point", "coordinates": [ 130.2997957, 33.2874463 ] } },
{ "type": "Feature", "properties": { "内容": "介護付き有料老人ホームオリーブの苑【特定施設入居者生活介護（有料老人ホーム）】佐賀県佐賀市大和町久池井1521番地5介護付き有料老人ホームオリーブの苑", "url": "https://www.kaigokensaku.mhlw.go.jp/41/index.php?action_kouhyou_detail_004_kani=true&JigyosyoCd=4170102216-00&ServiceCd=331&Type=search", "url2": "https://www.rosaryo.jp/" }, "geometry": { "type": "Point", "coordinates": [ 130.2883286, 33.325039600000025 ] } },
{ "type": "Feature", "properties": { "内容": "あいらの杜佐賀医大前【特定施設入居者生活介護（有料老人ホーム）】佐賀市鍋島町大字鍋島2001番地1あいらの杜佐賀医大前", "url": "https://www.kaigokensaku.mhlw.go.jp/41/index.php?action_kouhyou_detail_004_kani=true&JigyosyoCd=4170102893-00&ServiceCd=331&Type=search", "url2": null }, "geometry": { "type": "Point", "coordinates": [ 130.2632092, 33.27661 ] } },
{ "type": "Feature", "properties": { "内容": "アイケア東唐津【特定施設入居者生活介護（有料老人ホーム）】佐賀県唐津市松南町3番55号", "url": "https://www.kaigokensaku.mhlw.go.jp/41/index.php?action_kouhyou_detail_004_kani=true&JigyosyoCd=4170201380-00&ServiceCd=331&Type=search", "url2": "http://icare-grp.jp/" }, "geometry": { "type": "Point", "coordinates": [ 129.997726606082097, 33.439011288540826 ] } },
{ "type": "Feature", "properties": { "内容": "介護付有料老人ホーム桜【特定施設入居者生活介護（有料老人ホーム）】佐賀県唐津市船宮町2587番地13", "url": "https://www.kaigokensaku.mhlw.go.jp/41/index.php?action_kouhyou_detail_004_kani=true&JigyosyoCd=4170200598-00&ServiceCd=331&Type=search", "url2": "http://www.haramaki-iin.jp/sakura.html" }, "geometry": { "type": "Point", "coordinates": [ 129.979460600000039, 33.4452523 ] } },
{ "type": "Feature", "properties": { "内容": "介護付有料老人ホーム　サンハウス唐津【特定施設入居者生活介護（有料老人ホーム）】佐賀県唐津市北波多徳須恵１１７８－４", "url": "https://www.kaigokensaku.mhlw.go.jp/41/index.php?action_kouhyou_detail_004_kani=true&JigyosyoCd=4170200754-00&ServiceCd=331&Type=search", "url2": null }, "geometry": { "type": "Point", "coordinates": [ 129.94900240000004, 33.374382 ] } },
{ "type": "Feature", "properties": { "内容": "介護付有料老人ホーム　ライフステイからつ【特定施設入居者生活介護（有料老人ホーム）】佐賀県唐津市鏡３０７６番地", "url": "https://www.kaigokensaku.mhlw.go.jp/41/index.php?action_kouhyou_detail_004_kani=true&JigyosyoCd=4170201273-00&ServiceCd=331&Type=search", "url2": "http://www.s-clf.co.jp" }, "geometry": { "type": "Point", "coordinates": [ 129.99885919999997, 33.4319491 ] } },
{ "type": "Feature", "properties": { "内容": "介護付有料老人ホーム　　　小春日和【特定施設入居者生活介護（有料老人ホーム）】佐賀県唐津市町田1丁目2354番地", "url": "https://www.kaigokensaku.mhlw.go.jp/41/index.php?action_kouhyou_detail_004_kani=true&JigyosyoCd=4170200671-00&ServiceCd=331&Type=search", "url2": "www.genseikai.com" }, "geometry": { "type": "Point", "coordinates": [ 129.965352391401694, 33.441361927048995 ] } },
{ "type": "Feature", "properties": { "内容": "ケア付有料老人ホームばんざい【特定施設入居者生活介護（有料老人ホーム）】佐賀県鳥栖市江島町3388-1", "url": "https://www.kaigokensaku.mhlw.go.jp/41/index.php?action_kouhyou_detail_004_kani=true&JigyosyoCd=4170300562-00&ServiceCd=331&Type=search", "url2": "http://banzai-lohas.co.jp" }, "geometry": { "type": "Point", "coordinates": [ 130.482229500000017, 33.3447951 ] } },
{ "type": "Feature", "properties": { "内容": "介護付有料老人ホーム　南風【特定施設入居者生活介護（有料老人ホーム）】佐賀県鳥栖市儀徳町2238-1", "url": "https://www.kaigokensaku.mhlw.go.jp/41/index.php?action_kouhyou_detail_004_kani=true&JigyosyoCd=4170300422-00&ServiceCd=331&Type=search", "url2": "http://minamikaze-g.jp/" }, "geometry": { "type": "Point", "coordinates": [ 130.493706299999985, 33.3495424 ] } },
{ "type": "Feature", "properties": { "内容": "介護付有料老人ホーム百楽仙【特定施設入居者生活介護（有料老人ホーム）】佐賀県鳥栖市蔵上4丁目292", "url": "https://www.kaigokensaku.mhlw.go.jp/41/index.php?action_kouhyou_detail_004_kani=true&JigyosyoCd=4170300513-00&ServiceCd=331&Type=search", "url2": "http://jintokukai.jp/介護施設情報/介護付有料老人ホーム/介護付き有料老人ホーム百楽仙/" }, "geometry": { "type": "Point", "coordinates": [ 130.494806879762336, 33.372467541879061 ] } },
{ "type": "Feature", "properties": { "内容": "介護付有料老人ホーム南風II番館【特定施設入居者生活介護（有料老人ホーム）】佐賀県鳥栖市今泉町2395-1", "url": "https://www.kaigokensaku.mhlw.go.jp/41/index.php?action_kouhyou_detail_004_kani=true&JigyosyoCd=4170300604-00&ServiceCd=331&Type=search", "url2": "ｈｔｔｐ：//minamikaze-g.jp/kousei/" }, "geometry": { "type": "Point", "coordinates": [ 130.514110599999981, 33.3617756 ] } },
{ "type": "Feature", "properties": { "内容": "介護付有料老人ホーム百楽仙　別館【特定施設入居者生活介護（有料老人ホーム）】佐賀県鳥栖市蔵上4丁目293", "url": "https://www.kaigokensaku.mhlw.go.jp/41/index.php?action_kouhyou_detail_004_kani=true&JigyosyoCd=4170300927-00&ServiceCd=331&Type=search", "url2": "http://jintokukai.jp/介護施設情報/介護付有料老人ホーム/介護付き有料老人ホーム百楽仙別館/" }, "geometry": { "type": "Point", "coordinates": [ 130.494437352886962, 33.372361054625955 ] } },
{ "type": "Feature", "properties": { "内容": "介護付有料老人ホーム　い　ま　り【特定施設入居者生活介護（有料老人ホーム）】佐賀県伊万里市新天町620-5", "url": "https://www.kaigokensaku.mhlw.go.jp/41/index.php?action_kouhyou_detail_004_kani=true&JigyosyoCd=4170500344-00&ServiceCd=331&Type=search", "url2": "http://seishou.biz" }, "geometry": { "type": "Point", "coordinates": [ 129.8758861, 33.2716207 ] } },
{ "type": "Feature", "properties": { "内容": "介護付有料老人ホーム　ほのぼの【特定施設入居者生活介護（有料老人ホーム）】佐賀県伊万里市黒川町塩屋５１１番地１", "url": "https://www.kaigokensaku.mhlw.go.jp/41/index.php?action_kouhyou_detail_004_kani=true&JigyosyoCd=4170500476-00&ServiceCd=331&Type=search", "url2": "http://www.hono-bono.jp" }, "geometry": { "type": "Point", "coordinates": [ 129.853988, 33.331558200000011 ] } },
{ "type": "Feature", "properties": { "内容": "社会福祉法人　敬愛会　介護付有料老人ホームシニアケアたけお【特定施設入居者生活介護（有料老人ホーム）】佐賀県武雄市朝日町大字甘久4269番地28", "url": "https://www.kaigokensaku.mhlw.go.jp/41/index.php?action_kouhyou_detail_004_kani=true&JigyosyoCd=4170600284-00&ServiceCd=331&Type=search", "url2": "keiaikai.takeo.senior@ae.auone-net.jp" }, "geometry": { "type": "Point", "coordinates": [ 130.040232663159941, 33.219204273094618 ] } },
{ "type": "Feature", "properties": { "内容": "介護付有料老人ホーム太陽【特定施設入居者生活介護（有料老人ホーム）】佐賀県鹿島市大字高津原６６７番地１", "url": "https://www.kaigokensaku.mhlw.go.jp/41/index.php?action_kouhyou_detail_004_kani=true&JigyosyoCd=4170700217-00&ServiceCd=331&Type=search", "url2": "https://www.koujitu.or.jp/" }, "geometry": { "type": "Point", "coordinates": [ 130.095302700000047, 33.1088343 ] } },
{ "type": "Feature", "properties": { "内容": "介護付有料老人ホームスリールひらまつ【特定施設入居者生活介護（有料老人ホーム）】佐賀県小城市小城町815-1", "url": "https://www.kaigokensaku.mhlw.go.jp/41/index.php?action_kouhyou_detail_004_kani=true&JigyosyoCd=4171300512-00&ServiceCd=331&Type=search", "url2": null }, "geometry": { "type": "Point", "coordinates": [ 130.205885299999977, 33.3011346 ] } },
{ "type": "Feature", "properties": { "内容": "介護付有料老人ホームヨツハートきぼう壱番館【特定施設入居者生活介護（有料老人ホーム）】佐賀県神埼市神埼町竹字利田1042-1", "url": "https://www.kaigokensaku.mhlw.go.jp/41/index.php?action_kouhyou_detail_004_kani=true&JigyosyoCd=4172000236-00&ServiceCd=331&Type=search", "url2": "http://lsneo.com/" }, "geometry": { "type": "Point", "coordinates": [ 130.362599700000032, 33.3158426 ] } },
{ "type": "Feature", "properties": { "内容": "介護付有料老人ホーム愛夢かんざき【特定施設入居者生活介護（有料老人ホーム）】神埼市神埼町田道ケ里2220-1", "url": "https://www.kaigokensaku.mhlw.go.jp/41/index.php?action_kouhyou_detail_004_kani=true&JigyosyoCd=4172000269-00&ServiceCd=331&Type=search", "url2": "http://www.aim-kanzaki.jp/column/post-1/" }, "geometry": { "type": "Point", "coordinates": [ 130.37594880000006, 33.3118853 ] } },
{ "type": "Feature", "properties": { "内容": "ケアホーム　　ロイヤル　　神埼【特定施設入居者生活介護（有料老人ホーム）】佐賀県神埼市神埼町本堀１６２０", "url": "https://www.kaigokensaku.mhlw.go.jp/41/index.php?action_kouhyou_detail_004_kani=true&JigyosyoCd=4172000061-00&ServiceCd=331&Type=search", "url2": "http://www.royalkanzaki.jp/" }, "geometry": { "type": "Point", "coordinates": [ 130.38251020000007, 33.2957058 ] } },
{ "type": "Feature", "properties": { "内容": "介護付有料老人ホーム　ケアライフ花の里【特定施設入居者生活介護（有料老人ホーム）】佐賀県三養基郡みやき町大字西島3154番地１", "url": "https://www.kaigokensaku.mhlw.go.jp/41/index.php?action_kouhyou_detail_004_kani=true&JigyosyoCd=4171200431-00&ServiceCd=331&Type=search", "url2": "https://r.goope.jp/hananosato" }, "geometry": { "type": "Point", "coordinates": [ 130.450993899999958, 33.3000201 ] } },
{ "type": "Feature", "properties": { "内容": "介護付き有料老人ホーム紀水苑別館【特定施設入居者生活介護（有料老人ホーム）】三養基郡みやき町大字簑原4239番地3", "url": "https://www.kaigokensaku.mhlw.go.jp/41/index.php?action_kouhyou_detail_004_kani=true&JigyosyoCd=4171200530-00&ServiceCd=331&Type=search", "url2": "http://kisuikai.net/" }, "geometry": { "type": "Point", "coordinates": [ 130.451306746700652, 33.36398517279202 ] } },
{ "type": "Feature", "properties": { "内容": "介護付複合福祉施設　パークハウス・有田【特定施設入居者生活介護（有料老人ホーム）】佐賀県西松浦郡有田町原明乙114番地1", "url": "https://www.kaigokensaku.mhlw.go.jp/41/index.php?action_kouhyou_detail_004_kani=true&JigyosyoCd=4171500160-00&ServiceCd=331&Type=search", "url2": "http://jikou-kai.net/park/index.html" }, "geometry": { "type": "Point", "coordinates": [ 129.851371781614688, 33.184391869177674 ] } }
]
}
