{
"type": "FeatureCollection",
"name": "geo_41_居宅介護支援",
"crs": { "type": "name", "properties": { "name": "urn:ogc:def:crs:OGC:1.3:CRS84" } },
"features": [
{ "type": "Feature", "properties": { "内容": "ケアプラン　ふくふく【居宅介護支援】佐賀市開成６丁目１２番３０号", "url": "https://www.kaigokensaku.mhlw.go.jp/41/index.php?action_kouhyou_detail_004_kani=true&JigyosyoCd=4170100749-00&ServiceCd=430&Type=search", "url2": "http://.4970.net/" }, "geometry": { "type": "Point", "coordinates": [ 130.274353229499866, 33.272159881722715 ] } },
{ "type": "Feature", "properties": { "内容": "ケアマネジメントサービスＳｏｌａ【居宅介護支援】佐賀市久保泉町大字川久保2225番地1", "url": "https://www.kaigokensaku.mhlw.go.jp/41/index.php?action_kouhyou_detail_004_kani=true&JigyosyoCd=4170100855-00&ServiceCd=430&Type=search", "url2": null }, "geometry": { "type": "Point", "coordinates": [ 130.315447330851242, 33.323265913998057 ] } },
{ "type": "Feature", "properties": { "内容": "医療法人純伸会　居宅介護支援センターきはら【居宅介護支援】佐賀県佐賀市木原三丁目２番１１号", "url": "https://www.kaigokensaku.mhlw.go.jp/41/index.php?action_kouhyou_detail_004_kani=true&JigyosyoCd=4170102760-00&ServiceCd=430&Type=search", "url2": "http://www.yakabe-iin.or.jp/notice.html" }, "geometry": { "type": "Point", "coordinates": [ 130.323234544838328, 33.247527317878713 ] } },
{ "type": "Feature", "properties": { "内容": "レインボー川副　居宅介護支援センター【居宅介護支援】佐賀県佐賀市川副町鹿江９６０－１", "url": "https://www.kaigokensaku.mhlw.go.jp/41/index.php?action_kouhyou_detail_004_kani=true&JigyosyoCd=4170101432-00&ServiceCd=430&Type=search", "url2": "http://www.medical-sanko.com" }, "geometry": { "type": "Point", "coordinates": [ 130.315387250314529, 33.190653659466498 ] } },
{ "type": "Feature", "properties": { "内容": "介護支援センター　なんてん【居宅介護支援】若宮2丁目7番1号", "url": "https://www.kaigokensaku.mhlw.go.jp/41/index.php?action_kouhyou_detail_004_kani=true&JigyosyoCd=4170101820-00&ServiceCd=430&Type=search", "url2": null }, "geometry": { "type": "Point", "coordinates": [ 130.2863863, 33.2722169 ] } },
{ "type": "Feature", "properties": { "内容": "介護支援センターまんてん【居宅介護支援】佐賀県佐賀市若宮2丁目7番１号", "url": "https://www.kaigokensaku.mhlw.go.jp/41/index.php?action_kouhyou_detail_004_kani=true&JigyosyoCd=4170103446-00&ServiceCd=430&Type=search", "url2": null }, "geometry": { "type": "Point", "coordinates": [ 130.2863439, 33.2721664 ] } },
{ "type": "Feature", "properties": { "内容": "居宅介護支援事業所　おそえがわ【居宅介護支援】佐賀市神園三丁目４－５", "url": "https://www.kaigokensaku.mhlw.go.jp/41/index.php?action_kouhyou_detail_004_kani=true&JigyosyoCd=4110114651-00&ServiceCd=430&Type=search", "url2": "http://osoegawa.esaga.jp/" }, "geometry": { "type": "Point", "coordinates": [ 130.28505961045073, 33.26532860000021 ] } },
{ "type": "Feature", "properties": { "内容": "ケアマネジメントふじ【居宅介護支援】佐賀県佐賀市富士町大字梅野1721番地1", "url": "https://www.kaigokensaku.mhlw.go.jp/41/index.php?action_kouhyou_detail_004_kani=true&JigyosyoCd=4119811208-00&ServiceCd=430&Type=search", "url2": "http://www．hospitarlfj.saga.jp" }, "geometry": { "type": "Point", "coordinates": [ 130.249592200000052, 33.3559038 ] } },
{ "type": "Feature", "properties": { "内容": "ケアマネジメントサービス杏の樹【居宅介護支援】佐賀県佐賀市鬼丸町15-38", "url": "https://www.kaigokensaku.mhlw.go.jp/41/index.php?action_kouhyou_detail_004_kani=true&JigyosyoCd=4170102455-00&ServiceCd=430&Type=search", "url2": "https://kyokaen.wixsite.com/nicelandkitagata" }, "geometry": { "type": "Point", "coordinates": [ 130.295455899999979, 33.2423282 ] } },
{ "type": "Feature", "properties": { "内容": "ケアプランサービス　アルナ佐賀【居宅介護支援】佐賀県佐賀市兵庫町大字瓦町968-2", "url": "https://www.kaigokensaku.mhlw.go.jp/41/index.php?action_kouhyou_detail_004_kani=true&JigyosyoCd=4170103784-00&ServiceCd=430&Type=search", "url2": null }, "geometry": { "type": "Point", "coordinates": [ 130.332937500000014, 33.2715184 ] } },
{ "type": "Feature", "properties": { "内容": "しょうぶ苑居宅介護支援センター【居宅介護支援】佐賀県佐賀市大和町大字尼寺３２２７－１", "url": "https://www.kaigokensaku.mhlw.go.jp/41/index.php?action_kouhyou_detail_004_kani=true&JigyosyoCd=4151080027-00&ServiceCd=430&Type=search", "url2": "https://shobuen.com/" }, "geometry": { "type": "Point", "coordinates": [ 130.275833299999931, 33.3024226 ] } },
{ "type": "Feature", "properties": { "内容": "ふくしの窓口紡ぐ【居宅介護支援】佐賀県佐賀市諸富町大字為重1078-2", "url": "https://www.kaigokensaku.mhlw.go.jp/41/index.php?action_kouhyou_detail_004_kani=true&JigyosyoCd=4170103586-00&ServiceCd=430&Type=search", "url2": "https://sites.google.com/view/tumugu-irodori/%E3%83%9B%E3%83%BC%E3%83%A0" }, "geometry": { "type": "Point", "coordinates": [ 130.3412256, 33.2208936 ] } },
{ "type": "Feature", "properties": { "内容": "なゆたの森ケアマネジメントサービス【居宅介護支援】佐賀市本庄町大字本庄269－1", "url": "https://www.kaigokensaku.mhlw.go.jp/41/index.php?action_kouhyou_detail_004_kani=true&JigyosyoCd=4110111228-00&ServiceCd=430&Type=search", "url2": "https://www.shiseikai-g.or.jp/" }, "geometry": { "type": "Point", "coordinates": [ 130.293080432265356, 33.237487694615567 ] } },
{ "type": "Feature", "properties": { "内容": "医療法人信愛整形外科医院　指定居宅介護支援事業所　すこやか【居宅介護支援】佐賀市川原町４番８号", "url": "https://www.kaigokensaku.mhlw.go.jp/41/index.php?action_kouhyou_detail_004_kani=true&JigyosyoCd=4110114438-00&ServiceCd=430&Type=search", "url2": "sukoyaka201006@yahoo.co.jp" }, "geometry": { "type": "Point", "coordinates": [ 130.2917172, 33.2500857 ] } },
{ "type": "Feature", "properties": { "内容": "橋野医院居宅介護支援事業所【居宅介護支援】佐賀県佐賀市高木瀬東５丁目17番11号", "url": "https://www.kaigokensaku.mhlw.go.jp/41/index.php?action_kouhyou_detail_004_kani=true&JigyosyoCd=4110115302-00&ServiceCd=430&Type=search", "url2": "http://www.hashino-clinic.com/" }, "geometry": { "type": "Point", "coordinates": [ 130.297635574868764, 33.286411969200003 ] } },
{ "type": "Feature", "properties": { "内容": "居宅介護支援事業所　南佐賀【居宅介護支援】佐賀市南佐賀一丁目１７番１号", "url": "https://www.kaigokensaku.mhlw.go.jp/41/index.php?action_kouhyou_detail_004_kani=true&JigyosyoCd=4110115344-00&ServiceCd=430&Type=search", "url2": "http://www.sagareha.or.jp" }, "geometry": { "type": "Point", "coordinates": [ 130.31280449999997, 33.2381486 ] } },
{ "type": "Feature", "properties": { "内容": "居宅介護支援事業所　ウェルネス開成【居宅介護支援】佐賀市開成6丁目5番37号", "url": "https://www.kaigokensaku.mhlw.go.jp/41/index.php?action_kouhyou_detail_004_kani=true&JigyosyoCd=4110116284-00&ServiceCd=430&Type=search", "url2": null }, "geometry": { "type": "Point", "coordinates": [ 130.27245389999996, 33.2695945 ] } },
{ "type": "Feature", "properties": { "内容": "扇寿荘指定居宅介護支援センター【居宅介護支援】佐賀市嘉瀬町大字中原2585番地", "url": "https://www.kaigokensaku.mhlw.go.jp/41/index.php?action_kouhyou_detail_004_kani=true&JigyosyoCd=4170100111-00&ServiceCd=430&Type=search", "url2": null }, "geometry": { "type": "Point", "coordinates": [ 130.253795699999955, 33.2395133 ] } },
{ "type": "Feature", "properties": { "内容": "ライフエイドケアマネジメントサービス【居宅介護支援】佐賀市久保泉町大字川久保5403", "url": "https://www.kaigokensaku.mhlw.go.jp/41/index.php?action_kouhyou_detail_004_kani=true&JigyosyoCd=4150180018-00&ServiceCd=430&Type=search", "url2": "http://seiyuukai.org/" }, "geometry": { "type": "Point", "coordinates": [ 130.323985499999907, 33.3401702 ] } },
{ "type": "Feature", "properties": { "内容": "居宅介護支援事業所　シルバーケア佐賀【居宅介護支援】佐賀県佐賀市高木瀬町長瀬1307番地", "url": "https://www.kaigokensaku.mhlw.go.jp/41/index.php?action_kouhyou_detail_004_kani=true&JigyosyoCd=4150180026-00&ServiceCd=430&Type=search", "url2": "http://silvercare-saga.com/" }, "geometry": { "type": "Point", "coordinates": [ 130.281093237651021, 33.292941870835278 ] } },
{ "type": "Feature", "properties": { "内容": "きりん居宅介護支援事業所【居宅介護支援】佐賀県佐賀市久保泉町大字上和泉2232-1きりんアパートメント", "url": "https://www.kaigokensaku.mhlw.go.jp/41/index.php?action_kouhyou_detail_004_kani=true&JigyosyoCd=4150180042-00&ServiceCd=430&Type=search", "url2": "http://www.kirin-saga.or.jp" }, "geometry": { "type": "Point", "coordinates": [ 130.316488855127943, 33.304355248872 ] } },
{ "type": "Feature", "properties": { "内容": "介護支援サービスセンターエバーグリーン【居宅介護支援】佐賀県佐賀市嘉瀬町大字中原1965-1", "url": "https://www.kaigokensaku.mhlw.go.jp/41/index.php?action_kouhyou_detail_004_kani=true&JigyosyoCd=4150180059-00&ServiceCd=430&Type=search", "url2": "http://www.shimada.or.jp/" }, "geometry": { "type": "Point", "coordinates": [ 130.258750700000064, 33.2429048 ] } },
{ "type": "Feature", "properties": { "内容": "独立行政法人地域医療機能推進機構　佐賀中部病院附属居宅介護支援センター【居宅介護支援】佐賀市兵庫南三丁目8-1", "url": "https://www.kaigokensaku.mhlw.go.jp/41/index.php?action_kouhyou_detail_004_kani=true&JigyosyoCd=4150180067-00&ServiceCd=430&Type=search", "url2": "http://www.saga.jcho.go.jp.rouken/" }, "geometry": { "type": "Point", "coordinates": [ 130.318414299999972, 33.2645908 ] } },
{ "type": "Feature", "properties": { "内容": "徐福の里　居宅介護支援事業所【居宅介護支援】佐賀市諸富町大字大堂　937番地3住宅型有料老人ホーム　びゃくしん", "url": "https://www.kaigokensaku.mhlw.go.jp/41/index.php?action_kouhyou_detail_004_kani=true&JigyosyoCd=4151080076-00&ServiceCd=430&Type=search", "url2": "http://www.moriyama-clinic.com" }, "geometry": { "type": "Point", "coordinates": [ 130.355856581253079, 33.237298796050766 ] } },
{ "type": "Feature", "properties": { "内容": "佐賀県看護協会　介護支援事業所【居宅介護支援】佐賀市緑小路6番10号", "url": "https://www.kaigokensaku.mhlw.go.jp/41/index.php?action_kouhyou_detail_004_kani=true&JigyosyoCd=4160190031-00&ServiceCd=430&Type=search", "url2": "http://www.nonohana-saga.org/" }, "geometry": { "type": "Point", "coordinates": [ 130.283819335334812, 33.260090872104698 ] } },
{ "type": "Feature", "properties": { "内容": "介護サービスセンターうえむら【居宅介護支援】佐賀市兵庫町大字渕4604番地１", "url": "https://www.kaigokensaku.mhlw.go.jp/41/index.php?action_kouhyou_detail_004_kani=true&JigyosyoCd=4160190072-00&ServiceCd=430&Type=search", "url2": "http://www3.ocn.ne.jp/^uemurahp/" }, "geometry": { "type": "Point", "coordinates": [ 130.314065205557199, 33.283120020284635 ] } },
{ "type": "Feature", "properties": { "内容": "シオンの園　ケアマネジメントサービス【居宅介護支援】佐賀県佐賀市大和町大字久留間３８６５－１", "url": "https://www.kaigokensaku.mhlw.go.jp/41/index.php?action_kouhyou_detail_004_kani=true&JigyosyoCd=4161090032-00&ServiceCd=430&Type=search", "url2": "https://www.zion.or.jp" }, "geometry": { "type": "Point", "coordinates": [ 130.2433294, 33.3123104 ] } },
{ "type": "Feature", "properties": { "内容": "ケアマネジメントケアポート晴寿【居宅介護支援】佐賀市高木瀬町東高木1170", "url": "https://www.kaigokensaku.mhlw.go.jp/41/index.php?action_kouhyou_detail_004_kani=true&JigyosyoCd=4170100012-00&ServiceCd=430&Type=search", "url2": "http://www.seijyukai.com/" }, "geometry": { "type": "Point", "coordinates": [ 130.299057073155126, 33.287453995736534 ] } },
{ "type": "Feature", "properties": { "内容": "つぼみ荘　老人介護支援相談所【居宅介護支援】佐賀市北川副町大字光法1480-2", "url": "https://www.kaigokensaku.mhlw.go.jp/41/index.php?action_kouhyou_detail_004_kani=true&JigyosyoCd=4170100103-00&ServiceCd=430&Type=search", "url2": "http://itwan.main.jp/tsubomi-sou/" }, "geometry": { "type": "Point", "coordinates": [ 130.331258400000024, 33.2321383 ] } },
{ "type": "Feature", "properties": { "内容": "ニチイケアセンターさが【居宅介護支援】佐賀県佐賀市鍋島3丁目14番28号", "url": "https://www.kaigokensaku.mhlw.go.jp/41/index.php?action_kouhyou_detail_004_kani=true&JigyosyoCd=4170100319-00&ServiceCd=430&Type=search", "url2": "http://www.nichiigakkan.co.jp" }, "geometry": { "type": "Point", "coordinates": [ 130.264159599999971, 33.2800741 ] } },
{ "type": "Feature", "properties": { "内容": "居宅介護支援事業所　春庵【居宅介護支援】佐賀県佐賀市鍋島町蛎久１３１３番地", "url": "https://www.kaigokensaku.mhlw.go.jp/41/index.php?action_kouhyou_detail_004_kani=true&JigyosyoCd=4170101044-00&ServiceCd=430&Type=search", "url2": "http://www.2006shunan.sakura.ne.jp" }, "geometry": { "type": "Point", "coordinates": [ 130.280577900000026, 33.2879155 ] } },
{ "type": "Feature", "properties": { "内容": "有限会社釘本　居宅介護支援事業所青空【居宅介護支援】佐賀市鍋島町大字蛎久１０７番地", "url": "https://www.kaigokensaku.mhlw.go.jp/41/index.php?action_kouhyou_detail_004_kani=true&JigyosyoCd=4170101051-00&ServiceCd=430&Type=search", "url2": null }, "geometry": { "type": "Point", "coordinates": [ 130.280621253442376, 33.279873795061498 ] } },
{ "type": "Feature", "properties": { "内容": "華みずき　ケアプランサービス【居宅介護支援】佐賀市諸富町大字山領561-10", "url": "https://www.kaigokensaku.mhlw.go.jp/41/index.php?action_kouhyou_detail_004_kani=true&JigyosyoCd=4170101143-00&ServiceCd=430&Type=search", "url2": null }, "geometry": { "type": "Point", "coordinates": [ 130.342982399999983, 33.2299192 ] } },
{ "type": "Feature", "properties": { "内容": "ケアパートナー佐賀　居宅介護支援事業所【居宅介護支援】佐賀県佐賀市兵庫北3丁目10番29号フレアルーチェ1階", "url": "https://www.kaigokensaku.mhlw.go.jp/41/index.php?action_kouhyou_detail_004_kani=true&JigyosyoCd=4170101424-00&ServiceCd=430&Type=search", "url2": "https://www.care-partner.com/corporate/" }, "geometry": { "type": "Point", "coordinates": [ 130.305162500000051, 33.2712176 ] } },
{ "type": "Feature", "properties": { "内容": "ケアマネジメントサービス　桂寿苑【居宅介護支援】佐賀市金立町大字千布4088-1", "url": "https://www.kaigokensaku.mhlw.go.jp/41/index.php?action_kouhyou_detail_004_kani=true&JigyosyoCd=4170101507-00&ServiceCd=430&Type=search", "url2": "http://www.ryoyuukai.jp/" }, "geometry": { "type": "Point", "coordinates": [ 130.297306899999967, 33.2981177 ] } },
{ "type": "Feature", "properties": { "内容": "居宅介護支援事業所リーガルケア【居宅介護支援】佐賀県佐賀市大和町池上1894-1リーガルケア・サポートセンター", "url": "https://www.kaigokensaku.mhlw.go.jp/41/index.php?action_kouhyou_detail_004_kani=true&JigyosyoCd=4170101887-00&ServiceCd=430&Type=search", "url2": "http://hyu-mu.jp/" }, "geometry": { "type": "Point", "coordinates": [ 130.250168600000052, 33.2910842 ] } },
{ "type": "Feature", "properties": { "内容": "神野診療所ケアマネージメントサービス【居宅介護支援】佐賀市神野東四丁目１０番３６号", "url": "https://www.kaigokensaku.mhlw.go.jp/41/index.php?action_kouhyou_detail_004_kani=true&JigyosyoCd=4170102141-00&ServiceCd=430&Type=search", "url2": null }, "geometry": { "type": "Point", "coordinates": [ 130.299157599999944, 33.2697509 ] } },
{ "type": "Feature", "properties": { "内容": "居宅介護支援事業所　花みずき【居宅介護支援】佐賀市巨勢町牛島３９７－１１有料老人ホーム花みずき", "url": "https://www.kaigokensaku.mhlw.go.jp/41/index.php?action_kouhyou_detail_004_kani=true&JigyosyoCd=4170102240-00&ServiceCd=430&Type=search", "url2": "http://www.nakao-c.com/hanamizuki/" }, "geometry": { "type": "Point", "coordinates": [ 130.318053599999985, 33.2540056 ] } },
{ "type": "Feature", "properties": { "内容": "うなぎのねどこ　居宅介護支援事業所【居宅介護支援】佐賀県佐賀市本庄町大字末次５７２－１", "url": "https://www.kaigokensaku.mhlw.go.jp/41/index.php?action_kouhyou_detail_004_kani=true&JigyosyoCd=4170102281-00&ServiceCd=430&Type=search", "url2": null }, "geometry": { "type": "Point", "coordinates": [ 130.301450100000011, 33.2320739 ] } },
{ "type": "Feature", "properties": { "内容": "ケアマネジメント　花みずき【居宅介護支援】佐賀県佐賀市本庄町袋256-1ファインビューＳＡＧＡ　1階", "url": "https://www.kaigokensaku.mhlw.go.jp/41/index.php?action_kouhyou_detail_004_kani=true&JigyosyoCd=4170102786-00&ServiceCd=430&Type=search", "url2": "http://www.nakao-c.com/hanamizuki/" }, "geometry": { "type": "Point", "coordinates": [ 130.308549836224216, 33.239223536114906 ] } },
{ "type": "Feature", "properties": { "内容": "居宅介護支援事業所リンクス【居宅介護支援】佐賀県佐賀市八幡小路6番14号宮原ビル1階", "url": "https://www.kaigokensaku.mhlw.go.jp/41/index.php?action_kouhyou_detail_004_kani=true&JigyosyoCd=4170102869-00&ServiceCd=430&Type=search", "url2": null }, "geometry": { "type": "Point", "coordinates": [ 130.294616799999972, 33.2535911 ] } },
{ "type": "Feature", "properties": { "内容": "介護支援センターシニアライフ佐賀【居宅介護支援】佐賀県佐賀市若楠2丁目4番1号", "url": "https://www.kaigokensaku.mhlw.go.jp/41/index.php?action_kouhyou_detail_004_kani=true&JigyosyoCd=4170103040-00&ServiceCd=430&Type=search", "url2": "https://jinfield.jp/" }, "geometry": { "type": "Point", "coordinates": [ 130.285542853507138, 33.278666134191525 ] } },
{ "type": "Feature", "properties": { "内容": "居宅介護支援事業所　クローバー【居宅介護支援】佐賀県佐賀市高木瀬町長瀬1307番地", "url": "https://www.kaigokensaku.mhlw.go.jp/41/index.php?action_kouhyou_detail_004_kani=true&JigyosyoCd=4170103081-00&ServiceCd=430&Type=search", "url2": null }, "geometry": { "type": "Point", "coordinates": [ 130.28156694180305, 33.293170694951286 ] } },
{ "type": "Feature", "properties": { "内容": "居宅介護支援事業所　さくら【居宅介護支援】佐賀県佐賀市唐人町1丁目4番30号", "url": "https://www.kaigokensaku.mhlw.go.jp/41/index.php?action_kouhyou_detail_004_kani=true&JigyosyoCd=4170102992-00&ServiceCd=430&Type=search", "url2": "sakura0301＠sweet.ocn.ne.jp" }, "geometry": { "type": "Point", "coordinates": [ 130.297953399999983, 33.258573399999989 ] } },
{ "type": "Feature", "properties": { "内容": "ケアプランセンター　こもれび【居宅介護支援】佐賀県佐賀市大和町久池井１９４３", "url": "https://www.kaigokensaku.mhlw.go.jp/41/index.php?action_kouhyou_detail_004_kani=true&JigyosyoCd=4170103164-00&ServiceCd=430&Type=search", "url2": "komorebi_sin_h3081@yahoo.co.jp" }, "geometry": { "type": "Point", "coordinates": [ 130.284112899999968, 33.3173852 ] } },
{ "type": "Feature", "properties": { "内容": "居宅介護支援事業所　かがやき【居宅介護支援】佐賀県佐賀市高木瀬町大字長瀬1910-1", "url": "https://www.kaigokensaku.mhlw.go.jp/41/index.php?action_kouhyou_detail_004_kani=true&JigyosyoCd=4170103172-00&ServiceCd=430&Type=search", "url2": null }, "geometry": { "type": "Point", "coordinates": [ 130.2922686, 33.2931072 ] } },
{ "type": "Feature", "properties": { "内容": "ケアプランサービス　ほっこり【居宅介護支援】佐賀市南佐賀2丁目15-25", "url": "https://www.kaigokensaku.mhlw.go.jp/41/index.php?action_kouhyou_detail_004_kani=true&JigyosyoCd=4170103222-00&ServiceCd=430&Type=search", "url2": null }, "geometry": { "type": "Point", "coordinates": [ 130.32222285462268, 33.240749474221623 ] } },
{ "type": "Feature", "properties": { "内容": "ほうむ居宅介護支援事業所【居宅介護支援】佐賀市田代二丁目7ｰ24", "url": "https://www.kaigokensaku.mhlw.go.jp/41/index.php?action_kouhyou_detail_004_kani=true&JigyosyoCd=4170103099-00&ServiceCd=430&Type=search", "url2": "http://houmu-group.com/tops/index/" }, "geometry": { "type": "Point", "coordinates": [ 130.314077872805683, 33.24974619792124 ] } },
{ "type": "Feature", "properties": { "内容": "Seedケアマネジメント【居宅介護支援】佐賀市鍋島3丁目15-41カーサ鍋島B-101", "url": "https://www.kaigokensaku.mhlw.go.jp/41/index.php?action_kouhyou_detail_004_kani=true&JigyosyoCd=4170103263-00&ServiceCd=430&Type=search", "url2": null }, "geometry": { "type": "Point", "coordinates": [ 130.26374908650817, 33.280907222652715 ] } },
{ "type": "Feature", "properties": { "内容": "ケアプランセンター　ディーフェスタ東与賀【居宅介護支援】佐賀県佐賀市東与賀町飯盛224-1", "url": "https://www.kaigokensaku.mhlw.go.jp/41/index.php?action_kouhyou_detail_004_kani=true&JigyosyoCd=4170103362-00&ServiceCd=430&Type=search", "url2": "https://www.daiwaliving-care.co.jp/" }, "geometry": { "type": "Point", "coordinates": [ 130.285093499999988, 33.2137778 ] } },
{ "type": "Feature", "properties": { "内容": "居宅介護支援事業所　ちとせ【居宅介護支援】佐賀県佐賀市諸富町大字徳富2009-5　メゾンアネス106号", "url": "https://www.kaigokensaku.mhlw.go.jp/41/index.php?action_kouhyou_detail_004_kani=true&JigyosyoCd=4170103388-00&ServiceCd=430&Type=search", "url2": null }, "geometry": { "type": "Point", "coordinates": [ 130.325093, 33.234582 ] } },
{ "type": "Feature", "properties": { "内容": "NextCare　Happiness【居宅介護支援】佐賀市天祐一丁目8番47号コーポ・テルA101", "url": "https://www.kaigokensaku.mhlw.go.jp/41/index.php?action_kouhyou_detail_004_kani=true&JigyosyoCd=4170103420-00&ServiceCd=430&Type=search", "url2": "https://www.nextcare-saga.com/" }, "geometry": { "type": "Point", "coordinates": [ 130.283508399999988, 33.2586595 ] } },
{ "type": "Feature", "properties": { "内容": "居宅介護支援センターまる【居宅介護支援】佐賀県佐賀市神野西３丁目15-28-502", "url": "https://www.kaigokensaku.mhlw.go.jp/41/index.php?action_kouhyou_detail_004_kani=true&JigyosyoCd=4170103495-00&ServiceCd=430&Type=search", "url2": null }, "geometry": { "type": "Point", "coordinates": [ 130.289307600506049, 33.268737267895844 ] } },
{ "type": "Feature", "properties": { "内容": "ケアプランサービスEnne【居宅介護支援】佐賀県佐賀市若楠一丁目２－１　１０５号グリーンパークシティA棟", "url": "https://www.kaigokensaku.mhlw.go.jp/41/index.php?action_kouhyou_detail_004_kani=true&JigyosyoCd=4170103651-00&ServiceCd=430&Type=search", "url2": "https://www.carelabo.org/" }, "geometry": { "type": "Point", "coordinates": [ 130.292023300000011, 33.278038100000018 ] } },
{ "type": "Feature", "properties": { "内容": "ケアプランセンターびりーぶ【居宅介護支援】佐賀県佐賀市東与賀町大字田中881-2", "url": "https://www.kaigokensaku.mhlw.go.jp/41/index.php?action_kouhyou_detail_004_kani=true&JigyosyoCd=4170103743-00&ServiceCd=430&Type=search", "url2": "https://believe-saga.com/" }, "geometry": { "type": "Point", "coordinates": [ 130.2792373, 33.2009547 ] } },
{ "type": "Feature", "properties": { "内容": "ロザリオの園在宅介護支援サービス事業所【居宅介護支援】佐賀県佐賀市大和町大字久池井１３８６－２", "url": "https://www.kaigokensaku.mhlw.go.jp/41/index.php?action_kouhyou_detail_004_kani=true&JigyosyoCd=4171000013-00&ServiceCd=430&Type=search", "url2": "http://www.rosaryo.jp/" }, "geometry": { "type": "Point", "coordinates": [ 130.288170700000023, 33.3257233 ] } },
{ "type": "Feature", "properties": { "内容": "南鴎荘居宅介護支援事業所【居宅介護支援】佐賀市久保田町大字久富３４５９番地２", "url": "https://www.kaigokensaku.mhlw.go.jp/41/index.php?action_kouhyou_detail_004_kani=true&JigyosyoCd=4171000039-00&ServiceCd=430&Type=search", "url2": "https://www.nanousou.com" }, "geometry": { "type": "Point", "coordinates": [ 130.238202600000022, 33.2195266 ] } },
{ "type": "Feature", "properties": { "内容": "なごみ荘ケアマネジメントサービス【居宅介護支援】佐賀県佐賀市富士町大字小副川562", "url": "https://www.kaigokensaku.mhlw.go.jp/41/index.php?action_kouhyou_detail_004_kani=true&JigyosyoCd=4171000047-00&ServiceCd=430&Type=search", "url2": "https://www.kenjyu-nagomi.jp" }, "geometry": { "type": "Point", "coordinates": [ 130.244039564418017, 33.365226974723797 ] } },
{ "type": "Feature", "properties": { "内容": "居宅介護支援センターけやき荘【居宅介護支援】佐賀市川副町大字福富828-1", "url": "https://www.kaigokensaku.mhlw.go.jp/41/index.php?action_kouhyou_detail_004_kani=true&JigyosyoCd=4171000054-00&ServiceCd=430&Type=search", "url2": "http://www.keyakisou.or.jp/" }, "geometry": { "type": "Point", "coordinates": [ 130.321751, 33.2113929 ] } },
{ "type": "Feature", "properties": { "内容": "福壽園ケアマネジメントセンター【居宅介護支援】佐賀市諸富町大字諸富津209番地3", "url": "https://www.kaigokensaku.mhlw.go.jp/41/index.php?action_kouhyou_detail_004_kani=true&JigyosyoCd=4171000062-00&ServiceCd=430&Type=search", "url2": "https://fukujukaisaga.com/" }, "geometry": { "type": "Point", "coordinates": [ 130.361095073385627, 33.219710198684361 ] } },
{ "type": "Feature", "properties": { "内容": "シルバーケア三瀬居宅介護支援事業所【居宅介護支援】佐賀市三瀬村三瀬３８－１", "url": "https://www.kaigokensaku.mhlw.go.jp/41/index.php?action_kouhyou_detail_004_kani=true&JigyosyoCd=4171100045-00&ServiceCd=430&Type=search", "url2": "http://www.saganet.ne.Jp/KEIAIKAI" }, "geometry": { "type": "Point", "coordinates": [ 130.270790600000026, 33.4378293 ] } },
{ "type": "Feature", "properties": { "内容": "居宅介護支援事業所　そよ風【居宅介護支援】佐賀県佐賀市昭栄町７番１１号", "url": "https://www.kaigokensaku.mhlw.go.jp/41/index.php?action_kouhyou_detail_004_kani=true&JigyosyoCd=4170103800-00&ServiceCd=430&Type=search", "url2": null }, "geometry": { "type": "Point", "coordinates": [ 130.278387900000013, 33.2499046 ] } },
{ "type": "Feature", "properties": { "内容": "ふく【居宅介護支援】佐賀県佐賀市北川副町大字光法1686番地9", "url": "https://www.kaigokensaku.mhlw.go.jp/41/index.php?action_kouhyou_detail_004_kani=true&JigyosyoCd=4170103842-00&ServiceCd=430&Type=search", "url2": null }, "geometry": { "type": "Point", "coordinates": [ 130.32653160000001, 33.2338102 ] } },
{ "type": "Feature", "properties": { "内容": "居宅介護支援事業所　ケアビレッジ夢咲【居宅介護支援】佐賀県佐賀市兵庫北6丁目2-23", "url": "https://www.kaigokensaku.mhlw.go.jp/41/index.php?action_kouhyou_detail_004_kani=true&JigyosyoCd=4170101309-00&ServiceCd=430&Type=search", "url2": "http://www.cv-yumesaki.com/" }, "geometry": { "type": "Point", "coordinates": [ 130.311903499999971, 33.2733454 ] } },
{ "type": "Feature", "properties": { "内容": "セントケア佐賀【居宅介護支援】佐賀県佐賀市兵庫南3-1-19", "url": "https://www.kaigokensaku.mhlw.go.jp/41/index.php?action_kouhyou_detail_004_kani=true&JigyosyoCd=4170101945-00&ServiceCd=430&Type=search", "url2": "http://www.saint-care.com/" }, "geometry": { "type": "Point", "coordinates": [ 130.317111599999947, 33.2648602 ] } },
{ "type": "Feature", "properties": { "内容": "百武整形外科病院　居宅介護支援事業所【居宅介護支援】佐賀市水ケ江3丁目2番13号", "url": "https://www.kaigokensaku.mhlw.go.jp/41/index.php?action_kouhyou_detail_004_kani=true&JigyosyoCd=4170102075-00&ServiceCd=430&Type=search", "url2": "hyakutake-hp.com" }, "geometry": { "type": "Point", "coordinates": [ 130.307396400000016, 33.2463477 ] } },
{ "type": "Feature", "properties": { "内容": "居宅介護支援事業所　ふくろ【居宅介護支援】佐賀県佐賀市本庄町大字袋167-2介護複合施設　ふくろ", "url": "https://www.kaigokensaku.mhlw.go.jp/41/index.php?action_kouhyou_detail_004_kani=true&JigyosyoCd=4170102448-00&ServiceCd=430&Type=search", "url2": "http://www.fukuro-care.co.jp" }, "geometry": { "type": "Point", "coordinates": [ 130.30540625585445, 33.23771120103482 ] } },
{ "type": "Feature", "properties": { "内容": "ケアプランセンターさとう【居宅介護支援】川副町大字南里537-12", "url": "https://www.kaigokensaku.mhlw.go.jp/41/index.php?action_kouhyou_detail_004_kani=true&JigyosyoCd=4170103016-00&ServiceCd=430&Type=search", "url2": null }, "geometry": { "type": "Point", "coordinates": [ 130.312671300000034, 33.215501299999985 ] } },
{ "type": "Feature", "properties": { "内容": "ケアマネージメントセンターつなぐ【居宅介護支援】佐賀県佐賀市八丁畷町3-14", "url": "https://www.kaigokensaku.mhlw.go.jp/41/index.php?action_kouhyou_detail_004_kani=true&JigyosyoCd=4170103461-00&ServiceCd=430&Type=search", "url2": "http://hp.kaipoke.biz/s18/" }, "geometry": { "type": "Point", "coordinates": [ 130.295879, 33.2722809 ] } },
{ "type": "Feature", "properties": { "内容": "脇山内科居宅介護支援事業所【居宅介護支援】佐賀県唐津市町田1丁目2398番地２", "url": "https://www.kaigokensaku.mhlw.go.jp/41/index.php?action_kouhyou_detail_004_kani=true&JigyosyoCd=4110212885-00&ServiceCd=430&Type=search", "url2": "http://genseikai.com" }, "geometry": { "type": "Point", "coordinates": [ 129.9654114, 33.4427272 ] } },
{ "type": "Feature", "properties": { "内容": "有限会社在宅介護お世話宅配便ケアマネジメントサービス【居宅介護支援】佐賀県唐津市神田2074番地3", "url": "https://www.kaigokensaku.mhlw.go.jp/41/index.php?action_kouhyou_detail_004_kani=true&JigyosyoCd=4170200036-00&ServiceCd=430&Type=search", "url2": "http://www.osewa.co.jp/" }, "geometry": { "type": "Point", "coordinates": [ 129.958174349073829, 33.439088371643528 ] } },
{ "type": "Feature", "properties": { "内容": "居宅介護支援事業所河畔【居宅介護支援】唐津市松南町１１９－２", "url": "https://www.kaigokensaku.mhlw.go.jp/41/index.php?action_kouhyou_detail_004_kani=true&JigyosyoCd=4110211978-00&ServiceCd=430&Type=search", "url2": "http://www.shouraikai.jp/kahan" }, "geometry": { "type": "Point", "coordinates": [ 130.001575499999944, 33.4387818 ] } },
{ "type": "Feature", "properties": { "内容": "居宅介護支援事業所ハートランド【居宅介護支援】佐賀県唐津市船宮町2588-3", "url": "https://www.kaigokensaku.mhlw.go.jp/41/index.php?action_kouhyou_detail_004_kani=true&JigyosyoCd=4110212299-00&ServiceCd=430&Type=search", "url2": "http://www.haramaki-iin.jp" }, "geometry": { "type": "Point", "coordinates": [ 129.980346599999962, 33.4454273 ] } },
{ "type": "Feature", "properties": { "内容": "一般社団法人　唐津東松浦医師会居宅介護支援センター【居宅介護支援】佐賀県唐津市千代田町２５６６番地１１唐津地域総合保健医療センター", "url": "https://www.kaigokensaku.mhlw.go.jp/41/index.php?action_kouhyou_detail_004_kani=true&JigyosyoCd=4110212505-00&ServiceCd=430&Type=search", "url2": "kaigo@karatsu.saga.med.or.jp" }, "geometry": { "type": "Point", "coordinates": [ 129.974419200000057, 33.4485657 ] } },
{ "type": "Feature", "properties": { "内容": "居宅介護支援事業所岩本内科かなえ隊【居宅介護支援】佐賀県唐津市海岸通７１８２番地７８", "url": "https://www.kaigokensaku.mhlw.go.jp/41/index.php?action_kouhyou_detail_004_kani=true&JigyosyoCd=4110212687-00&ServiceCd=430&Type=search", "url2": "karatsu-iwamotonaika.com" }, "geometry": { "type": "Point", "coordinates": [ 129.956875560049383, 33.468577621581957 ] } },
{ "type": "Feature", "properties": { "内容": "居宅介護支援事業所　副島整形外科病院【居宅介護支援】佐賀県唐津市和多田天満町一丁目2番1号", "url": "https://www.kaigokensaku.mhlw.go.jp/41/index.php?action_kouhyou_detail_004_kani=true&JigyosyoCd=4110212695-00&ServiceCd=430&Type=search", "url2": "seiwakai-karatsu.or.jp" }, "geometry": { "type": "Point", "coordinates": [ 129.987054599999965, 33.4330428 ] } },
{ "type": "Feature", "properties": { "内容": "居宅介護支援事業所　保利クリニック【居宅介護支援】佐賀県唐津市南城内３番３４号", "url": "https://www.kaigokensaku.mhlw.go.jp/41/index.php?action_kouhyou_detail_004_kani=true&JigyosyoCd=4110212828-00&ServiceCd=430&Type=search", "url2": null }, "geometry": { "type": "Point", "coordinates": [ 129.97009730000002, 33.4503766 ] } },
{ "type": "Feature", "properties": { "内容": "佐賀県済生会指定居宅介護支援事業所【居宅介護支援】佐賀県唐津市江川町694番地1", "url": "https://www.kaigokensaku.mhlw.go.jp/41/index.php?action_kouhyou_detail_004_kani=true&JigyosyoCd=4150280016-00&ServiceCd=430&Type=search", "url2": "http://www.saiseikai-karatsu.com" }, "geometry": { "type": "Point", "coordinates": [ 129.963441595106502, 33.454102727872197 ] } },
{ "type": "Feature", "properties": { "内容": "指定居宅介護支援事業所セントポーリア【居宅介護支援】佐賀県唐津市西唐津1丁目6167番地", "url": "https://www.kaigokensaku.mhlw.go.jp/41/index.php?action_kouhyou_detail_004_kani=true&JigyosyoCd=4150280024-00&ServiceCd=430&Type=search", "url2": "http://karatsu-kaigo.com/karatsu-first-hospital/" }, "geometry": { "type": "Point", "coordinates": [ 129.956175900000062, 33.462753 ] } },
{ "type": "Feature", "properties": { "内容": "居宅介護支援センター　のぞみ【居宅介護支援】佐賀県唐津市養母田553-1", "url": "https://www.kaigokensaku.mhlw.go.jp/41/index.php?action_kouhyou_detail_004_kani=true&JigyosyoCd=4150280032-00&ServiceCd=430&Type=search", "url2": "http://www.shujinkai.or.jp" }, "geometry": { "type": "Point", "coordinates": [ 129.984463099999971, 33.4127368 ] } },
{ "type": "Feature", "properties": { "内容": "居宅介護支援事業所　アメニティきゅうらぎ【居宅介護支援】佐賀県唐津市厳木町岩屋５０５", "url": "https://www.kaigokensaku.mhlw.go.jp/41/index.php?action_kouhyou_detail_004_kani=true&JigyosyoCd=4151480029-00&ServiceCd=430&Type=search", "url2": "http://www.hp-hirakawa.com/" }, "geometry": { "type": "Point", "coordinates": [ 130.0325001, 33.316529 ] } },
{ "type": "Feature", "properties": { "内容": "唐津市社会福祉協議会居宅介護支援唐津事業所【居宅介護支援】佐賀県唐津市二夕子3丁目155番地4唐津市高齢者ふれあい会館りふれ2F", "url": "https://www.kaigokensaku.mhlw.go.jp/41/index.php?action_kouhyou_detail_004_kani=true&JigyosyoCd=4170200010-00&ServiceCd=430&Type=search", "url2": "http://www.karatsu-shakyo.or.jp/" }, "geometry": { "type": "Point", "coordinates": [ 129.957973292251609, 33.463067866766409 ] } },
{ "type": "Feature", "properties": { "内容": "栄荘居宅介護支援センター【居宅介護支援】佐賀県唐津市栄町2588番地19", "url": "https://www.kaigokensaku.mhlw.go.jp/41/index.php?action_kouhyou_detail_004_kani=true&JigyosyoCd=4170200028-00&ServiceCd=430&Type=search", "url2": "http://k-hukushikai.jp/sakae-gaiyou.html" }, "geometry": { "type": "Point", "coordinates": [ 129.976963500000011, 33.4493601 ] } },
{ "type": "Feature", "properties": { "内容": "ニチイケアセンター唐津【居宅介護支援】佐賀県唐津市鏡新開9", "url": "https://www.kaigokensaku.mhlw.go.jp/41/index.php?action_kouhyou_detail_004_kani=true&JigyosyoCd=4170200077-00&ServiceCd=430&Type=search", "url2": "http://www.nichiigakkan.co.jp" }, "geometry": { "type": "Point", "coordinates": [ 129.996628800000053, 33.4372317 ] } },
{ "type": "Feature", "properties": { "内容": "居宅介護支援　山百合【居宅介護支援】佐賀県唐津市呉服町１８００番地１", "url": "https://www.kaigokensaku.mhlw.go.jp/41/index.php?action_kouhyou_detail_004_kani=true&JigyosyoCd=4170200176-00&ServiceCd=430&Type=search", "url2": null }, "geometry": { "type": "Point", "coordinates": [ 129.968841800000064, 33.4477851 ] } },
{ "type": "Feature", "properties": { "内容": "居宅介護支援事業所　こころ【居宅介護支援】佐賀県唐津市佐志101番地83", "url": "https://www.kaigokensaku.mhlw.go.jp/41/index.php?action_kouhyou_detail_004_kani=true&JigyosyoCd=4170200275-00&ServiceCd=430&Type=search", "url2": null }, "geometry": { "type": "Point", "coordinates": [ 129.941210100000063, 33.453745435540021 ] } },
{ "type": "Feature", "properties": { "内容": "指定居宅介護支援事業所あおば【居宅介護支援】唐津市千々賀字千々賀653-1", "url": "https://www.kaigokensaku.mhlw.go.jp/41/index.php?action_kouhyou_detail_004_kani=true&JigyosyoCd=4170200317-00&ServiceCd=430&Type=search", "url2": "http://day-aoba.com" }, "geometry": { "type": "Point", "coordinates": [ 129.958873, 33.3996844 ] } },
{ "type": "Feature", "properties": { "内容": "居宅介護支援事業所　ひばり【居宅介護支援】佐賀県唐津市山田2824-5", "url": "https://www.kaigokensaku.mhlw.go.jp/41/index.php?action_kouhyou_detail_004_kani=true&JigyosyoCd=4170200424-00&ServiceCd=430&Type=search", "url2": "http//link2005.jp/" }, "geometry": { "type": "Point", "coordinates": [ 129.951287644782951, 33.422052035267924 ] } },
{ "type": "Feature", "properties": { "内容": "居宅介護支援事業所　ひだまり【居宅介護支援】佐賀県唐津市竹木場5109-6", "url": "https://www.kaigokensaku.mhlw.go.jp/41/index.php?action_kouhyou_detail_004_kani=true&JigyosyoCd=4170200465-00&ServiceCd=430&Type=search", "url2": "https://vf-life.com" }, "geometry": { "type": "Point", "coordinates": [ 129.925143079762279, 33.423372150282965 ] } },
{ "type": "Feature", "properties": { "内容": "居宅介護支援事業所　まんねん【居宅介護支援】佐賀県唐津市久里499番地", "url": "https://www.kaigokensaku.mhlw.go.jp/41/index.php?action_kouhyou_detail_004_kani=true&JigyosyoCd=4170200572-00&ServiceCd=430&Type=search", "url2": "http://www." }, "geometry": { "type": "Point", "coordinates": [ 129.994020800000044, 33.400894 ] } },
{ "type": "Feature", "properties": { "内容": "指定居宅介護支援事業所　うつのみや【居宅介護支援】唐津市厳木町本山386-1", "url": "https://www.kaigokensaku.mhlw.go.jp/41/index.php?action_kouhyou_detail_004_kani=true&JigyosyoCd=4170200713-00&ServiceCd=430&Type=search", "url2": null }, "geometry": { "type": "Point", "coordinates": [ 130.036869300000035, 33.3315058 ] } },
{ "type": "Feature", "properties": { "内容": "居宅介護支援事業所パートナー【居宅介護支援】佐賀県唐津市鎮西町高野534－2有料老人ホーム安寿", "url": "https://www.kaigokensaku.mhlw.go.jp/41/index.php?action_kouhyou_detail_004_kani=true&JigyosyoCd=4170200721-00&ServiceCd=430&Type=search", "url2": "heart-heel.com" }, "geometry": { "type": "Point", "coordinates": [ 129.917335900000012, 33.4902382 ] } },
{ "type": "Feature", "properties": { "内容": "北波多居宅介護支援事業所【居宅介護支援】唐津市北波多徳須恵1201番地1", "url": "https://www.kaigokensaku.mhlw.go.jp/41/index.php?action_kouhyou_detail_004_kani=true&JigyosyoCd=4170200804-00&ServiceCd=430&Type=search", "url2": "http://kenjukai.main.jp" }, "geometry": { "type": "Point", "coordinates": [ 129.946855911778243, 33.373365776995087 ] } },
{ "type": "Feature", "properties": { "内容": "セントケア唐津【居宅介護支援】佐賀県唐津市神田2029番地2隆成ホーム神田B棟　1F1号室隆成ホームB棟1F1号室", "url": "https://www.kaigokensaku.mhlw.go.jp/41/index.php?action_kouhyou_detail_004_kani=true&JigyosyoCd=4170200945-00&ServiceCd=430&Type=search", "url2": "Karatsu_sc41＠saint-care.com" }, "geometry": { "type": "Point", "coordinates": [ 129.959056117610089, 33.437458820668937 ] } },
{ "type": "Feature", "properties": { "内容": "居宅介護支援事業所スマイルソーシャルワーカーズ【居宅介護支援】町田5丁目6番28号", "url": "https://www.kaigokensaku.mhlw.go.jp/41/index.php?action_kouhyou_detail_004_kani=true&JigyosyoCd=4170201224-00&ServiceCd=430&Type=search", "url2": "www.smile-social-workers.com" }, "geometry": { "type": "Point", "coordinates": [ 129.972923911531097, 33.443526568306602 ] } },
{ "type": "Feature", "properties": { "内容": "宝寿荘居宅介護支援センター【居宅介護支援】佐賀県唐津市呼子町殿ノ浦797番地23", "url": "https://www.kaigokensaku.mhlw.go.jp/41/index.php?action_kouhyou_detail_004_kani=true&JigyosyoCd=4170201406-00&ServiceCd=430&Type=search", "url2": "http://www.ｋ-fukushikai.jp" }, "geometry": { "type": "Point", "coordinates": [ 129.889237200000053, 33.531855 ] } },
{ "type": "Feature", "properties": { "内容": "ケアプランセンター結絆【居宅介護支援】佐賀県唐津市見借3459-13", "url": "https://www.kaigokensaku.mhlw.go.jp/41/index.php?action_kouhyou_detail_004_kani=true&JigyosyoCd=4170201547-00&ServiceCd=430&Type=search", "url2": "https://yuina.co.jp/" }, "geometry": { "type": "Point", "coordinates": [ 129.9432449, 33.4410321 ] } },
{ "type": "Feature", "properties": { "内容": "みんなのお世話ケアマネジメントサービス【居宅介護支援】佐賀県唐津市神田2074番地3", "url": "https://www.kaigokensaku.mhlw.go.jp/41/index.php?action_kouhyou_detail_004_kani=true&JigyosyoCd=4170201570-00&ServiceCd=430&Type=search", "url2": "http://www.osewa.jp/" }, "geometry": { "type": "Point", "coordinates": [ 129.9581818, 33.439078 ] } },
{ "type": "Feature", "properties": { "内容": "居宅介護支援事業所　桃の木【居宅介護支援】佐賀県唐津市新興町48番地レインボービル２階", "url": "https://www.kaigokensaku.mhlw.go.jp/41/index.php?action_kouhyou_detail_004_kani=true&JigyosyoCd=4170201562-00&ServiceCd=430&Type=search", "url2": "https://haruka-himawari.jp/pages/35/" }, "geometry": { "type": "Point", "coordinates": [ 129.965552300000013, 33.445985 ] } },
{ "type": "Feature", "properties": { "内容": "唐津市社会福祉協議会居宅介護支援七山事業所【居宅介護支援】佐賀県唐津市七山仁部９８番地５なないろ", "url": "https://www.kaigokensaku.mhlw.go.jp/41/index.php?action_kouhyou_detail_004_kani=true&JigyosyoCd=4170201612-00&ServiceCd=430&Type=search", "url2": "http://www.karatsu-shakyo.or.jp/" }, "geometry": { "type": "Point", "coordinates": [ 130.1143502, 33.4409381 ] } },
{ "type": "Feature", "properties": { "内容": "浜玉荘居宅介護支援センター【居宅介護支援】唐津市浜玉町東山田２３９９番地", "url": "https://www.kaigokensaku.mhlw.go.jp/41/index.php?action_kouhyou_detail_004_kani=true&JigyosyoCd=4171400049-00&ServiceCd=430&Type=search", "url2": "http://k-fukushikai.jp/h_gaiyou.html" }, "geometry": { "type": "Point", "coordinates": [ 130.045613600000024, 33.4300291 ] } },
{ "type": "Feature", "properties": { "内容": "作礼荘居宅介護支援センター【居宅介護支援】佐賀県唐津市相知町中山3544番地1", "url": "https://www.kaigokensaku.mhlw.go.jp/41/index.php?action_kouhyou_detail_004_kani=true&JigyosyoCd=4171400072-00&ServiceCd=430&Type=search", "url2": "http://www.k-fukushikai.jp/" }, "geometry": { "type": "Point", "coordinates": [ 130.015995100000026, 33.3509978 ] } },
{ "type": "Feature", "properties": { "内容": "社会福祉法人唐津福祉会　潮荘居宅介護支援センター【居宅介護支援】佐賀県唐津市鎮西町打上3075番地1", "url": "https://www.kaigokensaku.mhlw.go.jp/41/index.php?action_kouhyou_detail_004_kani=true&JigyosyoCd=4171400106-00&ServiceCd=430&Type=search", "url2": "ｈｔｔｐ：//www.k-fukushikai.jp/" }, "geometry": { "type": "Point", "coordinates": [ 129.901211200000034, 33.5166544 ] } },
{ "type": "Feature", "properties": { "内容": "岬荘居宅介護支援センター【居宅介護支援】佐賀県唐津市肥前町鶴牧106番地11", "url": "https://www.kaigokensaku.mhlw.go.jp/41/index.php?action_kouhyou_detail_004_kani=true&JigyosyoCd=4171400171-00&ServiceCd=430&Type=search", "url2": "www.k-fukushikai.jp/" }, "geometry": { "type": "Point", "coordinates": [ 129.835607399999958, 33.4485187 ] } },
{ "type": "Feature", "properties": { "内容": "居宅介護支援支援センター仁瑚会【居宅介護支援】佐賀県唐津市大名小路5番3号", "url": "https://www.kaigokensaku.mhlw.go.jp/41/index.php?action_kouhyou_detail_004_kani=true&JigyosyoCd=4110212489-00&ServiceCd=430&Type=search", "url2": "http://nagomisakai.or.jp" }, "geometry": { "type": "Point", "coordinates": [ 129.972276100000045, 33.4499008 ] } },
{ "type": "Feature", "properties": { "内容": "医療生協介護相談所からつ【居宅介護支援】佐賀県唐津市山本1398-1", "url": "https://www.kaigokensaku.mhlw.go.jp/41/index.php?action_kouhyou_detail_004_kani=true&JigyosyoCd=4170200432-00&ServiceCd=430&Type=search", "url2": "https://www.saga-iryou-s.or.jp" }, "geometry": { "type": "Point", "coordinates": [ 129.976629928836019, 33.396897550435426 ] } },
{ "type": "Feature", "properties": { "内容": "居宅介護支援事業所　一九【居宅介護支援】佐賀県唐津市町田3丁目7番23号", "url": "https://www.kaigokensaku.mhlw.go.jp/41/index.php?action_kouhyou_detail_004_kani=true&JigyosyoCd=4170201489-00&ServiceCd=430&Type=search", "url2": null }, "geometry": { "type": "Point", "coordinates": [ 129.969922639709409, 33.443322753171159 ] } },
{ "type": "Feature", "properties": { "内容": "指定居宅介護支援事業所　はるの木唐津館【居宅介護支援】佐賀県唐津市神田字内田２９２０番地", "url": "https://www.kaigokensaku.mhlw.go.jp/41/index.php?action_kouhyou_detail_004_kani=true&JigyosyoCd=4170201505-00&ServiceCd=430&Type=search", "url2": null }, "geometry": { "type": "Point", "coordinates": [ 129.952734599999985, 33.4453105 ] } },
{ "type": "Feature", "properties": { "内容": "ケアプランセンターとくりん鳥栖【居宅介護支援】佐賀県鳥栖市弥生が丘六丁目８２番地", "url": "https://www.kaigokensaku.mhlw.go.jp/41/index.php?action_kouhyou_detail_004_kani=true&JigyosyoCd=4170301206-00&ServiceCd=430&Type=search", "url2": "http://tsutsumiclinic.net/" }, "geometry": { "type": "Point", "coordinates": [ 130.517613899999986, 33.4016045 ] } },
{ "type": "Feature", "properties": { "内容": "プロジェクトエースきらめき【居宅介護支援】鳥栖市弥生が丘7丁目14番地", "url": "https://www.kaigokensaku.mhlw.go.jp/41/index.php?action_kouhyou_detail_004_kani=true&JigyosyoCd=4170300836-00&ServiceCd=430&Type=search", "url2": "http://kirameki-tosu.wix.com/hpsite" }, "geometry": { "type": "Point", "coordinates": [ 130.514242200000012, 33.4077603 ] } },
{ "type": "Feature", "properties": { "内容": "今村病院居宅介護支援事業所【居宅介護支援】佐賀県鳥栖市轟木町1523-6今村病院", "url": "https://www.kaigokensaku.mhlw.go.jp/41/index.php?action_kouhyou_detail_004_kani=true&JigyosyoCd=4110311331-00&ServiceCd=430&Type=search", "url2": "http://www.kyotaku@josuikai.or.jp" }, "geometry": { "type": "Point", "coordinates": [ 130.505198807131933, 33.367660810293451 ] } },
{ "type": "Feature", "properties": { "内容": "まごころ医療館　ケアプランサービス【居宅介護支援】佐賀県鳥栖市蔵上2-221　ドリーム蔵上102", "url": "https://www.kaigokensaku.mhlw.go.jp/41/index.php?action_kouhyou_detail_004_kani=true&JigyosyoCd=4110312131-00&ServiceCd=430&Type=search", "url2": "http://www.magokoroiryoukan.com" }, "geometry": { "type": "Point", "coordinates": [ 130.494353, 33.3747935 ] } },
{ "type": "Feature", "properties": { "内容": "ふれあいケアマネージメントサービス【居宅介護支援】鳥栖市東町1丁目1058", "url": "https://www.kaigokensaku.mhlw.go.jp/41/index.php?action_kouhyou_detail_004_kani=true&JigyosyoCd=4160390011-00&ServiceCd=430&Type=search", "url2": "http://www.saitou-naika.com" }, "geometry": { "type": "Point", "coordinates": [ 130.516489070500143, 33.371334841161115 ] } },
{ "type": "Feature", "properties": { "内容": "鳥栖市中央在宅介護支援センター【居宅介護支援】鳥栖市村田町1250-1", "url": "https://www.kaigokensaku.mhlw.go.jp/41/index.php?action_kouhyou_detail_004_kani=true&JigyosyoCd=4170300026-00&ServiceCd=430&Type=search", "url2": "http://www.magokoro.or.jp" }, "geometry": { "type": "Point", "coordinates": [ 130.478393864592078, 33.365108338150904 ] } },
{ "type": "Feature", "properties": { "内容": "ひまわりの園　居宅介護支援事業所【居宅介護支援】佐賀県鳥栖市田代本町924-1", "url": "https://www.kaigokensaku.mhlw.go.jp/41/index.php?action_kouhyou_detail_004_kani=true&JigyosyoCd=4170300042-00&ServiceCd=430&Type=search", "url2": "http://www.kensyoukai.or.jp" }, "geometry": { "type": "Point", "coordinates": [ 130.518192799999952, 33.3944258 ] } },
{ "type": "Feature", "properties": { "内容": "ニチイケアセンター鳥栖【居宅介護支援】佐賀県鳥栖市大正町703-1", "url": "https://www.kaigokensaku.mhlw.go.jp/41/index.php?action_kouhyou_detail_004_kani=true&JigyosyoCd=4170300307-00&ServiceCd=430&Type=search", "url2": "http://www.nichiigakkan.co.jp" }, "geometry": { "type": "Point", "coordinates": [ 130.515841099999989, 33.3755135 ] } },
{ "type": "Feature", "properties": { "内容": "ケアプランセンター寿楽園【居宅介護支援】佐賀県鳥栖市弥生が丘2丁目146番地1", "url": "https://www.kaigokensaku.mhlw.go.jp/41/index.php?action_kouhyou_detail_004_kani=true&JigyosyoCd=4170300877-00&ServiceCd=430&Type=search", "url2": "http/www.jurakuen.jp/" }, "geometry": { "type": "Point", "coordinates": [ 130.526377700000012, 33.4020168 ] } },
{ "type": "Feature", "properties": { "内容": "ケアプランセンター　ひだまり【居宅介護支援】佐賀県鳥栖市土井町200番地1", "url": "https://www.kaigokensaku.mhlw.go.jp/41/index.php?action_kouhyou_detail_004_kani=true&JigyosyoCd=4170300893-00&ServiceCd=430&Type=search", "url2": "care-net.biz/41/hidamari358/" }, "geometry": { "type": "Point", "coordinates": [ 130.50977720000003, 33.3800268 ] } },
{ "type": "Feature", "properties": { "内容": "ケアプランサービスうえるかむ【居宅介護支援】佐賀県鳥栖市本鳥栖町1823番地東峰マンションⅢ205", "url": "https://www.kaigokensaku.mhlw.go.jp/41/index.php?action_kouhyou_detail_004_kani=true&JigyosyoCd=4170301057-00&ServiceCd=430&Type=search", "url2": null }, "geometry": { "type": "Point", "coordinates": [ 130.52261, 33.375570500000016 ] } },
{ "type": "Feature", "properties": { "内容": "ケアプランサービス南風【居宅介護支援】佐賀県鳥栖市田代外町６９９－４", "url": "https://www.kaigokensaku.mhlw.go.jp/41/index.php?action_kouhyou_detail_004_kani=true&JigyosyoCd=4170301099-00&ServiceCd=430&Type=search", "url2": "minamikaze-g.jp" }, "geometry": { "type": "Point", "coordinates": [ 130.515743199999946, 33.387679099999986 ] } },
{ "type": "Feature", "properties": { "内容": "ＪＡ福祉ケアプランサービス【居宅介護支援】佐賀県鳥栖市田代昌町24番地", "url": "https://www.kaigokensaku.mhlw.go.jp/41/index.php?action_kouhyou_detail_004_kani=true&JigyosyoCd=4170301115-00&ServiceCd=430&Type=search", "url2": "https://www.ja-ceremonysaga.jp" }, "geometry": { "type": "Point", "coordinates": [ 130.526918073541282, 33.391483808983928 ] } },
{ "type": "Feature", "properties": { "内容": "あいずケアプランセンター鳥栖【居宅介護支援】京町723-7", "url": "https://www.kaigokensaku.mhlw.go.jp/41/index.php?action_kouhyou_detail_004_kani=true&JigyosyoCd=4170301362-00&ServiceCd=430&Type=search", "url2": "https://www.aizu-company.co.jp/" }, "geometry": { "type": "Point", "coordinates": [ 130.518517, 33.373953 ] } },
{ "type": "Feature", "properties": { "内容": "オリーブ・ケアプランサービス【居宅介護支援】江島町3199番地17", "url": "https://www.kaigokensaku.mhlw.go.jp/41/index.php?action_kouhyou_detail_004_kani=true&JigyosyoCd=4170301388-00&ServiceCd=430&Type=search", "url2": "https://www.t-olive-cp.com" }, "geometry": { "type": "Point", "coordinates": [ 130.475473099999988, 33.3394041 ] } },
{ "type": "Feature", "properties": { "内容": "居宅介護支援事業所すこやか【居宅介護支援】佐賀県鳥栖市蔵上町６６３番地１", "url": "https://www.kaigokensaku.mhlw.go.jp/41/index.php?action_kouhyou_detail_004_kani=true&JigyosyoCd=4170300091-00&ServiceCd=430&Type=search", "url2": "https://carehome-sukoyaka.com/" }, "geometry": { "type": "Point", "coordinates": [ 130.497998686183109, 33.375441382786143 ] } },
{ "type": "Feature", "properties": { "内容": "ケアプランセンターお元気リボン【居宅介護支援】佐賀県鳥栖市宿町1387番地1レーベンハイツＦ棟　101号室", "url": "https://www.kaigokensaku.mhlw.go.jp/41/index.php?action_kouhyou_detail_004_kani=true&JigyosyoCd=4170301321-00&ServiceCd=430&Type=search", "url2": "https://www5f.biglobe.ne.jp/~ogenki/" }, "geometry": { "type": "Point", "coordinates": [ 130.50289006441804, 33.379601830795167 ] } },
{ "type": "Feature", "properties": { "内容": "けあぷらんさーびすらいふ【居宅介護支援】佐賀県多久市多久町589-1", "url": "https://www.kaigokensaku.mhlw.go.jp/41/index.php?action_kouhyou_detail_004_kani=true&JigyosyoCd=4170400164-00&ServiceCd=430&Type=search", "url2": null }, "geometry": { "type": "Point", "coordinates": [ 130.100671731946562, 33.266312565007894 ] } },
{ "type": "Feature", "properties": { "内容": "天寿荘居宅介護支援サービス【居宅介護支援】佐賀県多久市北多久町大字小侍１３２番地６", "url": "https://www.kaigokensaku.mhlw.go.jp/41/index.php?action_kouhyou_detail_004_kani=true&JigyosyoCd=4170400016-00&ServiceCd=430&Type=search", "url2": "http://www.tenjyukai.com" }, "geometry": { "type": "Point", "coordinates": [ 130.111271100000067, 33.2976814 ] } },
{ "type": "Feature", "properties": { "内容": "ホーム西渓ケアマネジメントサービス【居宅介護支援】佐賀県多久市多久町２０８２番地１", "url": "https://www.kaigokensaku.mhlw.go.jp/41/index.php?action_kouhyou_detail_004_kani=true&JigyosyoCd=4170400123-00&ServiceCd=430&Type=search", "url2": "http://nposangamhomeseikei.hp.peraichi.com" }, "geometry": { "type": "Point", "coordinates": [ 130.085986304893481, 33.25776011218322 ] } },
{ "type": "Feature", "properties": { "内容": "多久市社会福祉協議会【居宅介護支援】佐賀県多久市北多久町大字小侍45-31", "url": "https://www.kaigokensaku.mhlw.go.jp/41/index.php?action_kouhyou_detail_004_kani=true&JigyosyoCd=4170400024-00&ServiceCd=430&Type=search", "url2": "http://care-net.biz/41/takushishakyo/" }, "geometry": { "type": "Point", "coordinates": [ 130.1100801, 33.2865907 ] } },
{ "type": "Feature", "properties": { "内容": "けいこう園居宅介護支援事業所【居宅介護支援】佐賀県多久市東多久町大字別府５２２２番地２", "url": "https://www.kaigokensaku.mhlw.go.jp/41/index.php?action_kouhyou_detail_004_kani=true&JigyosyoCd=4170400263-00&ServiceCd=430&Type=search", "url2": "http://www.kiyonet.org/main/" }, "geometry": { "type": "Point", "coordinates": [ 130.141688499999987, 33.2848101 ] } },
{ "type": "Feature", "properties": { "内容": "剛友会　居宅介護支援サービス【居宅介護支援】佐賀県多久市北多久町大字多久原2414-70", "url": "https://www.kaigokensaku.mhlw.go.jp/41/index.php?action_kouhyou_detail_004_kani=true&JigyosyoCd=4110410620-00&ServiceCd=430&Type=search", "url2": "morokuma-kyotaku@hop.ocn.ne.jp" }, "geometry": { "type": "Point", "coordinates": [ 130.1142241, 33.2863018 ] } },
{ "type": "Feature", "properties": { "内容": "居宅介護支援センター　多久いこいの里【居宅介護支援】佐賀県多久市北多久町多久原2512-24", "url": "https://www.kaigokensaku.mhlw.go.jp/41/index.php?action_kouhyou_detail_004_kani=true&JigyosyoCd=4150480020-00&ServiceCd=430&Type=search", "url2": "http://www.koujinkai.net/" }, "geometry": { "type": "Point", "coordinates": [ 130.1130743, 33.2848158 ] } },
{ "type": "Feature", "properties": { "内容": "居宅介護支援事業所ヒュープラン【居宅介護支援】立花町2974-5", "url": "https://www.kaigokensaku.mhlw.go.jp/41/index.php?action_kouhyou_detail_004_kani=true&JigyosyoCd=4170500997-00&ServiceCd=430&Type=search", "url2": null }, "geometry": { "type": "Point", "coordinates": [ 129.886557, 33.2693189 ] } },
{ "type": "Feature", "properties": { "内容": "医療法人　二期会　小島病院　居宅介護支援事業所【居宅介護支援】佐賀県伊万里市黒川町塩屋２０５－１", "url": "https://www.kaigokensaku.mhlw.go.jp/41/index.php?action_kouhyou_detail_004_kani=true&JigyosyoCd=4110511344-00&ServiceCd=430&Type=search", "url2": null }, "geometry": { "type": "Point", "coordinates": [ 129.851129799999967, 33.3312109 ] } },
{ "type": "Feature", "properties": { "内容": "ケアーマネージメントセンター　山口病院【居宅介護支援】佐賀県伊万里市新天町３０５番地", "url": "https://www.kaigokensaku.mhlw.go.jp/41/index.php?action_kouhyou_detail_004_kani=true&JigyosyoCd=4110511369-00&ServiceCd=430&Type=search", "url2": "https://www.yamaguchi-hp-imari.jp" }, "geometry": { "type": "Point", "coordinates": [ 129.874819500000058, 33.2686405 ] } },
{ "type": "Feature", "properties": { "内容": "西光苑居宅介護支援事業所【居宅介護支援】佐賀県伊万里市山代町峰6522番地4", "url": "https://www.kaigokensaku.mhlw.go.jp/41/index.php?action_kouhyou_detail_004_kani=true&JigyosyoCd=4150580019-00&ServiceCd=430&Type=search", "url2": "http://www.saganet.ne.jp/kojinkai/" }, "geometry": { "type": "Point", "coordinates": [ 129.816393400000038, 33.2988444 ] } },
{ "type": "Feature", "properties": { "内容": "ユートピア居宅介護支援事業所【居宅介護支援】佐賀県伊万里市大川町大川野字赤坂1647", "url": "https://www.kaigokensaku.mhlw.go.jp/41/index.php?action_kouhyou_detail_004_kani=true&JigyosyoCd=4170500021-00&ServiceCd=430&Type=search", "url2": "http://www.kenjin-kai.com/utopia/" }, "geometry": { "type": "Point", "coordinates": [ 129.9734439, 33.3052729 ] } },
{ "type": "Feature", "properties": { "内容": "居宅介護支援事業所　敬愛園【居宅介護支援】佐賀県伊万里市黒川町大黒川2201番地", "url": "https://www.kaigokensaku.mhlw.go.jp/41/index.php?action_kouhyou_detail_004_kani=true&JigyosyoCd=4170500039-00&ServiceCd=430&Type=search", "url2": "http://imari-keiaikai.com" }, "geometry": { "type": "Point", "coordinates": [ 129.865575900000067, 33.335224900000014 ] } },
{ "type": "Feature", "properties": { "内容": "瑠璃光苑【居宅介護支援】佐賀県伊万里市二里町大里乙3602番地1", "url": "https://www.kaigokensaku.mhlw.go.jp/41/index.php?action_kouhyou_detail_004_kani=true&JigyosyoCd=4170500245-00&ServiceCd=430&Type=search", "url2": "http://www.rurikouen.jp/" }, "geometry": { "type": "Point", "coordinates": [ 129.852081415471019, 33.254359302130254 ] } },
{ "type": "Feature", "properties": { "内容": "ケアプランセンター　グランパランいまり【居宅介護支援】佐賀県伊万里市大坪町乙1579番地2", "url": "https://www.kaigokensaku.mhlw.go.jp/41/index.php?action_kouhyou_detail_004_kani=true&JigyosyoCd=4170500286-00&ServiceCd=430&Type=search", "url2": "http://kashinkai.or.jp/index.html" }, "geometry": { "type": "Point", "coordinates": [ 129.896309200000019, 33.2745712 ] } },
{ "type": "Feature", "properties": { "内容": "ケアマネージメントわきた【居宅介護支援】佐賀県伊万里市脇田町三反間１３２７番地１", "url": "https://www.kaigokensaku.mhlw.go.jp/41/index.php?action_kouhyou_detail_004_kani=true&JigyosyoCd=4170500385-00&ServiceCd=430&Type=search", "url2": "http://www." }, "geometry": { "type": "Point", "coordinates": [ 129.883584210342377, 33.28339102329371 ] } },
{ "type": "Feature", "properties": { "内容": "居宅介護支援事業所　ウェルネス伊万里【居宅介護支援】佐賀県伊万里市二里町大里甲1704-1", "url": "https://www.kaigokensaku.mhlw.go.jp/41/index.php?action_kouhyou_detail_004_kani=true&JigyosyoCd=4170500484-00&ServiceCd=430&Type=search", "url2": "http://www.shofu-kai.jp/wellness/policy.html" }, "geometry": { "type": "Point", "coordinates": [ 129.8688062, 33.2639742 ] } },
{ "type": "Feature", "properties": { "内容": "ケアサポートこころ【居宅介護支援】佐賀県伊万里市二里町８０番地", "url": "https://www.kaigokensaku.mhlw.go.jp/41/index.php?action_kouhyou_detail_004_kani=true&JigyosyoCd=4170500591-00&ServiceCd=430&Type=search", "url2": "https://sites.google.com/view/carekokoro/%E3%83%9B%E3%83%BC%E3%83%A0" }, "geometry": { "type": "Point", "coordinates": [ 129.84964679999996, 33.2512669 ] } },
{ "type": "Feature", "properties": { "内容": "向陽【居宅介護支援】伊万里市立花町2404－24", "url": "https://www.kaigokensaku.mhlw.go.jp/41/index.php?action_kouhyou_detail_004_kani=true&JigyosyoCd=4170500724-00&ServiceCd=430&Type=search", "url2": "http://www.tachibana-kai.or.jp/" }, "geometry": { "type": "Point", "coordinates": [ 129.889520856722243, 33.261432507021567 ] } },
{ "type": "Feature", "properties": { "内容": "謙仁会居宅介護支援事業所【居宅介護支援】伊万里市二里町八谷搦13番地5", "url": "https://www.kaigokensaku.mhlw.go.jp/41/index.php?action_kouhyou_detail_004_kani=true&JigyosyoCd=4170500930-00&ServiceCd=430&Type=search", "url2": "http://www.kenjin-kai.com/care-support" }, "geometry": { "type": "Point", "coordinates": [ 129.871572600000036, 33.2732732 ] } },
{ "type": "Feature", "properties": { "内容": "ケアプランセンター　ゆうゆう【居宅介護支援】佐賀県伊万里市松島町265番地7", "url": "https://www.kaigokensaku.mhlw.go.jp/41/index.php?action_kouhyou_detail_004_kani=true&JigyosyoCd=4170500948-00&ServiceCd=430&Type=search", "url2": null }, "geometry": { "type": "Point", "coordinates": [ 129.8763027, 33.2767229 ] } },
{ "type": "Feature", "properties": { "内容": "長生園ケアマネージメントサービス【居宅介護支援】佐賀県伊万里市立花町２７０３番地２", "url": "https://www.kaigokensaku.mhlw.go.jp/41/index.php?action_kouhyou_detail_004_kani=true&JigyosyoCd=4170500013-00&ServiceCd=430&Type=search", "url2": "http://chousei-imari.jp" }, "geometry": { "type": "Point", "coordinates": [ 129.880269, 33.2645856 ] } },
{ "type": "Feature", "properties": { "内容": "介護相談支援センターよつ葉【居宅介護支援】佐賀県伊万里市東山代町長浜1814番地99", "url": "https://www.kaigokensaku.mhlw.go.jp/41/index.php?action_kouhyou_detail_004_kani=true&JigyosyoCd=4170500922-00&ServiceCd=430&Type=search", "url2": null }, "geometry": { "type": "Point", "coordinates": [ 129.847835799999984, 33.2673651 ] } },
{ "type": "Feature", "properties": { "内容": "武雄杵島地区医師会指定居宅介護支援事業所【居宅介護支援】武雄市武雄町大字昭和300番地", "url": "https://www.kaigokensaku.mhlw.go.jp/41/index.php?action_kouhyou_detail_004_kani=true&JigyosyoCd=4160690014-00&ServiceCd=430&Type=search", "url2": "hyyp://www.sagadensan.net/takeokishimaishikai/" }, "geometry": { "type": "Point", "coordinates": [ 130.029357900000036, 33.1944544 ] } },
{ "type": "Feature", "properties": { "内容": "持田病院ひまわり【居宅介護支援】佐賀県武雄市武雄町大字武雄５８５８番地１", "url": "https://www.kaigokensaku.mhlw.go.jp/41/index.php?action_kouhyou_detail_004_kani=true&JigyosyoCd=4110610633-00&ServiceCd=430&Type=search", "url2": "https://www.mochida-saga.jp/" }, "geometry": { "type": "Point", "coordinates": [ 130.009276299999982, 33.189465500000011 ] } },
{ "type": "Feature", "properties": { "内容": "医療法人　清哲会　指定居宅介護支援事業所【居宅介護支援】佐賀県武雄市山内町大字鳥海９７８４番地", "url": "https://www.kaigokensaku.mhlw.go.jp/41/index.php?action_kouhyou_detail_004_kani=true&JigyosyoCd=4111611408-00&ServiceCd=430&Type=search", "url2": null }, "geometry": { "type": "Point", "coordinates": [ 129.962583099999961, 33.1955274 ] } },
{ "type": "Feature", "properties": { "内容": "居宅介護支援事業所　コスモス【居宅介護支援】佐賀県武雄市武雄町大字永島13821番地", "url": "https://www.kaigokensaku.mhlw.go.jp/41/index.php?action_kouhyou_detail_004_kani=true&JigyosyoCd=4150680017-00&ServiceCd=430&Type=search", "url2": "http://shinoda-seikei.com/" }, "geometry": { "type": "Point", "coordinates": [ 130.034638, 33.1928046 ] } },
{ "type": "Feature", "properties": { "内容": "居宅介護支援事業所　たんぽぽ【居宅介護支援】佐賀県武雄市朝日町大字中野１１２９６番地1", "url": "https://www.kaigokensaku.mhlw.go.jp/41/index.php?action_kouhyou_detail_004_kani=true&JigyosyoCd=4150680025-00&ServiceCd=430&Type=search", "url2": "http://www.ufokai.com/" }, "geometry": { "type": "Point", "coordinates": [ 130.030376400000023, 33.2272036 ] } },
{ "type": "Feature", "properties": { "内容": "御船荘ケアマネジメントサービス【居宅介護支援】佐賀県武雄市東川登町大字永野3494番地1", "url": "https://www.kaigokensaku.mhlw.go.jp/41/index.php?action_kouhyou_detail_004_kani=true&JigyosyoCd=4170600029-00&ServiceCd=430&Type=search", "url2": "https://takeo-seiwafukushikai.jp/" }, "geometry": { "type": "Point", "coordinates": [ 130.017471336621469, 33.164904850065554 ] } },
{ "type": "Feature", "properties": { "内容": "居宅介護支援センターシニアケアたけお【居宅介護支援】佐賀県武雄市朝日町大字甘久4269番地28", "url": "https://www.kaigokensaku.mhlw.go.jp/41/index.php?action_kouhyou_detail_004_kani=true&JigyosyoCd=4170600284-00&ServiceCd=430&Type=search", "url2": "keiaikai.takeo.senior@ae.auone-net.jp" }, "geometry": { "type": "Point", "coordinates": [ 130.0404231, 33.2187353 ] } },
{ "type": "Feature", "properties": { "内容": "ケアプランセンター　ディーフェスタ武雄【居宅介護支援】佐賀県武雄市武雄町富岡10046-1", "url": "https://www.kaigokensaku.mhlw.go.jp/41/index.php?action_kouhyou_detail_004_kani=true&JigyosyoCd=4170600748-00&ServiceCd=430&Type=search", "url2": "https://www.daiwaliving-care.co.jp/" }, "geometry": { "type": "Point", "coordinates": [ 130.0200777, 33.2034516 ] } },
{ "type": "Feature", "properties": { "内容": "居宅介護支援事業所　おおきなかぶ【居宅介護支援】武雄市武雄町大字武雄5525-1", "url": "https://www.kaigokensaku.mhlw.go.jp/41/index.php?action_kouhyou_detail_004_kani=true&JigyosyoCd=4170600789-00&ServiceCd=430&Type=search", "url2": null }, "geometry": { "type": "Point", "coordinates": [ 130.022957600000012, 33.1905013 ] } },
{ "type": "Feature", "properties": { "内容": "ケアマネジメントサービス　そよかぜの杜【居宅介護支援】佐賀県武雄市山内町大字大野7045番地", "url": "https://www.kaigokensaku.mhlw.go.jp/41/index.php?action_kouhyou_detail_004_kani=true&JigyosyoCd=4171600069-00&ServiceCd=430&Type=search", "url2": "https://www.seiwafukushikai.net" }, "geometry": { "type": "Point", "coordinates": [ 129.935294349737518, 33.206008153469355 ] } },
{ "type": "Feature", "properties": { "内容": "ケアマネジメントサービス杏花苑【居宅介護支援】佐賀県武雄市北方町大字志久4641-26", "url": "https://www.kaigokensaku.mhlw.go.jp/41/index.php?action_kouhyou_detail_004_kani=true&JigyosyoCd=4171600085-00&ServiceCd=430&Type=search", "url2": "https://kyokaen.wixsite.com/nicelandkitagata" }, "geometry": { "type": "Point", "coordinates": [ 130.084950626017218, 33.221483466950119 ] } },
{ "type": "Feature", "properties": { "内容": "竜門堂居宅介護支援事業所【居宅介護支援】佐賀県武雄市山内町大字大野６６０４番地１", "url": "https://www.kaigokensaku.mhlw.go.jp/41/index.php?action_kouhyou_detail_004_kani=true&JigyosyoCd=4171600192-00&ServiceCd=430&Type=search", "url2": "http://www.ryumondo.or.jp/" }, "geometry": { "type": "Point", "coordinates": [ 129.937770600000022, 33.2109786 ] } },
{ "type": "Feature", "properties": { "内容": "居宅介護支援事業　お家へかえろう【居宅介護支援】武雄町大字富岡12624番地4スポリハビル2階", "url": "https://www.kaigokensaku.mhlw.go.jp/41/index.php?action_kouhyou_detail_004_kani=true&JigyosyoCd=4110611425-00&ServiceCd=430&Type=search", "url2": null }, "geometry": { "type": "Point", "coordinates": [ 130.0334872, 33.1973823 ] } },
{ "type": "Feature", "properties": { "内容": "居宅介護支援事業所　ひいらぎ【居宅介護支援】佐賀県武雄市武内町大字真手野２６３４６番地", "url": "https://www.kaigokensaku.mhlw.go.jp/41/index.php?action_kouhyou_detail_004_kani=true&JigyosyoCd=4170600128-00&ServiceCd=430&Type=search", "url2": "http://www.tokurou.com" }, "geometry": { "type": "Point", "coordinates": [ 129.970431800000028, 33.2454259 ] } },
{ "type": "Feature", "properties": { "内容": "医療法人社団　別府整形外科　居宅介護支援事業所【居宅介護支援】佐賀県鹿島市大字高津原3525-9", "url": "https://www.kaigokensaku.mhlw.go.jp/41/index.php?action_kouhyou_detail_004_kani=true&JigyosyoCd=4110710631-00&ServiceCd=430&Type=search", "url2": "http:/www.beppu-seikei.jp/" }, "geometry": { "type": "Point", "coordinates": [ 130.089083800000026, 33.1108813 ] } },
{ "type": "Feature", "properties": { "内容": "犬塚病院居宅介護支援事業所【居宅介護支援】佐賀県鹿島市大字高津原602番地3", "url": "https://www.kaigokensaku.mhlw.go.jp/41/index.php?action_kouhyou_detail_004_kani=true&JigyosyoCd=4110710698-00&ServiceCd=430&Type=search", "url2": "http://inuzuka-hp.or.jp/" }, "geometry": { "type": "Point", "coordinates": [ 130.096501100000012, 33.1074194 ] } },
{ "type": "Feature", "properties": { "内容": "ゆうあい介護保険サービス【居宅介護支援】佐賀県鹿島市大字高津原4306番地", "url": "https://www.kaigokensaku.mhlw.go.jp/41/index.php?action_kouhyou_detail_004_kani=true&JigyosyoCd=4150780015-00&ServiceCd=430&Type=search", "url2": "http://www.yuaivillage.com" }, "geometry": { "type": "Point", "coordinates": [ 130.095860879715019, 33.11136652995166 ] } },
{ "type": "Feature", "properties": { "内容": "好日の園居宅介護支援サービスセンター【居宅介護支援】佐賀県鹿島市大字高津原667番地1", "url": "https://www.kaigokensaku.mhlw.go.jp/41/index.php?action_kouhyou_detail_004_kani=true&JigyosyoCd=4170700027-00&ServiceCd=430&Type=search", "url2": "https://www.koujitu.or.jp/" }, "geometry": { "type": "Point", "coordinates": [ 130.095305890555437, 33.108848426746171 ] } },
{ "type": "Feature", "properties": { "内容": "ケアプランひかり【居宅介護支援】鹿島市大字納富分1079番地1", "url": "https://www.kaigokensaku.mhlw.go.jp/41/index.php?action_kouhyou_detail_004_kani=true&JigyosyoCd=4170700142-00&ServiceCd=430&Type=search", "url2": "http://hikari1079-1.com" }, "geometry": { "type": "Point", "coordinates": [ 130.093529412828047, 33.093472209174031 ] } },
{ "type": "Feature", "properties": { "内容": "志田病院居宅介護支援事業所　とまり木【居宅介護支援】鹿島市大字中村２１１１番地１", "url": "https://www.kaigokensaku.mhlw.go.jp/41/index.php?action_kouhyou_detail_004_kani=true&JigyosyoCd=4170700365-00&ServiceCd=430&Type=search", "url2": "https://shidahp.com" }, "geometry": { "type": "Point", "coordinates": [ 130.098003009262129, 33.118974915554915 ] } },
{ "type": "Feature", "properties": { "内容": "ケアプランゆう【居宅介護支援】佐賀県鹿島市浜町624番地26", "url": "https://www.kaigokensaku.mhlw.go.jp/41/index.php?action_kouhyou_detail_004_kani=true&JigyosyoCd=4170700456-00&ServiceCd=430&Type=search", "url2": "https://www.careplanyou.com" }, "geometry": { "type": "Point", "coordinates": [ 130.121599725371141, 33.093317269191502 ] } },
{ "type": "Feature", "properties": { "内容": "SpecSupport【居宅介護支援】三日月町樋口1030番地8", "url": "https://www.kaigokensaku.mhlw.go.jp/41/index.php?action_kouhyou_detail_004_kani=true&JigyosyoCd=4171300652-00&ServiceCd=430&Type=search", "url2": null }, "geometry": { "type": "Point", "coordinates": [ 130.2227833, 33.2719813 ] } },
{ "type": "Feature", "properties": { "内容": "医療法人ひらまつ病院　居宅介護支援事業所【居宅介護支援】佐賀県小城市小城町1000-1", "url": "https://www.kaigokensaku.mhlw.go.jp/41/index.php?action_kouhyou_detail_004_kani=true&JigyosyoCd=4111311009-00&ServiceCd=430&Type=search", "url2": "http://www.hiramatsu-hp.or.jp/" }, "geometry": { "type": "Point", "coordinates": [ 130.200822146735788, 33.29806258403827 ] } },
{ "type": "Feature", "properties": { "内容": "蛍水荘居宅介護支援事業所【居宅介護支援】佐賀県小城市小城町８１４－１", "url": "https://www.kaigokensaku.mhlw.go.jp/41/index.php?action_kouhyou_detail_004_kani=true&JigyosyoCd=4151380013-00&ServiceCd=430&Type=search", "url2": "http://www.keisuiso@po.hagakure.ne.jp" }, "geometry": { "type": "Point", "coordinates": [ 130.205204800000047, 33.3013679 ] } },
{ "type": "Feature", "properties": { "内容": "清水園居宅介護支援事業所【居宅介護支援】佐賀県小城市小城町826番地1", "url": "https://www.kaigokensaku.mhlw.go.jp/41/index.php?action_kouhyou_detail_004_kani=true&JigyosyoCd=4171300017-00&ServiceCd=430&Type=search", "url2": "http://www.kiyonet@star.saganet.ne.jp" }, "geometry": { "type": "Point", "coordinates": [ 130.205968699999971, 33.3002513 ] } },
{ "type": "Feature", "properties": { "内容": "居宅介護支援事業所　鳳寿苑【居宅介護支援】佐賀県小城市三日月町甲柳原68-1", "url": "https://www.kaigokensaku.mhlw.go.jp/41/index.php?action_kouhyou_detail_004_kani=true&JigyosyoCd=4171300025-00&ServiceCd=430&Type=search", "url2": "http://care-net.biz/41/houjyuen-hp/company.php" }, "geometry": { "type": "Point", "coordinates": [ 130.209889400000066, 33.2726452 ] } },
{ "type": "Feature", "properties": { "内容": "小城市社会福祉協議会　居宅介護支援事業所【居宅介護支援】小城市芦刈町三王崎１５２２", "url": "https://www.kaigokensaku.mhlw.go.jp/41/index.php?action_kouhyou_detail_004_kani=true&JigyosyoCd=4171300033-00&ServiceCd=430&Type=search", "url2": "http://o-shakyo.or.jp/" }, "geometry": { "type": "Point", "coordinates": [ 130.198827700000038, 33.223934 ] } },
{ "type": "Feature", "properties": { "内容": "村岡内科居宅介護支援サービス【居宅介護支援】佐賀県小城市牛津町牛津６３０－９", "url": "https://www.kaigokensaku.mhlw.go.jp/41/index.php?action_kouhyou_detail_004_kani=true&JigyosyoCd=4171300165-00&ServiceCd=430&Type=search", "url2": null }, "geometry": { "type": "Point", "coordinates": [ 130.203354799999943, 33.2471282 ] } },
{ "type": "Feature", "properties": { "内容": "江口病院介護支援事業部【居宅介護支援】佐賀県小城市三日月町金田1178番地1", "url": "https://www.kaigokensaku.mhlw.go.jp/41/index.php?action_kouhyou_detail_004_kani=true&JigyosyoCd=4171300553-00&ServiceCd=430&Type=search", "url2": "http://www.eguchihospital.e-doctor.info/" }, "geometry": { "type": "Point", "coordinates": [ 130.228508405097841, 33.259784000298644 ] } },
{ "type": "Feature", "properties": { "内容": "居宅介護支援事業所もみじ【居宅介護支援】佐賀県小城市三日月町長神田2171-5", "url": "https://www.kaigokensaku.mhlw.go.jp/41/index.php?action_kouhyou_detail_004_kani=true&JigyosyoCd=4171300561-00&ServiceCd=430&Type=search", "url2": "http://nishikawa-eijun.com/" }, "geometry": { "type": "Point", "coordinates": [ 130.217886, 33.278403 ] } },
{ "type": "Feature", "properties": { "内容": "医療法人孟子会居宅介護支援センター【居宅介護支援】佐賀県小城市三日月町久米１２９５番地２", "url": "https://www.kaigokensaku.mhlw.go.jp/41/index.php?action_kouhyou_detail_004_kani=true&JigyosyoCd=4171300595-00&ServiceCd=430&Type=search", "url2": "http://hirooka-clinic.com/" }, "geometry": { "type": "Point", "coordinates": [ 130.2075428, 33.2870977 ] } },
{ "type": "Feature", "properties": { "内容": "居宅介護支援事業所みちいと【居宅介護支援】佐賀県小城市小城町283-1", "url": "https://www.kaigokensaku.mhlw.go.jp/41/index.php?action_kouhyou_detail_004_kani=true&JigyosyoCd=4171300660-00&ServiceCd=430&Type=search", "url2": null }, "geometry": { "type": "Point", "coordinates": [ 130.2002259, 33.2917726 ] } },
{ "type": "Feature", "properties": { "内容": "居宅介護支援事業所わかば【居宅介護支援】佐賀県小城市芦刈町下古賀545番地1", "url": "https://www.kaigokensaku.mhlw.go.jp/41/index.php?action_kouhyou_detail_004_kani=true&JigyosyoCd=4171300579-00&ServiceCd=430&Type=search", "url2": null }, "geometry": { "type": "Point", "coordinates": [ 130.225764300000037, 33.2214428 ] } },
{ "type": "Feature", "properties": { "内容": "居宅介護支援事業所おたくさ【居宅介護支援】佐賀県嬉野市嬉野町大字下宿甲4714-5デイサービスセンターはつらつ内", "url": "https://www.kaigokensaku.mhlw.go.jp/41/index.php?action_kouhyou_detail_004_kani=true&JigyosyoCd=4170900064-00&ServiceCd=430&Type=search", "url2": null }, "geometry": { "type": "Point", "coordinates": [ 129.996546399999943, 33.1119201 ] } },
{ "type": "Feature", "properties": { "内容": "済昭園指定居宅介護支援事業所【居宅介護支援】佐賀県嬉野市塩田町大字五町田甲３４４３番地", "url": "https://www.kaigokensaku.mhlw.go.jp/41/index.php?action_kouhyou_detail_004_kani=true&JigyosyoCd=4171700018-00&ServiceCd=430&Type=search", "url2": "http://www.saisyouen.jp/" }, "geometry": { "type": "Point", "coordinates": [ 130.062403099999983, 33.1253621 ] } },
{ "type": "Feature", "properties": { "内容": "嬉野市社協ケアマネジメントサービス【居宅介護支援】嬉野市塩田町大字馬場下甲１９６７番地嬉野市塩田老人福祉センター内", "url": "https://www.kaigokensaku.mhlw.go.jp/41/index.php?action_kouhyou_detail_004_kani=true&JigyosyoCd=4171700042-00&ServiceCd=430&Type=search", "url2": "http://ureshino-shakyo.com" }, "geometry": { "type": "Point", "coordinates": [ 130.059725201327552, 33.128480425948304 ] } },
{ "type": "Feature", "properties": { "内容": "居宅介護支援事業所　うれしの【居宅介護支援】佐賀県嬉野市嬉野町大字下宿甲2088番地", "url": "https://www.kaigokensaku.mhlw.go.jp/41/index.php?action_kouhyou_detail_004_kani=true&JigyosyoCd=4171700059-00&ServiceCd=430&Type=search", "url2": "http://tokuyou-ureshino.jp/" }, "geometry": { "type": "Point", "coordinates": [ 129.992402500000026, 33.111745 ] } },
{ "type": "Feature", "properties": { "内容": "居宅介護支援事業所　しんあい【居宅介護支援】佐賀県嬉野市嬉野町大字下宿乙1919番地", "url": "https://www.kaigokensaku.mhlw.go.jp/41/index.php?action_kouhyou_detail_004_kani=true&JigyosyoCd=4171700091-00&ServiceCd=430&Type=search", "url2": "http://www.yuhokai.com" }, "geometry": { "type": "Point", "coordinates": [ 129.9754322, 33.1010402 ] } },
{ "type": "Feature", "properties": { "内容": "生活支援所おさき【居宅介護支援】佐賀県神埼市神埼町おさき　１８２番地１おさきデイサービス", "url": "https://www.kaigokensaku.mhlw.go.jp/41/index.php?action_kouhyou_detail_004_kani=true&JigyosyoCd=4172000046-00&ServiceCd=430&Type=search", "url2": "http://hp.kaipoke.biz/bu0/info.html" }, "geometry": { "type": "Point", "coordinates": [ 130.346108804498499, 33.308048040284454 ] } },
{ "type": "Feature", "properties": { "内容": "神埼病院指定居宅介護支援事業所【居宅介護支援】佐賀県神埼市神埼町鶴3194-3", "url": "https://www.kaigokensaku.mhlw.go.jp/41/index.php?action_kouhyou_detail_004_kani=true&JigyosyoCd=4111110989-00&ServiceCd=430&Type=search", "url2": "http://hosp-kan.webmedipr.jp" }, "geometry": { "type": "Point", "coordinates": [ 130.370933187361771, 33.318044192930763 ] } },
{ "type": "Feature", "properties": { "内容": "うぶすな居宅介護サービス【居宅介護支援】佐賀県神埼市神埼町永歌1021番地", "url": "https://www.kaigokensaku.mhlw.go.jp/41/index.php?action_kouhyou_detail_004_kani=true&JigyosyoCd=4151180017-00&ServiceCd=430&Type=search", "url2": "http://kyuwakai.jp" }, "geometry": { "type": "Point", "coordinates": [ 130.37621050000007, 33.2973223 ] } },
{ "type": "Feature", "properties": { "内容": "居宅介護支援事業所　ありんこ【居宅介護支援】佐賀県神埼市千代田町崎村４１８番地２号メゾンドールD-201", "url": "https://www.kaigokensaku.mhlw.go.jp/41/index.php?action_kouhyou_detail_004_kani=true&JigyosyoCd=4171000195-00&ServiceCd=430&Type=search", "url2": null }, "geometry": { "type": "Point", "coordinates": [ 130.381259571380582, 33.258669346720353 ] } },
{ "type": "Feature", "properties": { "内容": "こすもす苑　ケアマネジメントサービス【居宅介護支援】佐賀県神埼市千代田町用作２０９８番地３", "url": "https://www.kaigokensaku.mhlw.go.jp/41/index.php?action_kouhyou_detail_004_kani=true&JigyosyoCd=4171100011-00&ServiceCd=430&Type=search", "url2": "https://cosmosen.com" }, "geometry": { "type": "Point", "coordinates": [ 130.378979465116458, 33.266730690310446 ] } },
{ "type": "Feature", "properties": { "内容": "居宅介護支援事業所　かんざき清流苑【居宅介護支援】佐賀県神埼市神埼町鶴2927番地2", "url": "https://www.kaigokensaku.mhlw.go.jp/41/index.php?action_kouhyou_detail_004_kani=true&JigyosyoCd=4171100037-00&ServiceCd=430&Type=search", "url2": "http://www.saganet.ne.jp/saseishi/top.html" }, "geometry": { "type": "Point", "coordinates": [ 130.3700351, 33.3221697 ] } },
{ "type": "Feature", "properties": { "内容": "居宅介護支援事業所　翠晃【居宅介護支援】佐賀県神埼市神埼町鶴２９３５番地２", "url": "https://www.kaigokensaku.mhlw.go.jp/41/index.php?action_kouhyou_detail_004_kani=true&JigyosyoCd=4171100110-00&ServiceCd=430&Type=search", "url2": "http://www.shofukai-saga.com" }, "geometry": { "type": "Point", "coordinates": [ 130.3696185, 33.321367 ] } },
{ "type": "Feature", "properties": { "内容": "居宅介護支援事業所なごみ【居宅介護支援】佐賀県神埼市神埼町本告牟田2994番地1", "url": "https://www.kaigokensaku.mhlw.go.jp/41/index.php?action_kouhyou_detail_004_kani=true&JigyosyoCd=4172000251-00&ServiceCd=430&Type=search", "url2": null }, "geometry": { "type": "Point", "coordinates": [ 130.367641300000059, 33.3055465 ] } },
{ "type": "Feature", "properties": { "内容": "支援事業所　れもん【居宅介護支援】佐賀県神埼市千代田町姉８９番地9", "url": "https://www.kaigokensaku.mhlw.go.jp/41/index.php?action_kouhyou_detail_004_kani=true&JigyosyoCd=4172000293-00&ServiceCd=430&Type=search", "url2": null }, "geometry": { "type": "Point", "coordinates": [ 130.3637171, 33.2704738 ] } },
{ "type": "Feature", "properties": { "内容": "社会福祉法人　久栄会　さざんか園　居宅介護支援事業所【居宅介護支援】佐賀県神埼郡吉野ヶ里町大曲3474番地1", "url": "https://www.kaigokensaku.mhlw.go.jp/41/index.php?action_kouhyou_detail_004_kani=true&JigyosyoCd=4171100078-00&ServiceCd=430&Type=search", "url2": "http://kyueikai.com/" }, "geometry": { "type": "Point", "coordinates": [ 130.396674299999972, 33.3429849 ] } },
{ "type": "Feature", "properties": { "内容": "ひらまつふれあいクリニック　　居宅介護支援事業所【居宅介護支援】佐賀県神埼郡吉野ヶ里町吉田2925－1", "url": "https://www.kaigokensaku.mhlw.go.jp/41/index.php?action_kouhyou_detail_004_kani=true&JigyosyoCd=4111111144-00&ServiceCd=430&Type=search", "url2": "www.hiramatsu-hp.or.jp/fureai_web/" }, "geometry": { "type": "Point", "coordinates": [ 130.410748499999954, 33.3314609 ] } },
{ "type": "Feature", "properties": { "内容": "居宅介護支援事業所めたばる【居宅介護支援】佐賀県神埼郡吉野ヶ里町吉田2900", "url": "https://www.kaigokensaku.mhlw.go.jp/41/index.php?action_kouhyou_detail_004_kani=true&JigyosyoCd=4171100326-00&ServiceCd=430&Type=search", "url2": "https://metabaru-seikei.com" }, "geometry": { "type": "Point", "coordinates": [ 130.412551200000053, 33.331272 ] } },
{ "type": "Feature", "properties": { "内容": "居宅介護支援事業所　シルバーケア吉野ヶ里【居宅介護支援】佐賀県神埼郡吉野ヶ里町大字吉田1493番地１", "url": "https://www.kaigokensaku.mhlw.go.jp/41/index.php?action_kouhyou_detail_004_kani=true&JigyosyoCd=4171100201-00&ServiceCd=430&Type=search", "url2": "http://www1.bbiq.jp/keiai-yoshi/index.htm" }, "geometry": { "type": "Point", "coordinates": [ 130.396216399999958, 33.3317081 ] } },
{ "type": "Feature", "properties": { "内容": "居宅介護支援事業所寿楽園【居宅介護支援】佐賀県三養基郡基山町大字園部2307番地", "url": "https://www.kaigokensaku.mhlw.go.jp/41/index.php?action_kouhyou_detail_004_kani=true&JigyosyoCd=4171200043-00&ServiceCd=430&Type=search", "url2": "http://www.jurakuen.jp/" }, "geometry": { "type": "Point", "coordinates": [ 130.501295199999959, 33.4181642 ] } },
{ "type": "Feature", "properties": { "内容": "ケアプランサービス　プルメリア【居宅介護支援】佐賀県三養基郡上峰町大字前牟田1949番地", "url": "https://www.kaigokensaku.mhlw.go.jp/41/index.php?action_kouhyou_detail_004_kani=true&JigyosyoCd=4171200019-00&ServiceCd=430&Type=search", "url2": "http://www.esaga.jp/^nogiku" }, "geometry": { "type": "Point", "coordinates": [ 130.416751699999963, 33.3155901 ] } },
{ "type": "Feature", "properties": { "内容": "有限会社　ＣＨＡＮＣＥ　三樹病院居宅介護支援事業所【居宅介護支援】佐賀県三養基郡上峰町大字坊所２７９番地１", "url": "https://www.kaigokensaku.mhlw.go.jp/41/index.php?action_kouhyou_detail_004_kani=true&JigyosyoCd=4171200282-00&ServiceCd=430&Type=search", "url2": null }, "geometry": { "type": "Point", "coordinates": [ 130.425223810450689, 33.319862298097824 ] } },
{ "type": "Feature", "properties": { "内容": "居宅介護支援センター　おおしま【居宅介護支援】佐賀県三養基郡みやき町大字白壁４３０５－３６", "url": "https://www.kaigokensaku.mhlw.go.jp/41/index.php?action_kouhyou_detail_004_kani=true&JigyosyoCd=4111210441-00&ServiceCd=430&Type=search", "url2": null }, "geometry": { "type": "Point", "coordinates": [ 130.460903, 33.3450722 ] } },
{ "type": "Feature", "properties": { "内容": "花のみね弐番館　ケアプランサービス【居宅介護支援】佐賀県三養基郡みやき町大字西島2730番地1特別養護老人ホーム　花のみね", "url": "https://www.kaigokensaku.mhlw.go.jp/41/index.php?action_kouhyou_detail_004_kani=true&JigyosyoCd=4171200365-00&ServiceCd=430&Type=search", "url2": null }, "geometry": { "type": "Point", "coordinates": [ 130.449127199999964, 33.3041189 ] } },
{ "type": "Feature", "properties": { "内容": "ゆうゆう居宅介護支援事業所【居宅介護支援】佐賀県三養基郡みやき町大字天建寺１４９２番地１", "url": "https://www.kaigokensaku.mhlw.go.jp/41/index.php?action_kouhyou_detail_004_kani=true&JigyosyoCd=4171200597-00&ServiceCd=430&Type=search", "url2": null }, "geometry": { "type": "Point", "coordinates": [ 130.446846078295948, 33.289989078035489 ] } },
{ "type": "Feature", "properties": { "内容": "居宅介護支援事業所なかばる紀水苑【居宅介護支援】佐賀県三養基郡みやき町簑原4260番地", "url": "https://www.kaigokensaku.mhlw.go.jp/41/index.php?action_kouhyou_detail_004_kani=true&JigyosyoCd=4171200787-00&ServiceCd=430&Type=search", "url2": "http://kisuikai.net/" }, "geometry": { "type": "Point", "coordinates": [ 130.450474527768591, 33.363868843169818 ] } },
{ "type": "Feature", "properties": { "内容": "ケアプランサービス葉月【居宅介護支援】佐賀県三養基郡みやき町大字白壁647-16カシータMIYAKI　B棟", "url": "https://www.kaigokensaku.mhlw.go.jp/41/index.php?action_kouhyou_detail_004_kani=true&JigyosyoCd=4171200852-00&ServiceCd=430&Type=search", "url2": "http://www.yotsubakai.net" }, "geometry": { "type": "Point", "coordinates": [ 130.46874702940255, 33.329234644419856 ] } },
{ "type": "Feature", "properties": { "内容": "玄海町社協指定居宅介護支援事業所【居宅介護支援】佐賀県東松浦郡玄海町大字平尾380番地1玄海町福祉施設内　1階", "url": "https://www.kaigokensaku.mhlw.go.jp/41/index.php?action_kouhyou_detail_004_kani=true&JigyosyoCd=4171400023-00&ServiceCd=430&Type=search", "url2": "http://genkai-shakyo.com/" }, "geometry": { "type": "Point", "coordinates": [ 129.85083036565419, 33.493857408835325 ] } },
{ "type": "Feature", "properties": { "内容": "指定玄海園居宅介護支援サービス【居宅介護支援】佐賀県東松浦郡玄海町大字平尾380-1宅幼老所玄海園内", "url": "https://www.kaigokensaku.mhlw.go.jp/41/index.php?action_kouhyou_detail_004_kani=true&JigyosyoCd=4171400239-00&ServiceCd=430&Type=search", "url2": "http://www.tenjyukai.com" }, "geometry": { "type": "Point", "coordinates": [ 129.8510348, 33.493755200000017 ] } },
{ "type": "Feature", "properties": { "内容": "ケアプランサービス伊有【居宅介護支援】西松浦郡有田町応法丙3902", "url": "https://www.kaigokensaku.mhlw.go.jp/41/index.php?action_kouhyou_detail_004_kani=true&JigyosyoCd=4171500152-00&ServiceCd=430&Type=search", "url2": "http://carefullcare.web.fc2.com/" }, "geometry": { "type": "Point", "coordinates": [ 129.880491316587637, 33.204871237099226 ] } },
{ "type": "Feature", "properties": { "内容": "有田町社会福祉協議会居宅介護支援事業所【居宅介護支援】佐賀県西松浦郡有田町南原甲６６４番地４", "url": "https://www.kaigokensaku.mhlw.go.jp/41/index.php?action_kouhyou_detail_004_kani=true&JigyosyoCd=4171500012-00&ServiceCd=430&Type=search", "url2": "http://arita-shakyo.com/" }, "geometry": { "type": "Point", "coordinates": [ 129.863898436492946, 33.192878833943091 ] } },
{ "type": "Feature", "properties": { "内容": "グリーンヒル幸寿園　居宅介護支援事業所【居宅介護支援】佐賀県西松浦郡有田町南原甲678番地1", "url": "https://www.kaigokensaku.mhlw.go.jp/41/index.php?action_kouhyou_detail_004_kani=true&JigyosyoCd=4151580018-00&ServiceCd=430&Type=search", "url2": "http://www.kenjin-kai.com/koujyuen/" }, "geometry": { "type": "Point", "coordinates": [ 129.862740797853121, 33.193542445685765 ] } },
{ "type": "Feature", "properties": { "内容": "特定非営利活動法人居宅介護支援事業所ともなが【居宅介護支援】佐賀県西松浦郡有田町戸杓丙１２４番地３", "url": "https://www.kaigokensaku.mhlw.go.jp/41/index.php?action_kouhyou_detail_004_kani=true&JigyosyoCd=4171500095-00&ServiceCd=430&Type=search", "url2": "https://kyotakukaigo-tomonaga.com/" }, "geometry": { "type": "Point", "coordinates": [ 129.879146, 33.1758115 ] } },
{ "type": "Feature", "properties": { "内容": "居宅介護支援事業所　有田【居宅介護支援】佐賀県西松浦郡有田町本町丙972-15", "url": "https://www.kaigokensaku.mhlw.go.jp/41/index.php?action_kouhyou_detail_004_kani=true&JigyosyoCd=4171500137-00&ServiceCd=430&Type=search", "url2": "http://www.jikou-kai.net" }, "geometry": { "type": "Point", "coordinates": [ 129.880934499999967, 33.1834082 ] } },
{ "type": "Feature", "properties": { "内容": "順天堂ケアマネージメントセンター【居宅介護支援】佐賀県杵島郡大町町大字福母７０７番地１", "url": "https://www.kaigokensaku.mhlw.go.jp/41/index.php?action_kouhyou_detail_004_kani=true&JigyosyoCd=4111611325-00&ServiceCd=430&Type=search", "url2": "http://www.juntendo.or.jp" }, "geometry": { "type": "Point", "coordinates": [ 130.10252360000004, 33.2079735 ] } },
{ "type": "Feature", "properties": { "内容": "ケアマネージメントサービス　すみれ園【居宅介護支援】佐賀県杵島郡大町町大字福母3031-1", "url": "https://www.kaigokensaku.mhlw.go.jp/41/index.php?action_kouhyou_detail_004_kani=true&JigyosyoCd=4171600010-00&ServiceCd=430&Type=search", "url2": "https://seijinkai-sumireen.com/" }, "geometry": { "type": "Point", "coordinates": [ 130.101293, 33.2193 ] } },
{ "type": "Feature", "properties": { "内容": "江北町社会福祉協議会【居宅介護支援】佐賀県杵島郡江北町大字山口2637番地7江北町老人福祉センター", "url": "https://www.kaigokensaku.mhlw.go.jp/41/index.php?action_kouhyou_detail_004_kani=true&JigyosyoCd=4171600051-00&ServiceCd=430&Type=search", "url2": null }, "geometry": { "type": "Point", "coordinates": [ 130.149592200000029, 33.2167122 ] } },
{ "type": "Feature", "properties": { "内容": "ケアプランサービス　しゃくなげ【居宅介護支援】佐賀県杵島郡江北町大字惣領分２４２０番地１", "url": "https://www.kaigokensaku.mhlw.go.jp/41/index.php?action_kouhyou_detail_004_kani=true&JigyosyoCd=4151680057-00&ServiceCd=430&Type=search", "url2": "www.keitendo.jp" }, "geometry": { "type": "Point", "coordinates": [ 130.173104500000022, 33.2240116 ] } },
{ "type": "Feature", "properties": { "内容": "指定居宅介護支援事業所　るんびに園【居宅介護支援】佐賀県杵島郡江北町大字惣領分4153番地", "url": "https://www.kaigokensaku.mhlw.go.jp/41/index.php?action_kouhyou_detail_004_kani=true&JigyosyoCd=4171600036-00&ServiceCd=430&Type=search", "url2": "https://jizankai.jp" }, "geometry": { "type": "Point", "coordinates": [ 130.1766404, 33.2276056 ] } },
{ "type": "Feature", "properties": { "内容": "医療法人社団栄寿会　ケアプランサービススマイル【居宅介護支援】佐賀県杵島郡江北町上小田274-1", "url": "https://www.kaigokensaku.mhlw.go.jp/41/index.php?action_kouhyou_detail_004_kani=true&JigyosyoCd=4171600424-00&ServiceCd=430&Type=search", "url2": null }, "geometry": { "type": "Point", "coordinates": [ 130.14561948783566, 33.225468943833484 ] } },
{ "type": "Feature", "properties": { "内容": "指定居宅介護支援事業所　そいよかね白石【居宅介護支援】佐賀県杵島郡白石町福田1268－1", "url": "https://www.kaigokensaku.mhlw.go.jp/41/index.php?action_kouhyou_detail_004_kani=true&JigyosyoCd=4171600622-00&ServiceCd=430&Type=search", "url2": "http://www.miz-phamacy.co.jp" }, "geometry": { "type": "Point", "coordinates": [ 130.140785100000016, 33.1807158 ] } },
{ "type": "Feature", "properties": { "内容": "有島病院　居宅介護支援事業所【居宅介護支援】佐賀県杵島郡白石町大字戸ヶ里2352-3", "url": "https://www.kaigokensaku.mhlw.go.jp/41/index.php?action_kouhyou_detail_004_kani=true&JigyosyoCd=4111610061-00&ServiceCd=430&Type=search", "url2": "arishima-hp.com" }, "geometry": { "type": "Point", "coordinates": [ 130.12565, 33.1543406 ] } },
{ "type": "Feature", "properties": { "内容": "居宅介護支援事業所白い石【居宅介護支援】佐賀県杵島郡白石町福吉１８０８", "url": "https://www.kaigokensaku.mhlw.go.jp/41/index.php?action_kouhyou_detail_004_kani=true&JigyosyoCd=4151680024-00&ServiceCd=430&Type=search", "url2": "http://tougen.or.jp" }, "geometry": { "type": "Point", "coordinates": [ 130.153442400000017, 33.185696 ] } },
{ "type": "Feature", "properties": { "内容": "清涼荘介護保険サービス【居宅介護支援】佐賀県杵島郡白石町大字戸ヶ里1831番地18", "url": "https://www.kaigokensaku.mhlw.go.jp/41/index.php?action_kouhyou_detail_004_kani=true&JigyosyoCd=4151680065-00&ServiceCd=430&Type=search", "url2": "https://yuai-th.com" }, "geometry": { "type": "Point", "coordinates": [ 130.1247696, 33.1548033 ] } },
{ "type": "Feature", "properties": { "内容": "桜の園ケアプランサービスセンター【居宅介護支援】佐賀県杵島郡白石町大字福富下分２３８７番地３", "url": "https://www.kaigokensaku.mhlw.go.jp/41/index.php?action_kouhyou_detail_004_kani=true&JigyosyoCd=4171600028-00&ServiceCd=430&Type=search", "url2": "https://www.sakuranosono.biz/" }, "geometry": { "type": "Point", "coordinates": [ 130.198991799999931, 33.1922521 ] } },
{ "type": "Feature", "properties": { "内容": "居宅介護支援事業所うたがき【居宅介護支援】佐賀県杵島郡白石町大字築切264番地1", "url": "https://www.kaigokensaku.mhlw.go.jp/41/index.php?action_kouhyou_detail_004_kani=true&JigyosyoCd=4171600093-00&ServiceCd=430&Type=search", "url2": "https://www.cableone.ne.jp/~utagaki-sato" }, "geometry": { "type": "Point", "coordinates": [ 130.146015230688477, 33.167007133802926 ] } },
{ "type": "Feature", "properties": { "内容": "PersonalHappines【居宅介護支援】佐賀県杵島郡白石町大字福富下分1948-1", "url": "https://www.kaigokensaku.mhlw.go.jp/41/index.php?action_kouhyou_detail_004_kani=true&JigyosyoCd=4171600671-00&ServiceCd=430&Type=search", "url2": null }, "geometry": { "type": "Point", "coordinates": [ 130.1855897, 33.1808448 ] } },
{ "type": "Feature", "properties": { "内容": "町立太良病院居宅介護支援事業所【居宅介護支援】佐賀県藤津郡太良町大字多良１５２０番地１２", "url": "https://www.kaigokensaku.mhlw.go.jp/41/index.php?action_kouhyou_detail_004_kani=true&JigyosyoCd=4161790029-00&ServiceCd=430&Type=search", "url2": "http://www.town.tara.saga.jp/site/tarahospital/" }, "geometry": { "type": "Point", "coordinates": [ 130.178692800000022, 33.0269597 ] } },
{ "type": "Feature", "properties": { "内容": "光風荘居宅介護支援事業所【居宅介護支援】佐賀県藤津郡太良町大字多良1849番地9", "url": "https://www.kaigokensaku.mhlw.go.jp/41/index.php?action_kouhyou_detail_004_kani=true&JigyosyoCd=4171700026-00&ServiceCd=430&Type=search", "url2": null }, "geometry": { "type": "Point", "coordinates": [ 130.178892799999971, 33.0280597 ] } },
{ "type": "Feature", "properties": { "内容": "居宅介護支援事業所　ふるさとの森【居宅介護支援】佐賀県藤津郡太良町大字糸岐６７３０－１", "url": "https://www.kaigokensaku.mhlw.go.jp/41/index.php?action_kouhyou_detail_004_kani=true&JigyosyoCd=4151780022-00&ServiceCd=430&Type=search", "url2": "https://furusatonomori1998.com/" }, "geometry": { "type": "Point", "coordinates": [ 130.163041300000032, 33.0159017 ] } }
]
}
