{
"type": "FeatureCollection",
"name": "geo_41_小規模多機能型居宅介護",
"crs": { "type": "name", "properties": { "name": "urn:ogc:def:crs:OGC:1.3:CRS84" } },
"features": [
{ "type": "Feature", "properties": { "内容": "小規模多機能ホームシニアライフ佐賀３号館【小規模多機能型居宅介護】佐賀市高木瀬町長瀬1294-1シニアライフ佐賀３号館", "url": "https://www.kaigokensaku.mhlw.go.jp/41/index.php?action_kouhyou_detail_004_kani=true&JigyosyoCd=4190100786-00&ServiceCd=730&Type=search", "url2": "https://sagakita.com/" }, "geometry": { "type": "Point", "coordinates": [ 130.2846586, 33.2957998 ] } },
{ "type": "Feature", "properties": { "内容": "シオンの園　小規模多機能ホーム川上【小規模多機能型居宅介護】佐賀県佐賀市大和町大字川上587-1", "url": "https://www.kaigokensaku.mhlw.go.jp/41/index.php?action_kouhyou_detail_004_kani=true&JigyosyoCd=4190100091-00&ServiceCd=730&Type=search", "url2": "http:/www2saganet.ne.jp/zion" }, "geometry": { "type": "Point", "coordinates": [ 130.266708200000039, 33.3221375 ] } },
{ "type": "Feature", "properties": { "内容": "小規模多機能型なごみ【小規模多機能型居宅介護】佐賀県佐賀市富士町大字小副川562", "url": "https://www.kaigokensaku.mhlw.go.jp/41/index.php?action_kouhyou_detail_004_kani=true&JigyosyoCd=4190100109-00&ServiceCd=730&Type=search", "url2": "https://www.kenjyu-nagomi.jp" }, "geometry": { "type": "Point", "coordinates": [ 130.244034199999987, 33.365675 ] } },
{ "type": "Feature", "properties": { "内容": "小規模多機能ホームケアポート晴寿【小規模多機能型居宅介護】佐賀市高木瀬町東高木1170番地", "url": "https://www.kaigokensaku.mhlw.go.jp/41/index.php?action_kouhyou_detail_004_kani=true&JigyosyoCd=4190100117-00&ServiceCd=730&Type=search", "url2": "http://www.seijyukai.com/" }, "geometry": { "type": "Point", "coordinates": [ 130.299782, 33.287116 ] } },
{ "type": "Feature", "properties": { "内容": "まちのホーム医大前【小規模多機能型居宅介護】佐賀県佐賀市鍋島三丁目３番２０号鍋島シェスト総合福祉ビルハーモニービル４階", "url": "https://www.kaigokensaku.mhlw.go.jp/41/index.php?action_kouhyou_detail_004_kani=true&JigyosyoCd=4190100174-00&ServiceCd=730&Type=search", "url2": "https://fukushinoie-saga.com/" }, "geometry": { "type": "Point", "coordinates": [ 130.268476, 33.280252 ] } },
{ "type": "Feature", "properties": { "内容": "シオンの園　小規模多機能ホーム　片田江【小規模多機能型居宅介護】佐賀県佐賀市水ヶ江二丁目９番２０号", "url": "https://www.kaigokensaku.mhlw.go.jp/41/index.php?action_kouhyou_detail_004_kani=true&JigyosyoCd=4190100190-00&ServiceCd=730&Type=search", "url2": "https://www.zion.or.jp/" }, "geometry": { "type": "Point", "coordinates": [ 130.309365599999978, 33.2489392 ] } },
{ "type": "Feature", "properties": { "内容": "医療法人　春陽会　小規模多機能うえむら【小規模多機能型居宅介護】佐賀県佐賀市兵庫町大字渕1872番地1", "url": "https://www.kaigokensaku.mhlw.go.jp/41/index.php?action_kouhyou_detail_004_kani=true&JigyosyoCd=4190100224-00&ServiceCd=730&Type=search", "url2": "shunyoukai.jp" }, "geometry": { "type": "Point", "coordinates": [ 130.315923339147929, 33.280306545581844 ] } },
{ "type": "Feature", "properties": { "内容": "まちのホーム循誘【小規模多機能型居宅介護】佐賀県佐賀市東佐賀町16-2まちのホーム循誘（1F）　※ふくしの家の看板有", "url": "https://www.kaigokensaku.mhlw.go.jp/41/index.php?action_kouhyou_detail_004_kani=true&JigyosyoCd=4190100299-00&ServiceCd=730&Type=search", "url2": "http://fukushinoie-saga.com" }, "geometry": { "type": "Point", "coordinates": [ 130.310218580985634, 33.256596654738416 ] } },
{ "type": "Feature", "properties": { "内容": "小規模多機能ホーム　びゃくしん【小規模多機能型居宅介護】佐賀市諸富町大字大堂　937-3", "url": "https://www.kaigokensaku.mhlw.go.jp/41/index.php?action_kouhyou_detail_004_kani=true&JigyosyoCd=4190100323-00&ServiceCd=730&Type=search", "url2": "http://moriyama-clinic.com" }, "geometry": { "type": "Point", "coordinates": [ 130.355672303999285, 33.237179655449843 ] } },
{ "type": "Feature", "properties": { "内容": "小規模多機能ホームももえん【小規模多機能型居宅介護】佐賀県佐賀市川副町大字小々森1260-1", "url": "https://www.kaigokensaku.mhlw.go.jp/41/index.php?action_kouhyou_detail_004_kani=true&JigyosyoCd=4190100331-00&ServiceCd=730&Type=search", "url2": null }, "geometry": { "type": "Point", "coordinates": [ 130.301078599999983, 33.1959083 ] } },
{ "type": "Feature", "properties": { "内容": "小規模多機能ホーム　シニアライフ佐賀【小規模多機能型居宅介護】佐賀県佐賀市高木瀬町大字長瀬１２４６－１有料老人ホームシニアライフ佐賀2号館", "url": "https://www.kaigokensaku.mhlw.go.jp/41/index.php?action_kouhyou_detail_004_kani=true&JigyosyoCd=4190100349-00&ServiceCd=730&Type=search", "url2": "http://sagakita.com" }, "geometry": { "type": "Point", "coordinates": [ 130.282901483991964, 33.292449060148243 ] } },
{ "type": "Feature", "properties": { "内容": "シオンの園小規模多機能ホーム末広【小規模多機能型居宅介護】佐賀県佐賀市末広一丁目9-28", "url": "https://www.kaigokensaku.mhlw.go.jp/41/index.php?action_kouhyou_detail_004_kani=true&JigyosyoCd=4190100356-00&ServiceCd=730&Type=search", "url2": "http:/www2.saganet.ne.jp/zion" }, "geometry": { "type": "Point", "coordinates": [ 130.27904609999996, 33.2465523 ] } },
{ "type": "Feature", "properties": { "内容": "小規模多機能型居宅介護てまり【小規模多機能型居宅介護】佐賀県佐賀市西与賀町厘外732番地4", "url": "https://www.kaigokensaku.mhlw.go.jp/41/index.php?action_kouhyou_detail_004_kani=true&JigyosyoCd=4190100406-00&ServiceCd=730&Type=search", "url2": "http://hakuhou-saga.com" }, "geometry": { "type": "Point", "coordinates": [ 130.281259014120877, 33.241058240382685 ] } },
{ "type": "Feature", "properties": { "内容": "小規模多機能型居宅介護　ゆるり鍋島【小規模多機能型居宅介護】佐賀県佐賀市鍋島町大字森田583-1", "url": "https://www.kaigokensaku.mhlw.go.jp/41/index.php?action_kouhyou_detail_004_kani=true&JigyosyoCd=4190100455-00&ServiceCd=730&Type=search", "url2": "https://an-nabe.or.jp" }, "geometry": { "type": "Point", "coordinates": [ 130.262121100000059, 33.2726357 ] } },
{ "type": "Feature", "properties": { "内容": "小規模多機能ホームこのはな【小規模多機能型居宅介護】佐賀県佐賀市本庄町大字本庄264番地1", "url": "https://www.kaigokensaku.mhlw.go.jp/41/index.php?action_kouhyou_detail_004_kani=true&JigyosyoCd=4190100463-00&ServiceCd=730&Type=search", "url2": "http://www.shiseikai-g.or.jp/" }, "geometry": { "type": "Point", "coordinates": [ 130.29284651719675, 33.238110332561035 ] } },
{ "type": "Feature", "properties": { "内容": "小規模多機能ホームお多福【小規模多機能型居宅介護】佐賀県佐賀市川副町大字福富828－1", "url": "https://www.kaigokensaku.mhlw.go.jp/41/index.php?action_kouhyou_detail_004_kani=true&JigyosyoCd=4191000019-00&ServiceCd=730&Type=search", "url2": "http://www.keyakisou.or.jp/" }, "geometry": { "type": "Point", "coordinates": [ 130.321751, 33.2113929 ] } },
{ "type": "Feature", "properties": { "内容": "多機能型介護みんなのいえ【小規模多機能型居宅介護】佐賀県佐賀市久保泉町川久保８７５番地１", "url": "https://www.kaigokensaku.mhlw.go.jp/41/index.php?action_kouhyou_detail_004_kani=true&JigyosyoCd=4190100059-00&ServiceCd=730&Type=search", "url2": null }, "geometry": { "type": "Point", "coordinates": [ 130.325625100000025, 33.3241523 ] } },
{ "type": "Feature", "properties": { "内容": "小規模多機能みどりやま【小規模多機能型居宅介護】佐賀県唐津市相知町相知533-28", "url": "https://www.kaigokensaku.mhlw.go.jp/41/index.php?action_kouhyou_detail_004_kani=true&JigyosyoCd=4190200404-00&ServiceCd=730&Type=search", "url2": "https://.care-supprt-ksn.com" }, "geometry": { "type": "Point", "coordinates": [ 130.020814096958958, 33.344098944262875 ] } },
{ "type": "Feature", "properties": { "内容": "小規模多機能型居宅介護事業所ひだまり【小規模多機能型居宅介護】佐賀県唐津市佐志1146番地13", "url": "https://www.kaigokensaku.mhlw.go.jp/41/index.php?action_kouhyou_detail_004_kani=true&JigyosyoCd=4170200267-00&ServiceCd=730&Type=search", "url2": null }, "geometry": { "type": "Point", "coordinates": [ 129.930577399999947, 33.4653492 ] } },
{ "type": "Feature", "properties": { "内容": "小規模多機能型居宅介護みつしま荘【小規模多機能型居宅介護】佐賀県唐津市東唐津二丁目6番22号", "url": "https://www.kaigokensaku.mhlw.go.jp/41/index.php?action_kouhyou_detail_004_kani=true&JigyosyoCd=4190200024-00&ServiceCd=730&Type=search", "url2": "http://www18.ocn.ne.jp/~sakaesou/" }, "geometry": { "type": "Point", "coordinates": [ 129.984338745635569, 33.451625571540959 ] } },
{ "type": "Feature", "properties": { "内容": "いきいきライフ　ゆとり館【小規模多機能型居宅介護】佐賀県唐津市久里５１６－３", "url": "https://www.kaigokensaku.mhlw.go.jp/41/index.php?action_kouhyou_detail_004_kani=true&JigyosyoCd=4190200032-00&ServiceCd=730&Type=search", "url2": null }, "geometry": { "type": "Point", "coordinates": [ 129.990829399999939, 33.4024743 ] } },
{ "type": "Feature", "properties": { "内容": "小規模多機能型居宅介護事業さくれい【小規模多機能型居宅介護】佐賀県唐津市厳木町中島1432番地", "url": "https://www.kaigokensaku.mhlw.go.jp/41/index.php?action_kouhyou_detail_004_kani=true&JigyosyoCd=4190200099-00&ServiceCd=730&Type=search", "url2": null }, "geometry": { "type": "Point", "coordinates": [ 130.0740108, 33.3132524 ] } },
{ "type": "Feature", "properties": { "内容": "ケアガーデン　風【小規模多機能型居宅介護】唐津市呼子町殿ノ浦92番地3", "url": "https://www.kaigokensaku.mhlw.go.jp/41/index.php?action_kouhyou_detail_004_kani=true&JigyosyoCd=4190200172-00&ServiceCd=730&Type=search", "url2": null }, "geometry": { "type": "Point", "coordinates": [ 129.8931007, 33.5312941 ] } },
{ "type": "Feature", "properties": { "内容": "小規模多機能型居宅介護ひだまり　しいの木【小規模多機能型居宅介護】佐賀県唐津市竹木場5109番地6", "url": "https://www.kaigokensaku.mhlw.go.jp/41/index.php?action_kouhyou_detail_004_kani=true&JigyosyoCd=4190200198-00&ServiceCd=730&Type=search", "url2": null }, "geometry": { "type": "Point", "coordinates": [ 129.925094800000011, 33.4235199 ] } },
{ "type": "Feature", "properties": { "内容": "唐津市社会福祉協議会小規模多機能型居宅介護唐津事業所【小規模多機能型居宅介護】佐賀県唐津市二夕子2丁目1番地8", "url": "https://www.kaigokensaku.mhlw.go.jp/41/index.php?action_kouhyou_detail_004_kani=true&JigyosyoCd=4190200370-00&ServiceCd=730&Type=search", "url2": "http://www.karatsu-shakyo.or.jp/" }, "geometry": { "type": "Point", "coordinates": [ 129.957629969497702, 33.462365254424114 ] } },
{ "type": "Feature", "properties": { "内容": "小規模多機能型居宅介護セカンドハウス【小規模多機能型居宅介護】町田5丁目6番28号", "url": "https://www.kaigokensaku.mhlw.go.jp/41/index.php?action_kouhyou_detail_004_kani=true&JigyosyoCd=4190200461-00&ServiceCd=730&Type=search", "url2": "http://www.smile-social-workers.com/" }, "geometry": { "type": "Point", "coordinates": [ 139.459527100000059, 35.5759648 ] } },
{ "type": "Feature", "properties": { "内容": "小規模多機能施設　より道【小規模多機能型居宅介護】佐賀県唐津市佐志1156-4", "url": "https://www.kaigokensaku.mhlw.go.jp/41/index.php?action_kouhyou_detail_004_kani=true&JigyosyoCd=4190200487-00&ServiceCd=730&Type=search", "url2": "http://heart-feel.com" }, "geometry": { "type": "Point", "coordinates": [ 129.929827499999988, 33.4665796 ] } },
{ "type": "Feature", "properties": { "内容": "ゆったり　きたはた【小規模多機能型居宅介護】佐賀県唐津市北波多岸山373-19", "url": "https://www.kaigokensaku.mhlw.go.jp/41/index.php?action_kouhyou_detail_004_kani=true&JigyosyoCd=4190200511-00&ServiceCd=730&Type=search", "url2": null }, "geometry": { "type": "Point", "coordinates": [ 129.970408375146462, 33.374938485082801 ] } },
{ "type": "Feature", "properties": { "内容": "小規模多機能むく【小規模多機能型居宅介護】佐賀県唐津市浜玉町大江49－1", "url": "https://www.kaigokensaku.mhlw.go.jp/41/index.php?action_kouhyou_detail_004_kani=true&JigyosyoCd=4190200602-00&ServiceCd=730&Type=search", "url2": "http://muku-llc.com" }, "geometry": { "type": "Point", "coordinates": [ 130.0470882, 33.4489514 ] } },
{ "type": "Feature", "properties": { "内容": "小規模ひだまり　しいの木　サテライト向島【小規模多機能型居宅介護】肥前町向島232番地", "url": "https://www.kaigokensaku.mhlw.go.jp/41/index.php?action_kouhyou_detail_004_kani=true&JigyosyoCd=4190200768-00&ServiceCd=730&Type=search", "url2": "http://www.vf-life.com" }, "geometry": { "type": "Point", "coordinates": [ 129.777771300000012, 33.4905513 ] } },
{ "type": "Feature", "properties": { "内容": "小規模多機能介護事業所　いちょうの樹どうあん【小規模多機能型居宅介護】鳥栖市山浦町２９７７－３", "url": "https://www.kaigokensaku.mhlw.go.jp/41/index.php?action_kouhyou_detail_004_kani=true&JigyosyoCd=4190300055-00&ServiceCd=730&Type=search", "url2": "http://www.douan.or.jp/" }, "geometry": { "type": "Point", "coordinates": [ 130.485400300000038, 33.3834397 ] } },
{ "type": "Feature", "properties": { "内容": "小規模多機能ホーム　お元気横丁【小規模多機能型居宅介護】佐賀県鳥栖市門戸口１３９８－１２", "url": "https://www.kaigokensaku.mhlw.go.jp/41/index.php?action_kouhyou_detail_004_kani=true&JigyosyoCd=4190300139-00&ServiceCd=730&Type=search", "url2": "http://www5f.biglobe.ne.jp/~ogenki/" }, "geometry": { "type": "Point", "coordinates": [ 130.503492041122399, 33.377665107571666 ] } },
{ "type": "Feature", "properties": { "内容": "小規模多機能型居宅介護　遊喜【小規模多機能型居宅介護】鳥栖市本鳥栖町８１４番地１アルシオネ鳥栖２階", "url": "https://www.kaigokensaku.mhlw.go.jp/41/index.php?action_kouhyou_detail_004_kani=true&JigyosyoCd=4190300154-00&ServiceCd=730&Type=search", "url2": null }, "geometry": { "type": "Point", "coordinates": [ 130.516685400000028, 33.3776633 ] } },
{ "type": "Feature", "properties": { "内容": "小規模多機能型居宅介護事業所ささえ蔵上【小規模多機能型居宅介護】佐賀県鳥栖市蔵上１丁目147-1", "url": "https://www.kaigokensaku.mhlw.go.jp/41/index.php?action_kouhyou_detail_004_kani=true&JigyosyoCd=4190300253-00&ServiceCd=730&Type=search", "url2": null }, "geometry": { "type": "Point", "coordinates": [ 130.4939512, 33.3784275 ] } },
{ "type": "Feature", "properties": { "内容": "小規模多機能きぼう原古賀センター【小規模多機能型居宅介護】佐賀県鳥栖市原古賀町857-1リフティきぼう原古賀センター", "url": "https://www.kaigokensaku.mhlw.go.jp/41/index.php?action_kouhyou_detail_004_kani=true&JigyosyoCd=4190300162-00&ServiceCd=730&Type=search", "url2": "http://kaigo.lsneo.co.jp/index.html" }, "geometry": { "type": "Point", "coordinates": [ 130.483510786508191, 33.37397316401924 ] } },
{ "type": "Feature", "properties": { "内容": "小規模多機能きぼう蔵上センター【小規模多機能型居宅介護】佐賀県鳥栖市蔵上町字野田620-1", "url": "https://www.kaigokensaku.mhlw.go.jp/41/index.php?action_kouhyou_detail_004_kani=true&JigyosyoCd=4190300196-00&ServiceCd=730&Type=search", "url2": "http://lsneo.com/index.html" }, "geometry": { "type": "Point", "coordinates": [ 130.497664399999962, 33.3780714 ] } },
{ "type": "Feature", "properties": { "内容": "小規模多機能型居宅介護事業所　はらだ会　陽光の里【小規模多機能型居宅介護】佐賀県鳥栖市鎗田町283番地2", "url": "https://www.kaigokensaku.mhlw.go.jp/41/index.php?action_kouhyou_detail_004_kani=true&JigyosyoCd=4190300204-00&ServiceCd=730&Type=search", "url2": "haradakai.com" }, "geometry": { "type": "Point", "coordinates": [ 130.512813500000021, 33.380827400000015 ] } },
{ "type": "Feature", "properties": { "内容": "小規模多機能型居宅介護施設　さよがわ【小規模多機能型居宅介護】佐賀県伊万里市山代町立岩４０９－４２", "url": "https://www.kaigokensaku.mhlw.go.jp/41/index.php?action_kouhyou_detail_004_kani=true&JigyosyoCd=4190500084-00&ServiceCd=730&Type=search", "url2": null }, "geometry": { "type": "Point", "coordinates": [ 129.7915726, 33.3347349 ] } },
{ "type": "Feature", "properties": { "内容": "小規模多機能ホームサテライトゆうあい【小規模多機能型居宅介護】佐賀県鹿島市大字高津原2962番地1", "url": "https://www.kaigokensaku.mhlw.go.jp/41/index.php?action_kouhyou_detail_004_kani=true&JigyosyoCd=4190700122-00&ServiceCd=730&Type=search", "url2": "http://www.yuaivillage.com" }, "geometry": { "type": "Point", "coordinates": [ 130.084548199999972, 33.1042875 ] } },
{ "type": "Feature", "properties": { "内容": "小規模多機能ホーム　くすの木【小規模多機能型居宅介護】佐賀県鹿島市大字中村2126-1", "url": "https://www.kaigokensaku.mhlw.go.jp/41/index.php?action_kouhyou_detail_004_kani=true&JigyosyoCd=4190700023-00&ServiceCd=730&Type=search", "url2": "http://shidahp.com/care/kusunoki/index.html" }, "geometry": { "type": "Point", "coordinates": [ 130.097420545052273, 33.119241224110382 ] } },
{ "type": "Feature", "properties": { "内容": "小規模多機能ホームゆうあい【小規模多機能型居宅介護】鹿島市大字高津原3072番地1", "url": "https://www.kaigokensaku.mhlw.go.jp/41/index.php?action_kouhyou_detail_004_kani=true&JigyosyoCd=4190700064-00&ServiceCd=730&Type=search", "url2": "http://www.yuaivillage.com" }, "geometry": { "type": "Point", "coordinates": [ 130.08357060000003, 33.1055318 ] } },
{ "type": "Feature", "properties": { "内容": "多機能ホーム　あしかり【小規模多機能型居宅介護】佐賀県小城市芦刈町芦溝字松瀬615番地1", "url": "https://www.kaigokensaku.mhlw.go.jp/41/index.php?action_kouhyou_detail_004_kani=true&JigyosyoCd=4191300096-00&ServiceCd=730&Type=search", "url2": "http:/www.kiyonet.ne.jp" }, "geometry": { "type": "Point", "coordinates": [ 130.214342499999987, 33.2398282 ] } },
{ "type": "Feature", "properties": { "内容": "小規模多機能ふぉれすと【小規模多機能型居宅介護】佐賀県小城市小城町畑田2468-2", "url": "https://www.kaigokensaku.mhlw.go.jp/41/index.php?action_kouhyou_detail_004_kani=true&JigyosyoCd=4191300153-00&ServiceCd=730&Type=search", "url2": "http://lsneo.com" }, "geometry": { "type": "Point", "coordinates": [ 130.1882711, 33.2942801 ] } },
{ "type": "Feature", "properties": { "内容": "小規模多機能型居宅介護事業所清水園【小規模多機能型居宅介護】佐賀県小城市小城町826番地1", "url": "https://www.kaigokensaku.mhlw.go.jp/41/index.php?action_kouhyou_detail_004_kani=true&JigyosyoCd=4191300039-00&ServiceCd=730&Type=search", "url2": "http:/wwwkiyonet@star.saganet.ne.jp" }, "geometry": { "type": "Point", "coordinates": [ 130.205968699999971, 33.3002513 ] } },
{ "type": "Feature", "properties": { "内容": "小規模多機能型居宅介護ラ・サンテひらまつ【小規模多機能型居宅介護】小城町803番地小規模多機能型居宅介護ラ・サンテひらまつ（有料老人ホームラ・サンテ内）", "url": "https://www.kaigokensaku.mhlw.go.jp/41/index.php?action_kouhyou_detail_004_kani=true&JigyosyoCd=4191300054-00&ServiceCd=730&Type=search", "url2": "www.hiramatsu-hp.or.jp/" }, "geometry": { "type": "Point", "coordinates": [ 130.2073117, 33.3005175 ] } },
{ "type": "Feature", "properties": { "内容": "小規模多機能ホーム孝心の里【小規模多機能型居宅介護】佐賀県嬉野市嬉野町大字下宿乙２０４５番地４", "url": "https://www.kaigokensaku.mhlw.go.jp/41/index.php?action_kouhyou_detail_004_kani=true&JigyosyoCd=4190900029-00&ServiceCd=730&Type=search", "url2": "http://www.yuhokai.com" }, "geometry": { "type": "Point", "coordinates": [ 129.981168984130818, 33.099184073844953 ] } },
{ "type": "Feature", "properties": { "内容": "小規模多機能型居宅介護さとみち【小規模多機能型居宅介護】佐賀県嬉野市嬉野町大字下野甲４６９７", "url": "https://www.kaigokensaku.mhlw.go.jp/41/index.php?action_kouhyou_detail_004_kani=true&JigyosyoCd=4190900086-00&ServiceCd=730&Type=search", "url2": "https://h-cl.co.jp/satomichi/" }, "geometry": { "type": "Point", "coordinates": [ 130.0043297, 33.0991469 ] } },
{ "type": "Feature", "properties": { "内容": "小規模多機能きぼう神埼センター【小規模多機能型居宅介護】佐賀県神埼市神埼町鶴1342番地4", "url": "https://www.kaigokensaku.mhlw.go.jp/41/index.php?action_kouhyou_detail_004_kani=true&JigyosyoCd=4192000026-00&ServiceCd=730&Type=search", "url2": "http://lsneo.com/" }, "geometry": { "type": "Point", "coordinates": [ 130.373473500000046, 33.3323521 ] } },
{ "type": "Feature", "properties": { "内容": "さざんか園小規模多機能居宅介護所【小規模多機能型居宅介護】佐賀県神埼郡吉野ヶ里町大曲3475-2", "url": "https://www.kaigokensaku.mhlw.go.jp/41/index.php?action_kouhyou_detail_004_kani=true&JigyosyoCd=4191100017-00&ServiceCd=730&Type=search", "url2": "http://kyueikai.com" }, "geometry": { "type": "Point", "coordinates": [ 130.396577100000059, 33.3425516 ] } },
{ "type": "Feature", "properties": { "内容": "多機能ホーム　ゆうあい【小規模多機能型居宅介護】神埼郡吉野ケ里町吉田2273-7", "url": "https://www.kaigokensaku.mhlw.go.jp/41/index.php?action_kouhyou_detail_004_kani=true&JigyosyoCd=4191100025-00&ServiceCd=730&Type=search", "url2": "https://r.goope.jp/yuuai/free/shoguu" }, "geometry": { "type": "Point", "coordinates": [ 130.412112100000058, 33.3361771 ] } },
{ "type": "Feature", "properties": { "内容": "小規模多機能きぼう基山センター【小規模多機能型居宅介護】佐賀県三養基郡基山町大字園部148番地3", "url": "https://www.kaigokensaku.mhlw.go.jp/41/index.php?action_kouhyou_detail_004_kani=true&JigyosyoCd=4191200122-00&ServiceCd=730&Type=search", "url2": "http://kaigo.lsneo.co.jp/" }, "geometry": { "type": "Point", "coordinates": [ 130.524112022792821, 33.412774577049191 ] } },
{ "type": "Feature", "properties": { "内容": "小規模多機能型居宅介護木漏れ日ステーションひかりの家【小規模多機能型居宅介護】佐賀県東松浦郡玄海町大字長倉１５５３番地１", "url": "https://www.kaigokensaku.mhlw.go.jp/41/index.php?action_kouhyou_detail_004_kani=true&JigyosyoCd=4191400136-00&ServiceCd=730&Type=search", "url2": "https//hikarinoie.info" }, "geometry": { "type": "Point", "coordinates": [ 129.8792456, 33.471892 ] } },
{ "type": "Feature", "properties": { "内容": "小規模多機能型居宅介護うぐいす【小規模多機能型居宅介護】佐賀県西松浦郡有田町応法丙3869番地1", "url": "https://www.kaigokensaku.mhlw.go.jp/41/index.php?action_kouhyou_detail_004_kani=true&JigyosyoCd=4191500075-00&ServiceCd=730&Type=search", "url2": "http://www.careful-care.co.jp/" }, "geometry": { "type": "Point", "coordinates": [ 129.8823394, 33.206164 ] } },
{ "type": "Feature", "properties": { "内容": "小規模多機能ホームハートフルおおまち【小規模多機能型居宅介護】杵島郡大町町大字福母2248-3", "url": "https://www.kaigokensaku.mhlw.go.jp/41/index.php?action_kouhyou_detail_004_kani=true&JigyosyoCd=4191600065-00&ServiceCd=730&Type=search", "url2": null }, "geometry": { "type": "Point", "coordinates": [ 130.1045428, 33.2161143 ] } },
{ "type": "Feature", "properties": { "内容": "小規模多機能ホーム　であいの森【小規模多機能型居宅介護】大字戸ヶ里2387-8", "url": "https://www.kaigokensaku.mhlw.go.jp/41/index.php?action_kouhyou_detail_004_kani=true&JigyosyoCd=4191600040-00&ServiceCd=730&Type=search", "url2": null }, "geometry": { "type": "Point", "coordinates": [ 130.125518869033812, 33.152923557887945 ] } },
{ "type": "Feature", "properties": { "内容": "小規模多機能ホームゆい【小規模多機能型居宅介護】佐賀県藤津郡太良町大字多良2045", "url": "https://www.kaigokensaku.mhlw.go.jp/41/index.php?action_kouhyou_detail_004_kani=true&JigyosyoCd=4191700063-00&ServiceCd=730&Type=search", "url2": "https://yutatari.org" }, "geometry": { "type": "Point", "coordinates": [ 130.1730442, 33.0288648 ] } }
]
}
