{
"type": "FeatureCollection",
"name": "geo_41_看護小規模多機能型居宅介護（複合型サービス）",
"crs": { "type": "name", "properties": { "name": "urn:ogc:def:crs:OGC:1.3:CRS84" } },
"features": [
{ "type": "Feature", "properties": { "内容": "看護小規模多機能型居宅介護びりーぶ【看護小規模多機能型居宅介護（複合型サービス）】佐賀県佐賀市東与賀町大字田中881-2", "url": "https://www.kaigokensaku.mhlw.go.jp/41/index.php?action_kouhyou_detail_004_kani=true&JigyosyoCd=4190100646-00&ServiceCd=&Type=search", "url2": "https://believe-saga.com/" }, "geometry": { "type": "Point", "coordinates": [ 130.279241500000012, 33.200947200000023 ] } },
{ "type": "Feature", "properties": { "内容": "ナーシングケアセンター　ちとせ【看護小規模多機能型居宅介護（複合型サービス）】北川副町　光法　1777番地8", "url": "https://www.kaigokensaku.mhlw.go.jp/41/index.php?action_kouhyou_detail_004_kani=true&JigyosyoCd=4190100679-00&ServiceCd=&Type=search", "url2": null }, "geometry": { "type": "Point", "coordinates": [ 130.325093, 33.234582 ] } },
{ "type": "Feature", "properties": { "内容": "佐賀県看護協会ケアステーション野の花【看護小規模多機能型居宅介護（複合型サービス）】佐賀市緑小路６番１０号", "url": "https://www.kaigokensaku.mhlw.go.jp/41/index.php?action_kouhyou_detail_004_kani=true&JigyosyoCd=4190100232-00&ServiceCd=&Type=search", "url2": "http://www.saga-nurse.org/" }, "geometry": { "type": "Point", "coordinates": [ 130.283861900000034, 33.2602374 ] } },
{ "type": "Feature", "properties": { "内容": "岩本内科つばめ【看護小規模多機能型居宅介護（複合型サービス）】佐賀県唐津市海岸通7182-386", "url": "https://www.kaigokensaku.mhlw.go.jp/41/index.php?action_kouhyou_detail_004_kani=true&JigyosyoCd=4190200537-00&ServiceCd=&Type=search", "url2": "karatsu⁻iwamotonaika.com" }, "geometry": { "type": "Point", "coordinates": [ 129.957898, 33.4692246 ] } },
{ "type": "Feature", "properties": { "内容": "看護小規模多機能むく【看護小規模多機能型居宅介護（複合型サービス）】佐賀県唐津市浜玉町浜崎２３６４－１", "url": "https://www.kaigokensaku.mhlw.go.jp/41/index.php?action_kouhyou_detail_004_kani=true&JigyosyoCd=4190200602-00&ServiceCd=&Type=search", "url2": "http://muku-llc.com" }, "geometry": { "type": "Point", "coordinates": [ 130.018310165774182, 33.438696930039754 ] } },
{ "type": "Feature", "properties": { "内容": "ケアステーション　ゆうぜん【看護小規模多機能型居宅介護（複合型サービス）】佐賀県唐津市呼子町殿ノ浦911-1", "url": "https://www.kaigokensaku.mhlw.go.jp/41/index.php?action_kouhyou_detail_004_kani=true&JigyosyoCd=4190200636-00&ServiceCd=&Type=search", "url2": null }, "geometry": { "type": "Point", "coordinates": [ 129.890792, 33.531806 ] } },
{ "type": "Feature", "properties": { "内容": "看護小規模多機能しろくま【看護小規模多機能型居宅介護（複合型サービス）】佐賀県唐津市竹木場4900‐23", "url": "https://www.kaigokensaku.mhlw.go.jp/41/index.php?action_kouhyou_detail_004_kani=true&JigyosyoCd=4190200669-00&ServiceCd=&Type=search", "url2": "https://www.shirokumapharmacy-coltd.com" }, "geometry": { "type": "Point", "coordinates": [ 129.934450287680079, 33.428150300434964 ] } },
{ "type": "Feature", "properties": { "内容": "サテライト　ゆうぜん【看護小規模多機能型居宅介護（複合型サービス）】佐賀県唐津市鎮西町馬渡島1638-1", "url": "https://www.kaigokensaku.mhlw.go.jp/41/index.php?action_kouhyou_detail_004_kani=true&JigyosyoCd=4190200776-00&ServiceCd=&Type=search", "url2": null }, "geometry": { "type": "Point", "coordinates": [ 129.7575272, 33.5761295 ] } },
{ "type": "Feature", "properties": { "内容": "看護小規模多機能　フィオーレとどろき【看護小規模多機能型居宅介護（複合型サービス）】佐賀県鳥栖市轟木町1579-1フィオーレとどろき", "url": "https://www.kaigokensaku.mhlw.go.jp/41/index.php?action_kouhyou_detail_004_kani=true&JigyosyoCd=4190300212-00&ServiceCd=&Type=search", "url2": "http://gajumaru.or.jp" }, "geometry": { "type": "Point", "coordinates": [ 130.505926107877883, 33.36693406555721 ] } },
{ "type": "Feature", "properties": { "内容": "看護小規模多機能事業所peace【看護小規模多機能型居宅介護（複合型サービス）】武雄町大字武雄5598-22", "url": "https://www.kaigokensaku.mhlw.go.jp/41/index.php?action_kouhyou_detail_004_kani=true&JigyosyoCd=4190600199-00&ServiceCd=&Type=search", "url2": "https://nursingcareplus-saga.com/" }, "geometry": { "type": "Point", "coordinates": [ 130.018113199999988, 33.1924449 ] } }
]
}
