{
"type": "FeatureCollection",
"name": "geo_41_介護老人福祉施設",
"crs": { "type": "name", "properties": { "name": "urn:ogc:def:crs:OGC:1.3:CRS84" } },
"features": [
{ "type": "Feature", "properties": { "内容": "扇寿荘指定介護老人福祉施設【介護老人福祉施設】佐賀県佐賀市嘉瀬町大字中原2585番地", "url": "https://www.kaigokensaku.mhlw.go.jp/41/index.php?action_kouhyou_detail_004_kani=true&JigyosyoCd=4170100111-00&ServiceCd=510&Type=search", "url2": null }, "geometry": { "type": "Point", "coordinates": [ 130.253795699999955, 33.2395133 ] } },
{ "type": "Feature", "properties": { "内容": "特別養護老人ホームシオンの園【介護老人福祉施設】佐賀市大和町大字久留間3865-1", "url": "https://www.kaigokensaku.mhlw.go.jp/41/index.php?action_kouhyou_detail_004_kani=true&JigyosyoCd=4161090032-00&ServiceCd=510&Type=search", "url2": "http://www.sion.or.jp" }, "geometry": { "type": "Point", "coordinates": [ 130.2433294, 33.3123104 ] } },
{ "type": "Feature", "properties": { "内容": "特別養護老人ホーム　ケアポート晴寿【介護老人福祉施設】佐賀県佐賀市高木瀬町東高木1170", "url": "https://www.kaigokensaku.mhlw.go.jp/41/index.php?action_kouhyou_detail_004_kani=true&JigyosyoCd=4170100012-00&ServiceCd=510&Type=search", "url2": "http://www.seijyukai.com/" }, "geometry": { "type": "Point", "coordinates": [ 130.299046344319066, 33.287480901321487 ] } },
{ "type": "Feature", "properties": { "内容": "特別養護老人ホーム　桂寿苑【介護老人福祉施設】久保泉町大字川久保１９８６番地1", "url": "https://www.kaigokensaku.mhlw.go.jp/41/index.php?action_kouhyou_detail_004_kani=true&JigyosyoCd=4170100020-00&ServiceCd=510&Type=search", "url2": "http://www.ryoyuukai.jp" }, "geometry": { "type": "Point", "coordinates": [ 130.318565066795372, 33.322277511637779 ] } },
{ "type": "Feature", "properties": { "内容": "特別養護老人ホーム　つぼみ荘【介護老人福祉施設】佐賀市北川副町光法1480-2", "url": "https://www.kaigokensaku.mhlw.go.jp/41/index.php?action_kouhyou_detail_004_kani=true&JigyosyoCd=4170100103-00&ServiceCd=510&Type=search", "url2": "http://www.tsubomi-sou.jp" }, "geometry": { "type": "Point", "coordinates": [ 130.331258400000024, 33.2321383 ] } },
{ "type": "Feature", "properties": { "内容": "特別養護老人ホーム　春庵【介護老人福祉施設】佐賀県佐賀市鍋島町蛎久１３１３番地", "url": "https://www.kaigokensaku.mhlw.go.jp/41/index.php?action_kouhyou_detail_004_kani=true&JigyosyoCd=4170101044-00&ServiceCd=510&Type=search", "url2": "http://www.2006shunan.sakura.ne.jp" }, "geometry": { "type": "Point", "coordinates": [ 130.280577900000026, 33.2879155 ] } },
{ "type": "Feature", "properties": { "内容": "特別養護老人ホーム　ロザリオの園　ユニット【介護老人福祉施設】佐賀県佐賀市大和町大字久池井1386番地2", "url": "https://www.kaigokensaku.mhlw.go.jp/41/index.php?action_kouhyou_detail_004_kani=true&JigyosyoCd=4170103156-00&ServiceCd=510&Type=search", "url2": "rosaryo@vip.saganet.ne.jp" }, "geometry": { "type": "Point", "coordinates": [ 130.288419400000066, 33.325765 ] } },
{ "type": "Feature", "properties": { "内容": "特別養護老人ホーム　ロザリオの園【介護老人福祉施設】佐賀県佐賀市大和町大字久池井1386-2", "url": "https://www.kaigokensaku.mhlw.go.jp/41/index.php?action_kouhyou_detail_004_kani=true&JigyosyoCd=4171000013-00&ServiceCd=510&Type=search", "url2": "http://www.rosaryo.jp/" }, "geometry": { "type": "Point", "coordinates": [ 130.288170700000023, 33.3257233 ] } },
{ "type": "Feature", "properties": { "内容": "特別養護老人ホーム　南鴎荘【介護老人福祉施設】佐賀市久保田町大字久富３４５９番地２", "url": "https://www.kaigokensaku.mhlw.go.jp/41/index.php?action_kouhyou_detail_004_kani=true&JigyosyoCd=4171000039-00&ServiceCd=510&Type=search", "url2": "https://www.nanousou.com" }, "geometry": { "type": "Point", "coordinates": [ 130.238202600000022, 33.2195266 ] } },
{ "type": "Feature", "properties": { "内容": "介護老人福祉施設なごみ荘【介護老人福祉施設】佐賀市富士町大字小副川５６２", "url": "https://www.kaigokensaku.mhlw.go.jp/41/index.php?action_kouhyou_detail_004_kani=true&JigyosyoCd=4171000047-00&ServiceCd=510&Type=search", "url2": "https://www.kenjyu-nagomi.jp" }, "geometry": { "type": "Point", "coordinates": [ 130.244162946032674, 33.365271777355211 ] } },
{ "type": "Feature", "properties": { "内容": "特別養護老人ホームけやき荘【介護老人福祉施設】佐賀県佐賀市川副町大字福富866－1", "url": "https://www.kaigokensaku.mhlw.go.jp/41/index.php?action_kouhyou_detail_004_kani=true&JigyosyoCd=4171000054-00&ServiceCd=510&Type=search", "url2": "http://www.keyakisou.or.jp/" }, "geometry": { "type": "Point", "coordinates": [ 130.32128160000002, 33.213462200000016 ] } },
{ "type": "Feature", "properties": { "内容": "特別養護老人ホーム　福壽園【介護老人福祉施設】佐賀県佐賀市諸富町大字諸富津２０９番地３", "url": "https://www.kaigokensaku.mhlw.go.jp/41/index.php?action_kouhyou_detail_004_kani=true&JigyosyoCd=4171000096-00&ServiceCd=510&Type=search", "url2": "https://fukujukaisaga.com/" }, "geometry": { "type": "Point", "coordinates": [ 130.360997099999963, 33.2197317 ] } },
{ "type": "Feature", "properties": { "内容": "介護老人福祉施設　シルバーケア三瀬【介護老人福祉施設】佐賀県佐賀市三瀬村三瀬38番地1", "url": "https://www.kaigokensaku.mhlw.go.jp/41/index.php?action_kouhyou_detail_004_kani=true&JigyosyoCd=4171100045-00&ServiceCd=510&Type=search", "url2": "http://www.saganet.ne.jp/KEIAIKAI/" }, "geometry": { "type": "Point", "coordinates": [ 130.270790600000026, 33.4378293 ] } },
{ "type": "Feature", "properties": { "内容": "特別養護老人ホーム栄荘【介護老人福祉施設】佐賀県唐津市栄町2588-19", "url": "https://www.kaigokensaku.mhlw.go.jp/41/index.php?action_kouhyou_detail_004_kani=true&JigyosyoCd=4170200028-00&ServiceCd=510&Type=search", "url2": "http://k-fukushikai.jp/sakae_gaiyou.html" }, "geometry": { "type": "Point", "coordinates": [ 129.976963500000011, 33.4493601 ] } },
{ "type": "Feature", "properties": { "内容": "指定介護老人福祉施設めずら荘【介護老人福祉施設】佐賀県唐津市東唐津4丁目7-26", "url": "https://www.kaigokensaku.mhlw.go.jp/41/index.php?action_kouhyou_detail_004_kani=true&JigyosyoCd=4170200093-00&ServiceCd=510&Type=search", "url2": "http://mezurasou.jp/" }, "geometry": { "type": "Point", "coordinates": [ 129.988665088682552, 33.448915256713448 ] } },
{ "type": "Feature", "properties": { "内容": "特別養護老人ホームみなと園【介護老人福祉施設】佐賀県唐津市湊町4290-1", "url": "https://www.kaigokensaku.mhlw.go.jp/41/index.php?action_kouhyou_detail_004_kani=true&JigyosyoCd=4170200739-00&ServiceCd=510&Type=search", "url2": "http://www.shofukai-saga.com/index.html" }, "geometry": { "type": "Point", "coordinates": [ 129.945040799999987, 33.5273043 ] } },
{ "type": "Feature", "properties": { "内容": "特別養護老人ホームちぐさの【介護老人福祉施設】唐津市北波多徳須恵1201-1", "url": "https://www.kaigokensaku.mhlw.go.jp/41/index.php?action_kouhyou_detail_004_kani=true&JigyosyoCd=4170200796-00&ServiceCd=510&Type=search", "url2": "http://otakaro.wixsite.com/takachihoen" }, "geometry": { "type": "Point", "coordinates": [ 129.9467998, 33.3735265 ] } },
{ "type": "Feature", "properties": { "内容": "介護老人福祉施設　浜玉荘【介護老人福祉施設】佐賀県唐津市浜玉町東山田2399番地", "url": "https://www.kaigokensaku.mhlw.go.jp/41/index.php?action_kouhyou_detail_004_kani=true&JigyosyoCd=4170201315-00&ServiceCd=510&Type=search", "url2": "http://k-fukushikai/h_about_riyou.html" }, "geometry": { "type": "Point", "coordinates": [ 130.045613600000024, 33.4300291 ] } },
{ "type": "Feature", "properties": { "内容": "特別養護老人ホーム宝寿荘【介護老人福祉施設】唐津市呼子町殿ノ浦797番地23", "url": "https://www.kaigokensaku.mhlw.go.jp/41/index.php?action_kouhyou_detail_004_kani=true&JigyosyoCd=4170201406-00&ServiceCd=510&Type=search", "url2": "ｋ－fukushikai.jp" }, "geometry": { "type": "Point", "coordinates": [ 129.889237200000025, 33.531855 ] } },
{ "type": "Feature", "properties": { "内容": "介護老人福祉施設　浜玉荘ユニット型【介護老人福祉施設】佐賀県唐津市浜玉町東山田２３９９番地", "url": "https://www.kaigokensaku.mhlw.go.jp/41/index.php?action_kouhyou_detail_004_kani=true&JigyosyoCd=4171400049-00&ServiceCd=510&Type=search", "url2": "http://k-fukushikai/h_about_riyou.html" }, "geometry": { "type": "Point", "coordinates": [ 130.045613600000024, 33.4300291 ] } },
{ "type": "Feature", "properties": { "内容": "特別養護老人ホーム作礼荘【介護老人福祉施設】佐賀県唐津市相知町中山3544番地1", "url": "https://www.kaigokensaku.mhlw.go.jp/41/index.php?action_kouhyou_detail_004_kani=true&JigyosyoCd=4171400072-00&ServiceCd=510&Type=search", "url2": "http://www.k-fukushikai.jp" }, "geometry": { "type": "Point", "coordinates": [ 130.015995100000026, 33.3509978 ] } },
{ "type": "Feature", "properties": { "内容": "社会福祉法人唐津福祉会　特別養護老人ホーム潮荘【介護老人福祉施設】佐賀県唐津市鎮西町打上3075番地1", "url": "https://www.kaigokensaku.mhlw.go.jp/41/index.php?action_kouhyou_detail_004_kani=true&JigyosyoCd=4171400106-00&ServiceCd=510&Type=search", "url2": "http://www.k-fukushikai.jp/" }, "geometry": { "type": "Point", "coordinates": [ 129.901211200000034, 33.5166544 ] } },
{ "type": "Feature", "properties": { "内容": "特別養護老人ホーム岬荘【介護老人福祉施設】佐賀県唐津市肥前町鶴牧106番地11", "url": "https://www.kaigokensaku.mhlw.go.jp/41/index.php?action_kouhyou_detail_004_kani=true&JigyosyoCd=4171400171-00&ServiceCd=510&Type=search", "url2": "www.k-fukushikai.jp/" }, "geometry": { "type": "Point", "coordinates": [ 129.835607399999958, 33.4485187 ] } },
{ "type": "Feature", "properties": { "内容": "介護老人福祉施設　真心の園【介護老人福祉施設】佐賀県鳥栖市村田町1250番地1", "url": "https://www.kaigokensaku.mhlw.go.jp/41/index.php?action_kouhyou_detail_004_kani=true&JigyosyoCd=4170300034-00&ServiceCd=510&Type=search", "url2": "http://www.magokoro.or.jp" }, "geometry": { "type": "Point", "coordinates": [ 130.478230211639385, 33.364705587121151 ] } },
{ "type": "Feature", "properties": { "内容": "社会福祉法人健翔会　特別養護老人ホームひまわりの園【介護老人福祉施設】佐賀県鳥栖市田代本町924-1", "url": "https://www.kaigokensaku.mhlw.go.jp/41/index.php?action_kouhyou_detail_004_kani=true&JigyosyoCd=4170300042-00&ServiceCd=510&Type=search", "url2": "http://www.kensyoukai.or.jp" }, "geometry": { "type": "Point", "coordinates": [ 130.518192799999952, 33.3944258 ] } },
{ "type": "Feature", "properties": { "内容": "特別養護老人ホーム寿楽園【介護老人福祉施設】佐賀県鳥栖市弥生が丘二丁目146番地1", "url": "https://www.kaigokensaku.mhlw.go.jp/41/index.php?action_kouhyou_detail_004_kani=true&JigyosyoCd=4171200043-00&ServiceCd=510&Type=search", "url2": "http://www.jurakuen.jp/" }, "geometry": { "type": "Point", "coordinates": [ 130.523007400000012, 33.404794099999982 ] } },
{ "type": "Feature", "properties": { "内容": "特別養護老人ホーム　天寿荘【介護老人福祉施設】佐賀県多久市北多久町大字小侍640番地１", "url": "https://www.kaigokensaku.mhlw.go.jp/41/index.php?action_kouhyou_detail_004_kani=true&JigyosyoCd=4170400305-00&ServiceCd=510&Type=search", "url2": "http://www.tenjyukai.com" }, "geometry": { "type": "Point", "coordinates": [ 130.101107569064339, 33.289809390558986 ] } },
{ "type": "Feature", "properties": { "内容": "特別養護老人ホーム　敬愛園【介護老人福祉施設】佐賀県伊万里市黒川町大黒川2201番地", "url": "https://www.kaigokensaku.mhlw.go.jp/41/index.php?action_kouhyou_detail_004_kani=true&JigyosyoCd=4170500039-00&ServiceCd=510&Type=search", "url2": "http://imari-keiaikai.com" }, "geometry": { "type": "Point", "coordinates": [ 129.870135655325385, 33.333181171323446 ] } },
{ "type": "Feature", "properties": { "内容": "特別養護老人ホーム　グランパランいまり【介護老人福祉施設】佐賀県伊万里市大坪町乙1579番地2", "url": "https://www.kaigokensaku.mhlw.go.jp/41/index.php?action_kouhyou_detail_004_kani=true&JigyosyoCd=4170500286-00&ServiceCd=510&Type=search", "url2": "http://kashinkai.or.jp" }, "geometry": { "type": "Point", "coordinates": [ 129.896309200000019, 33.2745712 ] } },
{ "type": "Feature", "properties": { "内容": "長生園【介護老人福祉施設】佐賀県伊万里市立花町２７０３番地２", "url": "https://www.kaigokensaku.mhlw.go.jp/41/index.php?action_kouhyou_detail_004_kani=true&JigyosyoCd=4170500013-00&ServiceCd=510&Type=search", "url2": "http://chousei-imari.jp" }, "geometry": { "type": "Point", "coordinates": [ 129.89025220000002, 33.264877 ] } },
{ "type": "Feature", "properties": { "内容": "特別養護老人ホーム御船荘【介護老人福祉施設】佐賀県武雄市東川登町大字永野3494番地1", "url": "https://www.kaigokensaku.mhlw.go.jp/41/index.php?action_kouhyou_detail_004_kani=true&JigyosyoCd=4170600029-00&ServiceCd=510&Type=search", "url2": "https://takeo-seiwafukushikai.jp/" }, "geometry": { "type": "Point", "coordinates": [ 130.017386768925491, 33.164970908516878 ] } },
{ "type": "Feature", "properties": { "内容": "特別養護老人ホーム　そよかぜの杜【介護老人福祉施設】佐賀県武雄市山内町大字大野7045番地", "url": "https://www.kaigokensaku.mhlw.go.jp/41/index.php?action_kouhyou_detail_004_kani=true&JigyosyoCd=4171600069-00&ServiceCd=510&Type=search", "url2": "https://www.seiwafukushikai.net/" }, "geometry": { "type": "Point", "coordinates": [ 129.9350154, 33.2058735 ] } },
{ "type": "Feature", "properties": { "内容": "特別養護老人ホーム杏花苑【介護老人福祉施設】佐賀県武雄市北方町大字志久4641-26", "url": "https://www.kaigokensaku.mhlw.go.jp/41/index.php?action_kouhyou_detail_004_kani=true&JigyosyoCd=4171600085-00&ServiceCd=510&Type=search", "url2": "https://kyokaen.wixsite.com/nicelandkitagata" }, "geometry": { "type": "Point", "coordinates": [ 130.084959747684849, 33.22147980124619 ] } },
{ "type": "Feature", "properties": { "内容": "特別養護老人ホーム　ひいらぎ【介護老人福祉施設】佐賀県武雄市武内町大字真手野２６３４６番地", "url": "https://www.kaigokensaku.mhlw.go.jp/41/index.php?action_kouhyou_detail_004_kani=true&JigyosyoCd=4170600128-00&ServiceCd=510&Type=search", "url2": "http://www.tokurou.com" }, "geometry": { "type": "Point", "coordinates": [ 129.970431800000028, 33.2454259 ] } },
{ "type": "Feature", "properties": { "内容": "特別養護老人ホーム　好日の園【介護老人福祉施設】佐賀県鹿島市古枝乙1035番地2", "url": "https://www.kaigokensaku.mhlw.go.jp/41/index.php?action_kouhyou_detail_004_kani=true&JigyosyoCd=4170700027-00&ServiceCd=510&Type=search", "url2": "https://www.koujitu.or.jp/" }, "geometry": { "type": "Point", "coordinates": [ 130.112687398178082, 33.07430230122641 ] } },
{ "type": "Feature", "properties": { "内容": "特別養護老人ホーム清水園【介護老人福祉施設】佐賀県小城市小城町773番地", "url": "https://www.kaigokensaku.mhlw.go.jp/41/index.php?action_kouhyou_detail_004_kani=true&JigyosyoCd=4171300017-00&ServiceCd=510&Type=search", "url2": "http://wwwkiyonet@star.saganet.ne.jp" }, "geometry": { "type": "Point", "coordinates": [ 130.2058155, 33.30077 ] } },
{ "type": "Feature", "properties": { "内容": "特別養護老人ホーム　鳳寿苑【介護老人福祉施設】佐賀県小城市甲柳原６８番地１", "url": "https://www.kaigokensaku.mhlw.go.jp/41/index.php?action_kouhyou_detail_004_kani=true&JigyosyoCd=4171300025-00&ServiceCd=510&Type=search", "url2": "http://jikeikai.saga.jp/" }, "geometry": { "type": "Point", "coordinates": [ 130.209889400000066, 33.2726452 ] } },
{ "type": "Feature", "properties": { "内容": "特別養護老人ホーム　あしはらの園【介護老人福祉施設】佐賀県小城市芦刈町三王崎1523番地", "url": "https://www.kaigokensaku.mhlw.go.jp/41/index.php?action_kouhyou_detail_004_kani=true&JigyosyoCd=4171300108-00&ServiceCd=510&Type=search", "url2": "https://rikushinfukushikai.com/" }, "geometry": { "type": "Point", "coordinates": [ 130.207226922090172, 33.224849962438554 ] } },
{ "type": "Feature", "properties": { "内容": "特別養護老人ホーム　済昭園【介護老人福祉施設】佐賀県嬉野市塩田町大字五町田甲3432番地3", "url": "https://www.kaigokensaku.mhlw.go.jp/41/index.php?action_kouhyou_detail_004_kani=true&JigyosyoCd=4171700018-00&ServiceCd=510&Type=search", "url2": "http://www.saisyouen.jp" }, "geometry": { "type": "Point", "coordinates": [ 130.057326399999965, 33.122407700000039 ] } },
{ "type": "Feature", "properties": { "内容": "特別養護老人ホームうれしの【介護老人福祉施設】佐賀県嬉野市嬉野町大字下宿甲2088番地", "url": "https://www.kaigokensaku.mhlw.go.jp/41/index.php?action_kouhyou_detail_004_kani=true&JigyosyoCd=4171700059-00&ServiceCd=510&Type=search", "url2": "http://tokuyou-ureshino.jp/" }, "geometry": { "type": "Point", "coordinates": [ 129.992402500000026, 33.111745 ] } },
{ "type": "Feature", "properties": { "内容": "特別養護老人ホーム済昭園・清涼館【介護老人福祉施設】佐賀県嬉野市塩田町大字五町田甲７７番地", "url": "https://www.kaigokensaku.mhlw.go.jp/41/index.php?action_kouhyou_detail_004_kani=true&JigyosyoCd=4171700117-00&ServiceCd=510&Type=search", "url2": "http://www.saisyouen.jp" }, "geometry": { "type": "Point", "coordinates": [ 130.062403099999983, 33.1253621 ] } },
{ "type": "Feature", "properties": { "内容": "こすもす苑【介護老人福祉施設】佐賀県神埼市千代田町詫田９８３番地", "url": "https://www.kaigokensaku.mhlw.go.jp/41/index.php?action_kouhyou_detail_004_kani=true&JigyosyoCd=4171100011-00&ServiceCd=510&Type=search", "url2": "https://cosmosen.com" }, "geometry": { "type": "Point", "coordinates": [ 130.378439, 33.2673805 ] } },
{ "type": "Feature", "properties": { "内容": "佐賀整肢学園　かんざき清流苑【介護老人福祉施設】佐賀県神埼市神埼町鶴２９２７番地２", "url": "https://www.kaigokensaku.mhlw.go.jp/41/index.php?action_kouhyou_detail_004_kani=true&JigyosyoCd=4171100037-00&ServiceCd=510&Type=search", "url2": "http://k-seiryu.wixsite.com/mysite" }, "geometry": { "type": "Point", "coordinates": [ 130.3700351, 33.3221697 ] } },
{ "type": "Feature", "properties": { "内容": "特別養護老人ホーム昌普久苑【介護老人福祉施設】神埼市脊振町鹿路２２９０番地６", "url": "https://www.kaigokensaku.mhlw.go.jp/41/index.php?action_kouhyou_detail_004_kani=true&JigyosyoCd=4171100128-00&ServiceCd=510&Type=search", "url2": "https://m-fukushi.com/" }, "geometry": { "type": "Point", "coordinates": [ 130.317982499999971, 33.3733116 ] } },
{ "type": "Feature", "properties": { "内容": "特別養護老人ホーム　シルバーケア吉野ヶ里【介護老人福祉施設】佐賀県神埼郡吉野ヶ里町大字吉田1493番地1", "url": "https://www.kaigokensaku.mhlw.go.jp/41/index.php?action_kouhyou_detail_004_kani=true&JigyosyoCd=4171100201-00&ServiceCd=510&Type=search", "url2": "https://www.silvercare-yoshinogari.com/" }, "geometry": { "type": "Point", "coordinates": [ 130.396216399999958, 33.331708100000021 ] } },
{ "type": "Feature", "properties": { "内容": "特別養護老人ホームプルメリア【介護老人福祉施設】佐賀県三養基郡上峰町大字前牟田１８９６番地", "url": "https://www.kaigokensaku.mhlw.go.jp/41/index.php?action_kouhyou_detail_004_kani=true&JigyosyoCd=4171200696-00&ServiceCd=510&Type=search", "url2": "https://www.gajumaru.or.jp/" }, "geometry": { "type": "Point", "coordinates": [ 130.418225799999959, 33.3134598 ] } },
{ "type": "Feature", "properties": { "内容": "特別養護老人ホーム　　なかばる紀水苑【介護老人福祉施設】佐賀県三養基郡みやき町大字簑原４２６０番地特別養護老人ホーム　なかばる紀水苑", "url": "https://www.kaigokensaku.mhlw.go.jp/41/index.php?action_kouhyou_detail_004_kani=true&JigyosyoCd=4171200191-00&ServiceCd=510&Type=search", "url2": "http://kisuikai.net/" }, "geometry": { "type": "Point", "coordinates": [ 130.450637535551436, 33.363839562007222 ] } },
{ "type": "Feature", "properties": { "内容": "特別養護老人ホーム　花のみね【介護老人福祉施設】佐賀県三養基郡みやき町大字西島２７３０番地１", "url": "https://www.kaigokensaku.mhlw.go.jp/41/index.php?action_kouhyou_detail_004_kani=true&JigyosyoCd=4171200209-00&ServiceCd=510&Type=search", "url2": "https：//peraichi.com/landing_pages/view/mirai‐hananomine1" }, "geometry": { "type": "Point", "coordinates": [ 130.450996600000053, 33.3044642 ] } },
{ "type": "Feature", "properties": { "内容": "特別養護老人ホーム　花のみね弐番館【介護老人福祉施設】佐賀県三養基郡みやき町大字中津隈5919番地", "url": "https://www.kaigokensaku.mhlw.go.jp/41/index.php?action_kouhyou_detail_004_kani=true&JigyosyoCd=4171200365-00&ServiceCd=510&Type=search", "url2": "http://www.fuku-mirai.com" }, "geometry": { "type": "Point", "coordinates": [ 130.446215922537277, 33.323824023195371 ] } },
{ "type": "Feature", "properties": { "内容": "特別養護老人ホーム　玄海園【介護老人福祉施設】佐賀県東松浦郡玄海町大字平尾432-8", "url": "https://www.kaigokensaku.mhlw.go.jp/41/index.php?action_kouhyou_detail_004_kani=true&JigyosyoCd=4171400098-00&ServiceCd=510&Type=search", "url2": "http://www.tenjyukai.com" }, "geometry": { "type": "Point", "coordinates": [ 129.849907499999972, 33.4937474 ] } },
{ "type": "Feature", "properties": { "内容": "伊万里・有田地区特別養護老人ホーム｢くにみ｣【介護老人福祉施設】佐賀県西松浦郡有田町立部乙2460番地", "url": "https://www.kaigokensaku.mhlw.go.jp/41/index.php?action_kouhyou_detail_004_kani=true&JigyosyoCd=4171500038-00&ServiceCd=510&Type=search", "url2": "http://aritakunimi.com/" }, "geometry": { "type": "Point", "coordinates": [ 129.847964400000023, 33.2102356 ] } },
{ "type": "Feature", "properties": { "内容": "特別養護老人ホーム　それいゆホームズ【介護老人福祉施設】佐賀県西松浦郡有田町二ノ瀬甲1250番地1", "url": "https://www.kaigokensaku.mhlw.go.jp/41/index.php?action_kouhyou_detail_004_kani=true&JigyosyoCd=4171500053-00&ServiceCd=510&Type=search", "url2": "http://www.jikou-kai.net/" }, "geometry": { "type": "Point", "coordinates": [ 129.85731, 33.2353217 ] } },
{ "type": "Feature", "properties": { "内容": "社会福祉法人　慈光会　特別養護老人施設　りんでんホームズ【介護老人福祉施設】佐賀県西松浦郡有田町戸矢乙614-1", "url": "https://www.kaigokensaku.mhlw.go.jp/41/index.php?action_kouhyou_detail_004_kani=true&JigyosyoCd=4171500087-00&ServiceCd=510&Type=search", "url2": "http://www.jikou-kai.net/ｒinden/index.html" }, "geometry": { "type": "Point", "coordinates": [ 129.899439, 33.1622573 ] } },
{ "type": "Feature", "properties": { "内容": "特別養護老人ホーム　すみれ園【介護老人福祉施設】佐賀県杵島郡大町町大字福母3031-1", "url": "https://www.kaigokensaku.mhlw.go.jp/41/index.php?action_kouhyou_detail_004_kani=true&JigyosyoCd=4171600010-00&ServiceCd=510&Type=search", "url2": "https://seijinkai-sumireen.com" }, "geometry": { "type": "Point", "coordinates": [ 130.101158889549197, 33.219124977034078 ] } },
{ "type": "Feature", "properties": { "内容": "特別養護老人ホーム　るんびに園【介護老人福祉施設】佐賀県杵島郡江北町大字惣領分４１５３", "url": "https://www.kaigokensaku.mhlw.go.jp/41/index.php?action_kouhyou_detail_004_kani=true&JigyosyoCd=4171600036-00&ServiceCd=510&Type=search", "url2": "https://jizankai.jp" }, "geometry": { "type": "Point", "coordinates": [ 130.1766404, 33.2276056 ] } },
{ "type": "Feature", "properties": { "内容": "特別養護老人ホーム桜の園【介護老人福祉施設】佐賀県杵島郡白石町大字福富下分２３８７番地３", "url": "https://www.kaigokensaku.mhlw.go.jp/41/index.php?action_kouhyou_detail_004_kani=true&JigyosyoCd=4171600028-00&ServiceCd=510&Type=search", "url2": "http://www.sakuranosono.biz" }, "geometry": { "type": "Point", "coordinates": [ 130.198991799999931, 33.1922521 ] } },
{ "type": "Feature", "properties": { "内容": "特別養護老人ホーム歌垣之園【介護老人福祉施設】佐賀県杵島郡白石町大字大渡６００番地１", "url": "https://www.kaigokensaku.mhlw.go.jp/41/index.php?action_kouhyou_detail_004_kani=true&JigyosyoCd=4171600044-00&ServiceCd=510&Type=search", "url2": "http://www.cableone.ne.jp/~utagaki-sato" }, "geometry": { "type": "Point", "coordinates": [ 130.103307783881917, 33.198687987689368 ] } },
{ "type": "Feature", "properties": { "内容": "特別養護老人ホーム　光風荘【介護老人福祉施設】佐賀県藤津郡太良町大字多良1849番地9", "url": "https://www.kaigokensaku.mhlw.go.jp/41/index.php?action_kouhyou_detail_004_kani=true&JigyosyoCd=4171700026-00&ServiceCd=510&Type=search", "url2": null }, "geometry": { "type": "Point", "coordinates": [ 130.178823062565584, 33.028046207354571 ] } }
]
}
