{
"type": "FeatureCollection",
"name": "geo_41_認知症対応型通所介護",
"crs": { "type": "name", "properties": { "name": "urn:ogc:def:crs:OGC:1.3:CRS84" } },
"features": [
{ "type": "Feature", "properties": { "内容": "きんりゅうケアセンター桂寿苑　認知症対応型通所介護【認知症対応型通所介護】佐賀市金立町大字千布４０８８‐１", "url": "https://www.kaigokensaku.mhlw.go.jp/41/index.php?action_kouhyou_detail_004_kani=true&JigyosyoCd=4190100133-00&ServiceCd=720&Type=search", "url2": "http://www.ryouyuukai.jp" }, "geometry": { "type": "Point", "coordinates": [ 130.297306899999967, 33.2981177 ] } },
{ "type": "Feature", "properties": { "内容": "認知症対応型通所介護　デイサービス　おそえがわ【認知症対応型通所介護】神園三丁目４－５", "url": "https://www.kaigokensaku.mhlw.go.jp/41/index.php?action_kouhyou_detail_004_kani=true&JigyosyoCd=4190100141-00&ServiceCd=720&Type=search", "url2": "http://osoegawa.esaga.jp/" }, "geometry": { "type": "Point", "coordinates": [ 130.284925499999986, 33.2653286 ] } },
{ "type": "Feature", "properties": { "内容": "デイサービス　びゃくしん【認知症対応型通所介護】佐賀県佐賀市諸富町大字大堂　937-3", "url": "https://www.kaigokensaku.mhlw.go.jp/41/index.php?action_kouhyou_detail_004_kani=true&JigyosyoCd=4190100323-00&ServiceCd=720&Type=search", "url2": "http://www.moriyama-clinic.com" }, "geometry": { "type": "Point", "coordinates": [ 130.355457727278093, 33.237280609440305 ] } },
{ "type": "Feature", "properties": { "内容": "認知症対応型通所介護事業所グループデイわいわい【認知症対応型通所介護】金立町大字金立799番地", "url": "https://www.kaigokensaku.mhlw.go.jp/41/index.php?action_kouhyou_detail_004_kani=true&JigyosyoCd=4190100364-00&ServiceCd=720&Type=search", "url2": "https://sakou21.jp/" }, "geometry": { "type": "Point", "coordinates": [ 130.303491281367542, 33.324185677431352 ] } },
{ "type": "Feature", "properties": { "内容": "認知症対応型通所介護事業所　ここち庵【認知症対応型通所介護】佐賀県唐津市久里295‐1", "url": "https://www.kaigokensaku.mhlw.go.jp/41/index.php?action_kouhyou_detail_004_kani=true&JigyosyoCd=4190200164-00&ServiceCd=720&Type=search", "url2": null }, "geometry": { "type": "Point", "coordinates": [ 129.991307099999972, 33.4027327 ] } },
{ "type": "Feature", "properties": { "内容": "デイサービスセンター　こころ　2号棟（認知症専用棟）【認知症対応型通所介護】佐賀県唐津市佐志86", "url": "https://www.kaigokensaku.mhlw.go.jp/41/index.php?action_kouhyou_detail_004_kani=true&JigyosyoCd=4190200016-00&ServiceCd=720&Type=search", "url2": null }, "geometry": { "type": "Point", "coordinates": [ 129.94097627468264, 33.453156848146982 ] } },
{ "type": "Feature", "properties": { "内容": "認知症対応型通所介護事業所　デイサービス鏡【認知症対応型通所介護】佐賀県唐津市鏡2838-2", "url": "https://www.kaigokensaku.mhlw.go.jp/41/index.php?action_kouhyou_detail_004_kani=true&JigyosyoCd=4190200131-00&ServiceCd=720&Type=search", "url2": "http://karatsu-kaigo.com/karatsu-first-hospital/" }, "geometry": { "type": "Point", "coordinates": [ 130.002306099999942, 33.4294912 ] } },
{ "type": "Feature", "properties": { "内容": "デイサービスセンターほほえみ夢工房【認知症対応型通所介護】佐賀県鳥栖市田代外町６１２－７", "url": "https://www.kaigokensaku.mhlw.go.jp/41/index.php?action_kouhyou_detail_004_kani=true&JigyosyoCd=4190300048-00&ServiceCd=720&Type=search", "url2": "http://www.geocities.jp/hohoemidream/w.htm" }, "geometry": { "type": "Point", "coordinates": [ 130.519811376686448, 33.385335993729385 ] } },
{ "type": "Feature", "properties": { "内容": "認知デイお元気てらす【認知症対応型通所介護】鳥栖市宿町門戸口1399-1", "url": "https://www.kaigokensaku.mhlw.go.jp/41/index.php?action_kouhyou_detail_004_kani=true&JigyosyoCd=4170300174-00&ServiceCd=720&Type=search", "url2": "http://www5f.biglobe.ne.jp/~ogenki/" }, "geometry": { "type": "Point", "coordinates": [ 130.503562, 33.3775608 ] } },
{ "type": "Feature", "properties": { "内容": "多機能ホームふるさと伊万里【認知症対応型通所介護】南波多町大川原4224-4", "url": "https://www.kaigokensaku.mhlw.go.jp/41/index.php?action_kouhyou_detail_004_kani=true&JigyosyoCd=4190500027-00&ServiceCd=720&Type=search", "url2": "http://gh-imari.com" }, "geometry": { "type": "Point", "coordinates": [ 129.93413839999991, 33.311552300000038 ] } },
{ "type": "Feature", "properties": { "内容": "多機能ホーム伊万里【認知症対応型通所介護】佐賀県伊万里市二里町八谷搦７８１－１", "url": "https://www.kaigokensaku.mhlw.go.jp/41/index.php?action_kouhyou_detail_004_kani=true&JigyosyoCd=4190500043-00&ServiceCd=720&Type=search", "url2": "http://gh-imari.com" }, "geometry": { "type": "Point", "coordinates": [ 129.859982, 33.2714258 ] } },
{ "type": "Feature", "properties": { "内容": "認知症対応型通所介護事業所爽風館【認知症対応型通所介護】武雄市山内町大字三間坂甲１４０４３番地", "url": "https://www.kaigokensaku.mhlw.go.jp/41/index.php?action_kouhyou_detail_004_kani=true&JigyosyoCd=4190600058-00&ServiceCd=720&Type=search", "url2": null }, "geometry": { "type": "Point", "coordinates": [ 129.954969799999958, 33.1915748 ] } },
{ "type": "Feature", "properties": { "内容": "デイサービスふれあいの里たちばな【認知症対応型通所介護】佐賀県武雄市橘町大字片白425-2", "url": "https://www.kaigokensaku.mhlw.go.jp/41/index.php?action_kouhyou_detail_004_kani=true&JigyosyoCd=4190600207-00&ServiceCd=720&Type=search", "url2": null }, "geometry": { "type": "Point", "coordinates": [ 130.0607469, 33.1907651 ] } },
{ "type": "Feature", "properties": { "内容": "小規模デイサービス　さざんか【認知症対応型通所介護】佐賀県鹿島市大字中村2111番地1", "url": "https://www.kaigokensaku.mhlw.go.jp/41/index.php?action_kouhyou_detail_004_kani=true&JigyosyoCd=4190700023-00&ServiceCd=720&Type=search", "url2": "https://shidahp.com" }, "geometry": { "type": "Point", "coordinates": [ 130.0979007141556, 33.119197801053673 ] } },
{ "type": "Feature", "properties": { "内容": "デイサービスゆうあい旭ヶ岡【認知症対応型通所介護】佐賀県鹿島市大字高津原362-1", "url": "https://www.kaigokensaku.mhlw.go.jp/41/index.php?action_kouhyou_detail_004_kani=true&JigyosyoCd=4190700189-00&ServiceCd=720&Type=search", "url2": "http://www.yuaivillage.com" }, "geometry": { "type": "Point", "coordinates": [ 130.092498299999988, 33.1003316 ] } },
{ "type": "Feature", "properties": { "内容": "デイサービスゆうあいさくら通り【認知症対応型通所介護】佐賀県鹿島市大字高津原3968番地1", "url": "https://www.kaigokensaku.mhlw.go.jp/41/index.php?action_kouhyou_detail_004_kani=true&JigyosyoCd=4190700197-00&ServiceCd=720&Type=search", "url2": "http://www.yuaivillage.com" }, "geometry": { "type": "Point", "coordinates": [ 130.0949498, 33.1102602 ] } },
{ "type": "Feature", "properties": { "内容": "デイサービスゆうあい古枝【認知症対応型通所介護】鹿島市古枝甲999番地11", "url": "https://www.kaigokensaku.mhlw.go.jp/41/index.php?action_kouhyou_detail_004_kani=true&JigyosyoCd=4190700205-00&ServiceCd=720&Type=search", "url2": "http://www.yuaivillage.com" }, "geometry": { "type": "Point", "coordinates": [ 130.108845, 33.0787703 ] } },
{ "type": "Feature", "properties": { "内容": "デイサービスゆうあい七浦【認知症対応型通所介護】鹿島市大字音成甲5069番地9", "url": "https://www.kaigokensaku.mhlw.go.jp/41/index.php?action_kouhyou_detail_004_kani=true&JigyosyoCd=4190700213-00&ServiceCd=720&Type=search", "url2": "http://www.yuaivillage.com" }, "geometry": { "type": "Point", "coordinates": [ 130.143075900000014, 33.077952 ] } },
{ "type": "Feature", "properties": { "内容": "認知症対応型デイサービスセンター　清水園【認知症対応型通所介護】佐賀県小城市小城町８２６番地１", "url": "https://www.kaigokensaku.mhlw.go.jp/41/index.php?action_kouhyou_detail_004_kani=true&JigyosyoCd=4191300039-00&ServiceCd=720&Type=search", "url2": "http:\\\\wwwkiyonet@star.saganet.ne.jp" }, "geometry": { "type": "Point", "coordinates": [ 130.205968699999971, 33.3002513 ] } },
{ "type": "Feature", "properties": { "内容": "デイサービス　ゆとり苑【認知症対応型通所介護】佐賀県小城市三日月町甲柳原170番地2", "url": "https://www.kaigokensaku.mhlw.go.jp/41/index.php?action_kouhyou_detail_004_kani=true&JigyosyoCd=4191300062-00&ServiceCd=720&Type=search", "url2": null }, "geometry": { "type": "Point", "coordinates": [ 130.210044899999957, 33.2738451 ] } },
{ "type": "Feature", "properties": { "内容": "デイサービスゆうあい谷所【認知症対応型通所介護】嬉野市塩田町大字谷所字永石甲2827番地1", "url": "https://www.kaigokensaku.mhlw.go.jp/41/index.php?action_kouhyou_detail_004_kani=true&JigyosyoCd=4190900078-00&ServiceCd=720&Type=search", "url2": "http://www.yuaivillage.com" }, "geometry": { "type": "Point", "coordinates": [ 130.06199, 33.099365 ] } },
{ "type": "Feature", "properties": { "内容": "認知症デイサービスセンターかんざき清流苑【認知症対応型通所介護】佐賀県神埼市神埼町鶴2927番地2", "url": "https://www.kaigokensaku.mhlw.go.jp/41/index.php?action_kouhyou_detail_004_kani=true&JigyosyoCd=4192000059-00&ServiceCd=720&Type=search", "url2": "https://k-seiryu.wixsite.com/mysite" }, "geometry": { "type": "Point", "coordinates": [ 130.3700126, 33.3220947 ] } },
{ "type": "Feature", "properties": { "内容": "玄海町社協認知症対応型通所介護事業所【認知症対応型通所介護】佐賀県東松浦郡玄海町平尾３８０番地１玄海町社協認知症対応型通所介護事業所", "url": "https://www.kaigokensaku.mhlw.go.jp/41/index.php?action_kouhyou_detail_004_kani=true&JigyosyoCd=4191400037-00&ServiceCd=720&Type=search", "url2": null }, "geometry": { "type": "Point", "coordinates": [ 129.8455133, 33.4952389 ] } },
{ "type": "Feature", "properties": { "内容": "デイサービスセンター　つどいの森【認知症対応型通所介護】白石町大字戸ヶ里2387-8", "url": "https://www.kaigokensaku.mhlw.go.jp/41/index.php?action_kouhyou_detail_004_kani=true&JigyosyoCd=4171600275-00&ServiceCd=720&Type=search", "url2": null }, "geometry": { "type": "Point", "coordinates": [ 130.125103402701313, 33.152970959655008 ] } },
{ "type": "Feature", "properties": { "内容": "グループホームいこいの森【認知症対応型通所介護】白石町大字戸ケ里2387-8", "url": "https://www.kaigokensaku.mhlw.go.jp/41/index.php?action_kouhyou_detail_004_kani=true&JigyosyoCd=4191600040-00&ServiceCd=720&Type=search", "url2": null }, "geometry": { "type": "Point", "coordinates": [ 130.125357716741178, 33.15309332742369 ] } }
]
}
