{
"type": "FeatureCollection",
"name": "geo_41_地域密着型通所介護",
"crs": { "type": "name", "properties": { "name": "urn:ogc:def:crs:OGC:1.3:CRS84" } },
"features": [
{ "type": "Feature", "properties": { "内容": "デイサービス日和【地域密着型通所介護】佐賀県佐賀市神野東2-7-2", "url": "https://www.kaigokensaku.mhlw.go.jp/41/index.php?action_kouhyou_detail_004_kani=true&JigyosyoCd=4170102190-00&ServiceCd=780&Type=search", "url2": "http://www.ailife-ics.jp/" }, "geometry": { "type": "Point", "coordinates": [ 130.296171800000025, 33.2659539 ] } },
{ "type": "Feature", "properties": { "内容": "寄り処のんびらーと【地域密着型通所介護】佐賀市諸富町徳富210-6", "url": "https://www.kaigokensaku.mhlw.go.jp/41/index.php?action_kouhyou_detail_004_kani=true&JigyosyoCd=4190100695-00&ServiceCd=780&Type=search", "url2": null }, "geometry": { "type": "Point", "coordinates": [ 130.369952799999965, 33.220072700000038 ] } },
{ "type": "Feature", "properties": { "内容": "でいはうす川久保ひかり【地域密着型通所介護】佐賀県佐賀市久保泉町川久保3686番地2", "url": "https://www.kaigokensaku.mhlw.go.jp/41/index.php?action_kouhyou_detail_004_kani=true&JigyosyoCd=4170102026-00&ServiceCd=780&Type=search", "url2": null }, "geometry": { "type": "Point", "coordinates": [ 130.326733900000022, 33.3255539 ] } },
{ "type": "Feature", "properties": { "内容": "デイサービスやえみぞ【地域密着型通所介護】佐賀県佐賀市八戸溝二丁目１番１号", "url": "https://www.kaigokensaku.mhlw.go.jp/41/index.php?action_kouhyou_detail_004_kani=true&JigyosyoCd=4170102679-00&ServiceCd=780&Type=search", "url2": null }, "geometry": { "type": "Point", "coordinates": [ 130.277670599999965, 33.2621426 ] } },
{ "type": "Feature", "properties": { "内容": "ＮＰＯ法人宅老よりあいひまわりの会居宅サービス事業所ひがたの里【地域密着型通所介護】佐賀県佐賀市東与賀町大字田中554-5", "url": "https://www.kaigokensaku.mhlw.go.jp/41/index.php?action_kouhyou_detail_004_kani=true&JigyosyoCd=4171000302-00&ServiceCd=780&Type=search", "url2": null }, "geometry": { "type": "Point", "coordinates": [ 130.285574600000018, 33.2038935 ] } },
{ "type": "Feature", "properties": { "内容": "デイサービスセンター縁【地域密着型通所介護】佐賀市神園６丁目７－６", "url": "https://www.kaigokensaku.mhlw.go.jp/41/index.php?action_kouhyou_detail_004_kani=true&JigyosyoCd=4170102471-00&ServiceCd=780&Type=search", "url2": null }, "geometry": { "type": "Point", "coordinates": [ 130.278065031877077, 33.26074784364436 ] } },
{ "type": "Feature", "properties": { "内容": "有料老人ホーム　花梨【地域密着型通所介護】佐賀市鍋島町森田2116-12有料老人ホーム　花梨", "url": "https://www.kaigokensaku.mhlw.go.jp/41/index.php?action_kouhyou_detail_004_kani=true&JigyosyoCd=4190100398-00&ServiceCd=780&Type=search", "url2": "http://www.carin.co.jp/" }, "geometry": { "type": "Point", "coordinates": [ 130.255196800000022, 33.2663637 ] } },
{ "type": "Feature", "properties": { "内容": "ゆめか家デイサービス鍋島店【地域密着型通所介護】佐賀県佐賀市鍋島3丁目4ｰ16", "url": "https://www.kaigokensaku.mhlw.go.jp/41/index.php?action_kouhyou_detail_004_kani=true&JigyosyoCd=4190100778-00&ServiceCd=780&Type=search", "url2": "https://yumekaya-dayservice.com/" }, "geometry": { "type": "Point", "coordinates": [ 130.2693046, 33.2811422 ] } },
{ "type": "Feature", "properties": { "内容": "デイサービス　しあわせ工房兵庫【地域密着型通所介護】兵庫北1丁目19番20号", "url": "https://www.kaigokensaku.mhlw.go.jp/41/index.php?action_kouhyou_detail_004_kani=true&JigyosyoCd=4170101762-00&ServiceCd=780&Type=search", "url2": null }, "geometry": { "type": "Point", "coordinates": [ 130.311026055078145, 33.267131684258565 ] } },
{ "type": "Feature", "properties": { "内容": "デイサービス　芙蓉の花【地域密着型通所介護】佐賀市蓮池町大字蓮池350番地1", "url": "https://www.kaigokensaku.mhlw.go.jp/41/index.php?action_kouhyou_detail_004_kani=true&JigyosyoCd=4170101978-00&ServiceCd=780&Type=search", "url2": null }, "geometry": { "type": "Point", "coordinates": [ 130.35301848280335, 33.24613361083351 ] } },
{ "type": "Feature", "properties": { "内容": "デイサービスえがお【地域密着型通所介護】佐賀県佐賀市諸富町大字徳富１９２８番地", "url": "https://www.kaigokensaku.mhlw.go.jp/41/index.php?action_kouhyou_detail_004_kani=true&JigyosyoCd=4170102778-00&ServiceCd=780&Type=search", "url2": null }, "geometry": { "type": "Point", "coordinates": [ 130.358069193254096, 33.227361098810157 ] } },
{ "type": "Feature", "properties": { "内容": "ゆめか整骨院ゆめか家デイサービス【地域密着型通所介護】佐賀県佐賀市南佐賀2丁目7-21", "url": "https://www.kaigokensaku.mhlw.go.jp/41/index.php?action_kouhyou_detail_004_kani=true&JigyosyoCd=4190100596-00&ServiceCd=780&Type=search", "url2": "https://adult-day-care-center-1364.business.site/?utm_source=gmb&utm_medium=referral" }, "geometry": { "type": "Point", "coordinates": [ 130.320567299999965, 33.237611 ] } },
{ "type": "Feature", "properties": { "内容": "デイサービスそよかぜの丘【地域密着型通所介護】佐賀県佐賀市大和町尼寺3424番地1", "url": "https://www.kaigokensaku.mhlw.go.jp/41/index.php?action_kouhyou_detail_004_kani=true&JigyosyoCd=4190100745-00&ServiceCd=780&Type=search", "url2": null }, "geometry": { "type": "Point", "coordinates": [ 130.2783636, 33.3042297 ] } },
{ "type": "Feature", "properties": { "内容": "デイサービスjoin【地域密着型通所介護】田代2丁目5－17デイサービスjoin", "url": "https://www.kaigokensaku.mhlw.go.jp/41/index.php?action_kouhyou_detail_004_kani=true&JigyosyoCd=4190100562-00&ServiceCd=780&Type=search", "url2": null }, "geometry": { "type": "Point", "coordinates": [ 130.3135288, 33.2505487 ] } },
{ "type": "Feature", "properties": { "内容": "デイサービス楠の木園　福富【地域密着型通所介護】佐賀市川副町大字福富４０－４", "url": "https://www.kaigokensaku.mhlw.go.jp/41/index.php?action_kouhyou_detail_004_kani=true&JigyosyoCd=4170101853-00&ServiceCd=780&Type=search", "url2": null }, "geometry": { "type": "Point", "coordinates": [ 130.330319599999939, 33.228597 ] } },
{ "type": "Feature", "properties": { "内容": "きたえる～む佐賀兵庫南【地域密着型通所介護】佐賀県佐賀市兵庫南1丁目19番35号", "url": "https://www.kaigokensaku.mhlw.go.jp/41/index.php?action_kouhyou_detail_004_kani=true&JigyosyoCd=4190100430-00&ServiceCd=780&Type=search", "url2": "http://kitaeroom.com/sp/" }, "geometry": { "type": "Point", "coordinates": [ 130.318094830748549, 33.261322355536549 ] } },
{ "type": "Feature", "properties": { "内容": "デイサービスセンター　好日苑【地域密着型通所介護】佐賀市木原三丁目２-１１デイサービスセンター好日苑", "url": "https://www.kaigokensaku.mhlw.go.jp/41/index.php?action_kouhyou_detail_004_kani=true&JigyosyoCd=4190100521-00&ServiceCd=780&Type=search", "url2": "https://yakabeiin.com/" }, "geometry": { "type": "Point", "coordinates": [ 130.3232256, 33.2475494 ] } },
{ "type": "Feature", "properties": { "内容": "わらべのさと【地域密着型通所介護】佐賀県佐賀市川副町大字西古賀941番地1", "url": "https://www.kaigokensaku.mhlw.go.jp/41/index.php?action_kouhyou_detail_004_kani=true&JigyosyoCd=4190100810-00&ServiceCd=780&Type=search", "url2": null }, "geometry": { "type": "Point", "coordinates": [ 130.3126514, 33.2063356 ] } },
{ "type": "Feature", "properties": { "内容": "佐賀整肢学園　在宅サポートセンターオークス【地域密着型通所介護】佐賀市金立町大字金立163番地3", "url": "https://www.kaigokensaku.mhlw.go.jp/41/index.php?action_kouhyou_detail_004_kani=true&JigyosyoCd=4170100145-00&ServiceCd=780&Type=search", "url2": "http://www.saga-seishi.jp/" }, "geometry": { "type": "Point", "coordinates": [ 130.313258342188988, 33.321528976104275 ] } },
{ "type": "Feature", "properties": { "内容": "ディサービスたかきせ【地域密着型通所介護】佐賀市高木瀬東三丁目５番１２号", "url": "https://www.kaigokensaku.mhlw.go.jp/41/index.php?action_kouhyou_detail_004_kani=true&JigyosyoCd=4170101093-00&ServiceCd=780&Type=search", "url2": null }, "geometry": { "type": "Point", "coordinates": [ 130.294540899999987, 33.2827912 ] } },
{ "type": "Feature", "properties": { "内容": "シオンの園デイサービス水ヶ江【地域密着型通所介護】佐賀県佐賀市水ヶ江4丁目2-21", "url": "https://www.kaigokensaku.mhlw.go.jp/41/index.php?action_kouhyou_detail_004_kani=true&JigyosyoCd=4170101200-00&ServiceCd=780&Type=search", "url2": "https://www.zion.or.jp" }, "geometry": { "type": "Point", "coordinates": [ 130.309699227477466, 33.246974099644575 ] } },
{ "type": "Feature", "properties": { "内容": "デイサービス　ながせひらお苑【地域密着型通所介護】佐賀市高木瀬町長瀬1862－5", "url": "https://www.kaigokensaku.mhlw.go.jp/41/index.php?action_kouhyou_detail_004_kani=true&JigyosyoCd=4170101465-00&ServiceCd=780&Type=search", "url2": "https://smart-brain.co.jp/" }, "geometry": { "type": "Point", "coordinates": [ 130.286379571333327, 33.296483798758523 ] } },
{ "type": "Feature", "properties": { "内容": "デイサービス　あかまつ【地域密着型通所介護】佐賀市鬼丸町９－３０", "url": "https://www.kaigokensaku.mhlw.go.jp/41/index.php?action_kouhyou_detail_004_kani=true&JigyosyoCd=4170101598-00&ServiceCd=780&Type=search", "url2": null }, "geometry": { "type": "Point", "coordinates": [ 130.298502900000017, 33.2415284 ] } },
{ "type": "Feature", "properties": { "内容": "ほうむ富士【地域密着型通所介護】佐賀市富士町大字松瀬熊ノ峯２６１８－１１４", "url": "https://www.kaigokensaku.mhlw.go.jp/41/index.php?action_kouhyou_detail_004_kani=true&JigyosyoCd=4170101630-00&ServiceCd=780&Type=search", "url2": "http://houmu-group.com/" }, "geometry": { "type": "Point", "coordinates": [ 130.251408699999956, 33.3604229 ] } },
{ "type": "Feature", "properties": { "内容": "デイサービス　あわてん【地域密着型通所介護】佐賀市久保田町久保田1544-6", "url": "https://www.kaigokensaku.mhlw.go.jp/41/index.php?action_kouhyou_detail_004_kani=true&JigyosyoCd=4170101655-00&ServiceCd=780&Type=search", "url2": null }, "geometry": { "type": "Point", "coordinates": [ 130.220894700000031, 33.2508086 ] } },
{ "type": "Feature", "properties": { "内容": "デイサービス　すみれ【地域密着型通所介護】佐賀市金立町大字千布2307番地2", "url": "https://www.kaigokensaku.mhlw.go.jp/41/index.php?action_kouhyou_detail_004_kani=true&JigyosyoCd=4170101879-00&ServiceCd=780&Type=search", "url2": null }, "geometry": { "type": "Point", "coordinates": [ 130.301192300000025, 33.3079725 ] } },
{ "type": "Feature", "properties": { "内容": "デイサービス　ながせ苑【地域密着型通所介護】佐賀市高木瀬町大字長瀬113－1", "url": "https://www.kaigokensaku.mhlw.go.jp/41/index.php?action_kouhyou_detail_004_kani=true&JigyosyoCd=4170102034-00&ServiceCd=780&Type=search", "url2": "https://smart-brain.co.jp/" }, "geometry": { "type": "Point", "coordinates": [ 130.304631400000062, 33.2916741 ] } },
{ "type": "Feature", "properties": { "内容": "デイサービス　ゆう【地域密着型通所介護】佐賀市高木瀬東1－1－6", "url": "https://www.kaigokensaku.mhlw.go.jp/41/index.php?action_kouhyou_detail_004_kani=true&JigyosyoCd=4170102059-00&ServiceCd=780&Type=search", "url2": null }, "geometry": { "type": "Point", "coordinates": [ 130.298671199999944, 33.2801332 ] } },
{ "type": "Feature", "properties": { "内容": "デイサービスセンター西与賀【地域密着型通所介護】佐賀市西与賀町大字高太郎１８４－１", "url": "https://www.kaigokensaku.mhlw.go.jp/41/index.php?action_kouhyou_detail_004_kani=true&JigyosyoCd=4170102117-00&ServiceCd=780&Type=search", "url2": "https://sunnycourt.info" }, "geometry": { "type": "Point", "coordinates": [ 130.268353299999944, 33.2254182 ] } },
{ "type": "Feature", "properties": { "内容": "デイサービス　しあわせ工房成章【地域密着型通所介護】成章町5番28号", "url": "https://www.kaigokensaku.mhlw.go.jp/41/index.php?action_kouhyou_detail_004_kani=true&JigyosyoCd=4170102125-00&ServiceCd=780&Type=search", "url2": null }, "geometry": { "type": "Point", "coordinates": [ 130.293346802307923, 33.254775117949208 ] } },
{ "type": "Feature", "properties": { "内容": "デイサービス　ほうむ大願寺【地域密着型通所介護】佐賀市大和町大字川上３６３８番地", "url": "https://www.kaigokensaku.mhlw.go.jp/41/index.php?action_kouhyou_detail_004_kani=true&JigyosyoCd=4170102224-00&ServiceCd=780&Type=search", "url2": "http://houmu-group.com/" }, "geometry": { "type": "Point", "coordinates": [ 130.267930299999989, 33.3243262 ] } },
{ "type": "Feature", "properties": { "内容": "うなぎのねどこデイサービス【地域密着型通所介護】本庄町大字末次５７２－１", "url": "https://www.kaigokensaku.mhlw.go.jp/41/index.php?action_kouhyou_detail_004_kani=true&JigyosyoCd=4170102281-00&ServiceCd=780&Type=search", "url2": null }, "geometry": { "type": "Point", "coordinates": [ 130.3015057, 33.2318128 ] } },
{ "type": "Feature", "properties": { "内容": "デイサービス　せかい樹【地域密着型通所介護】木原三丁目８番１８号", "url": "https://www.kaigokensaku.mhlw.go.jp/41/index.php?action_kouhyou_detail_004_kani=true&JigyosyoCd=4170102406-00&ServiceCd=780&Type=search", "url2": "sekaijyu@tiara.ocn.ne.jp" }, "geometry": { "type": "Point", "coordinates": [ 130.323639500000013, 33.2428151 ] } },
{ "type": "Feature", "properties": { "内容": "ディーサービスオレンヂ【地域密着型通所介護】佐賀市高木瀬町大字長瀬字一本松71-１", "url": "https://www.kaigokensaku.mhlw.go.jp/41/index.php?action_kouhyou_detail_004_kani=true&JigyosyoCd=4170102430-00&ServiceCd=780&Type=search", "url2": "http://www.frendly-hana.com/cntenl.html" }, "geometry": { "type": "Point", "coordinates": [ 130.306454697547196, 33.291911347603879 ] } },
{ "type": "Feature", "properties": { "内容": "デイサービスセンター杏の樹【地域密着型通所介護】佐賀県佐賀市鬼丸町15-38", "url": "https://www.kaigokensaku.mhlw.go.jp/41/index.php?action_kouhyou_detail_004_kani=true&JigyosyoCd=4170102455-00&ServiceCd=780&Type=search", "url2": "https://kyokaen.wixsite.com/nicelandkitagata" }, "geometry": { "type": "Point", "coordinates": [ 130.295455899999979, 33.2423282 ] } },
{ "type": "Feature", "properties": { "内容": "アクティブデイケアポート晴寿【地域密着型通所介護】高木瀬町東高木1166番3", "url": "https://www.kaigokensaku.mhlw.go.jp/41/index.php?action_kouhyou_detail_004_kani=true&JigyosyoCd=4170102497-00&ServiceCd=780&Type=search", "url2": "http://www.seijyukai.com" }, "geometry": { "type": "Point", "coordinates": [ 130.298026599999957, 33.2870076 ] } },
{ "type": "Feature", "properties": { "内容": "リハビリデイサービス　ステップ【地域密着型通所介護】佐賀県佐賀市高木瀬西１丁目１－１", "url": "https://www.kaigokensaku.mhlw.go.jp/41/index.php?action_kouhyou_detail_004_kani=true&JigyosyoCd=4170102463-00&ServiceCd=780&Type=search", "url2": null }, "geometry": { "type": "Point", "coordinates": [ 130.291994, 33.2807136 ] } },
{ "type": "Feature", "properties": { "内容": "富士北部デイサービスセンター【地域密着型通所介護】佐賀県佐賀市富士町大字大野1065-2", "url": "https://www.kaigokensaku.mhlw.go.jp/41/index.php?action_kouhyou_detail_004_kani=true&JigyosyoCd=4171000146-00&ServiceCd=780&Type=search", "url2": "https://www.kenjyu-nagomi.jp" }, "geometry": { "type": "Point", "coordinates": [ 130.202379, 33.42892 ] } },
{ "type": "Feature", "properties": { "内容": "デイサービスほたる池上【地域密着型通所介護】佐賀県佐賀市大和町大字池上2059-1", "url": "https://www.kaigokensaku.mhlw.go.jp/41/index.php?action_kouhyou_detail_004_kani=true&JigyosyoCd=4170102299-00&ServiceCd=780&Type=search", "url2": null }, "geometry": { "type": "Point", "coordinates": [ 130.251165799999967, 33.2873595 ] } },
{ "type": "Feature", "properties": { "内容": "ほうむ田代【地域密着型通所介護】佐賀県佐賀市田代2丁目7-24なし", "url": "https://www.kaigokensaku.mhlw.go.jp/41/index.php?action_kouhyou_detail_004_kani=true&JigyosyoCd=4172000210-00&ServiceCd=780&Type=search", "url2": "http://houmu-group.com/" }, "geometry": { "type": "Point", "coordinates": [ 130.314047445755875, 33.249823138453749 ] } },
{ "type": "Feature", "properties": { "内容": "ほうむ蓮池【地域密着型通所介護】佐賀県佐賀市蓮池町大字蓮池１４９番地", "url": "https://www.kaigokensaku.mhlw.go.jp/41/index.php?action_kouhyou_detail_004_kani=true&JigyosyoCd=4190100414-00&ServiceCd=780&Type=search", "url2": "houmuhasuike@yahoo.co.jp" }, "geometry": { "type": "Point", "coordinates": [ 130.356066100000021, 33.247106 ] } },
{ "type": "Feature", "properties": { "内容": "デイサービスセンター　桂寿苑【地域密着型通所介護】佐賀県佐賀市久保泉町大字川久保1986番地1", "url": "https://www.kaigokensaku.mhlw.go.jp/41/index.php?action_kouhyou_detail_004_kani=true&JigyosyoCd=4190100513-00&ServiceCd=780&Type=search", "url2": "http://www.ryoyuukai.jp" }, "geometry": { "type": "Point", "coordinates": [ 130.319183899999985, 33.3227111 ] } },
{ "type": "Feature", "properties": { "内容": "たすけあい佐賀かせデイサービス【地域密着型通所介護】佐賀県佐賀市嘉瀬町大字中原2516番地1地域共生ステーション　たすけあい佐賀かせ", "url": "https://www.kaigokensaku.mhlw.go.jp/41/index.php?action_kouhyou_detail_004_kani=true&JigyosyoCd=4190100539-00&ServiceCd=780&Type=search", "url2": "https://tasukeai-saga.org/" }, "geometry": { "type": "Point", "coordinates": [ 130.255699988278707, 33.24232029669502 ] } },
{ "type": "Feature", "properties": { "内容": "介護老人福祉施設シルバーケア三瀬【地域密着型通所介護】佐賀県佐賀市三瀬村三瀬38-1", "url": "https://www.kaigokensaku.mhlw.go.jp/41/index.php?action_kouhyou_detail_004_kani=true&JigyosyoCd=4190100638-00&ServiceCd=780&Type=search", "url2": "http://ｗｗｗ.saganet.ne.jp/KEIAIKAI/" }, "geometry": { "type": "Point", "coordinates": [ 130.270841100000013, 33.437737 ] } },
{ "type": "Feature", "properties": { "内容": "デイサービス運動しましょお伊勢茶屋【地域密着型通所介護】佐賀県佐賀市伊勢町11番9号", "url": "https://www.kaigokensaku.mhlw.go.jp/41/index.php?action_kouhyou_detail_004_kani=true&JigyosyoCd=4190100687-00&ServiceCd=780&Type=search", "url2": "http://www.osewa.jp/" }, "geometry": { "type": "Point", "coordinates": [ 130.2915841, 33.2524687 ] } },
{ "type": "Feature", "properties": { "内容": "Let’ｓリハinthemall佐賀大和【地域密着型通所介護】佐賀県佐賀市大和町大字尼寺3535イオンモール佐賀大和店　2階", "url": "https://www.kaigokensaku.mhlw.go.jp/41/index.php?action_kouhyou_detail_004_kani=true&JigyosyoCd=4190100752-00&ServiceCd=780&Type=search", "url2": "https://www.lets-reha.jp/" }, "geometry": { "type": "Point", "coordinates": [ 130.2806464, 33.3041878 ] } },
{ "type": "Feature", "properties": { "内容": "まつうめデイ【地域密着型通所介護】佐賀県佐賀市大和町大字松瀬2584番地", "url": "https://www.kaigokensaku.mhlw.go.jp/41/index.php?action_kouhyou_detail_004_kani=true&JigyosyoCd=4190100760-00&ServiceCd=780&Type=search", "url2": null }, "geometry": { "type": "Point", "coordinates": [ 130.2529236, 33.3640275 ] } },
{ "type": "Feature", "properties": { "内容": "デイサービス木蓮【地域密着型通所介護】佐賀県佐賀市城内１丁目１３番１３号", "url": "https://www.kaigokensaku.mhlw.go.jp/41/index.php?action_kouhyou_detail_004_kani=true&JigyosyoCd=4190100794-00&ServiceCd=780&Type=search", "url2": null }, "geometry": { "type": "Point", "coordinates": [ 130.298217099999988, 33.244602700000037 ] } },
{ "type": "Feature", "properties": { "内容": "デイサービスほうむ大詫間【地域密着型通所介護】佐賀県佐賀市川副町大字大詫間620", "url": "https://www.kaigokensaku.mhlw.go.jp/41/index.php?action_kouhyou_detail_004_kani=true&JigyosyoCd=4190100844-00&ServiceCd=780&Type=search", "url2": null }, "geometry": { "type": "Point", "coordinates": [ 130.34253480000001, 33.1783706 ] } },
{ "type": "Feature", "properties": { "内容": "デイサービス神野【地域密着型通所介護】佐賀市神野東４丁目10-5", "url": "https://www.kaigokensaku.mhlw.go.jp/41/index.php?action_kouhyou_detail_004_kani=true&JigyosyoCd=4110114545-00&ServiceCd=780&Type=search", "url2": null }, "geometry": { "type": "Point", "coordinates": [ 130.299157599999944, 33.2697509 ] } },
{ "type": "Feature", "properties": { "内容": "デイサービス　アスク【地域密着型通所介護】佐賀市大和町大字尼寺1321-2", "url": "https://www.kaigokensaku.mhlw.go.jp/41/index.php?action_kouhyou_detail_004_kani=true&JigyosyoCd=4170100830-00&ServiceCd=780&Type=search", "url2": "ask@song.ocn.ne.jp" }, "geometry": { "type": "Point", "coordinates": [ 130.2822741, 33.3134751 ] } },
{ "type": "Feature", "properties": { "内容": "デイサービスセンタートクダsaga【地域密着型通所介護】佐賀県佐賀市成章町2-7", "url": "https://www.kaigokensaku.mhlw.go.jp/41/index.php?action_kouhyou_detail_004_kani=true&JigyosyoCd=4190100588-00&ServiceCd=780&Type=search", "url2": "http://tokuda-sd.com/" }, "geometry": { "type": "Point", "coordinates": [ 130.2968962, 33.2576429 ] } },
{ "type": "Feature", "properties": { "内容": "ほねつぎデイサービス鍋島【地域密着型通所介護】佐賀県佐賀市新栄町2丁目2-5", "url": "https://www.kaigokensaku.mhlw.go.jp/41/index.php?action_kouhyou_detail_004_kani=true&JigyosyoCd=4190100604-00&ServiceCd=780&Type=search", "url2": null }, "geometry": { "type": "Point", "coordinates": [ 130.274648528224361, 33.253109441263895 ] } },
{ "type": "Feature", "properties": { "内容": "デイサービスセンターえいる【地域密着型通所介護】佐賀県佐賀市諸富町大字大堂2357番地1", "url": "https://www.kaigokensaku.mhlw.go.jp/41/index.php?action_kouhyou_detail_004_kani=true&JigyosyoCd=4190100612-00&ServiceCd=780&Type=search", "url2": null }, "geometry": { "type": "Point", "coordinates": [ 130.354046640475502, 33.241526500000035 ] } },
{ "type": "Feature", "properties": { "内容": "デイサービス虹色【地域密着型通所介護】佐賀県唐津市石志2878", "url": "https://www.kaigokensaku.mhlw.go.jp/41/index.php?action_kouhyou_detail_004_kani=true&JigyosyoCd=4190200784-00&ServiceCd=780&Type=search", "url2": null }, "geometry": { "type": "Point", "coordinates": [ 129.9667356, 33.3906172 ] } },
{ "type": "Feature", "properties": { "内容": "ディサービス　ひだまり　しいの木【地域密着型通所介護】佐賀県唐津市竹木場５１０９番地６", "url": "https://www.kaigokensaku.mhlw.go.jp/41/index.php?action_kouhyou_detail_004_kani=true&JigyosyoCd=4170200861-00&ServiceCd=780&Type=search", "url2": "http://www.vf-Life.com" }, "geometry": { "type": "Point", "coordinates": [ 129.925094800000011, 33.4235199 ] } },
{ "type": "Feature", "properties": { "内容": "コンパスウォーク　唐津【地域密着型通所介護】佐賀県唐津市原　946", "url": "https://www.kaigokensaku.mhlw.go.jp/41/index.php?action_kouhyou_detail_004_kani=true&JigyosyoCd=4190200834-00&ServiceCd=780&Type=search", "url2": "https://bluedesign-g.jp/bluelife" }, "geometry": { "type": "Point", "coordinates": [ 130.0006339, 33.421296 ] } },
{ "type": "Feature", "properties": { "内容": "宅老所和【地域密着型通所介護】佐賀県唐津市双水２６２６番地", "url": "https://www.kaigokensaku.mhlw.go.jp/41/index.php?action_kouhyou_detail_004_kani=true&JigyosyoCd=4170201356-00&ServiceCd=780&Type=search", "url2": null }, "geometry": { "type": "Point", "coordinates": [ 129.990007200000036, 33.3972137 ] } },
{ "type": "Feature", "properties": { "内容": "デイサービス　岩本内科かなえ隊【地域密着型通所介護】海岸通7182番地78", "url": "https://www.kaigokensaku.mhlw.go.jp/41/index.php?action_kouhyou_detail_004_kani=true&JigyosyoCd=4110212687-00&ServiceCd=780&Type=search", "url2": "karatsu-iwamotonaika.com" }, "geometry": { "type": "Point", "coordinates": [ 129.9568064, 33.4685941 ] } },
{ "type": "Feature", "properties": { "内容": "宅老所かがみデイサービス【地域密着型通所介護】佐賀県唐津市鏡４６５１番地３", "url": "https://www.kaigokensaku.mhlw.go.jp/41/index.php?action_kouhyou_detail_004_kani=true&JigyosyoCd=4170200283-00&ServiceCd=780&Type=search", "url2": "http://web.people-i.ne.jp/~satinowa" }, "geometry": { "type": "Point", "coordinates": [ 130.011933, 33.43553 ] } },
{ "type": "Feature", "properties": { "内容": "地域共生ステーションきらり【地域密着型通所介護】佐賀県唐津市厳木町中島１３９０－３", "url": "https://www.kaigokensaku.mhlw.go.jp/41/index.php?action_kouhyou_detail_004_kani=true&JigyosyoCd=4170200689-00&ServiceCd=780&Type=search", "url2": null }, "geometry": { "type": "Point", "coordinates": [ 130.072377599999982, 33.314055 ] } },
{ "type": "Feature", "properties": { "内容": "ＮＰＯあんどｉｎおうち宅老所　優　デイサービス【地域密着型通所介護】佐賀県唐津市相知町中山4550番地1", "url": "https://www.kaigokensaku.mhlw.go.jp/41/index.php?action_kouhyou_detail_004_kani=true&JigyosyoCd=4170200788-00&ServiceCd=780&Type=search", "url2": null }, "geometry": { "type": "Point", "coordinates": [ 130.011900800000035, 33.3538138 ] } },
{ "type": "Feature", "properties": { "内容": "デイサービス　真心の家【地域密着型通所介護】唐津市北波多岸山５８７番地５", "url": "https://www.kaigokensaku.mhlw.go.jp/41/index.php?action_kouhyou_detail_004_kani=true&JigyosyoCd=4170200820-00&ServiceCd=780&Type=search", "url2": "https://www.karatsu-dayservice.com/" }, "geometry": { "type": "Point", "coordinates": [ 129.959951499999988, 33.3722631 ] } },
{ "type": "Feature", "properties": { "内容": "デイサービスこもれび【地域密着型通所介護】佐賀県唐津市北波多稗田3026番地3", "url": "https://www.kaigokensaku.mhlw.go.jp/41/index.php?action_kouhyou_detail_004_kani=true&JigyosyoCd=4170200952-00&ServiceCd=780&Type=search", "url2": null }, "geometry": { "type": "Point", "coordinates": [ 129.951249800000028, 33.3599144 ] } },
{ "type": "Feature", "properties": { "内容": "デイサービスおひさま【地域密着型通所介護】佐賀県唐津市海岸通7182-55", "url": "https://www.kaigokensaku.mhlw.go.jp/41/index.php?action_kouhyou_detail_004_kani=true&JigyosyoCd=4170201000-00&ServiceCd=780&Type=search", "url2": "http://link2005.jp/" }, "geometry": { "type": "Point", "coordinates": [ 129.9540538, 33.4690551 ] } },
{ "type": "Feature", "properties": { "内容": "ホームケアセンター結【地域密着型通所介護】佐賀県唐津市鏡1073-6", "url": "https://www.kaigokensaku.mhlw.go.jp/41/index.php?action_kouhyou_detail_004_kani=true&JigyosyoCd=4170201125-00&ServiceCd=780&Type=search", "url2": null }, "geometry": { "type": "Point", "coordinates": [ 130.005660420237774, 33.4250585 ] } },
{ "type": "Feature", "properties": { "内容": "宅老所　陽　デイサービス【地域密着型通所介護】佐賀県唐津市相知町相知867番地2", "url": "https://www.kaigokensaku.mhlw.go.jp/41/index.php?action_kouhyou_detail_004_kani=true&JigyosyoCd=4170201182-00&ServiceCd=780&Type=search", "url2": null }, "geometry": { "type": "Point", "coordinates": [ 130.013045299999931, 33.3493422 ] } },
{ "type": "Feature", "properties": { "内容": "デイサービス　でこぽん【地域密着型通所介護】唐津市浜玉町南山1794-6", "url": "https://www.kaigokensaku.mhlw.go.jp/41/index.php?action_kouhyou_detail_004_kani=true&JigyosyoCd=4170201216-00&ServiceCd=780&Type=search", "url2": null }, "geometry": { "type": "Point", "coordinates": [ 130.062958799999933, 33.4400227 ] } },
{ "type": "Feature", "properties": { "内容": "お節介　明　デイサービス【地域密着型通所介護】佐賀県唐津市相知町横枕1067番地1", "url": "https://www.kaigokensaku.mhlw.go.jp/41/index.php?action_kouhyou_detail_004_kani=true&JigyosyoCd=4170201232-00&ServiceCd=780&Type=search", "url2": null }, "geometry": { "type": "Point", "coordinates": [ 130.027850100000023, 33.3457543 ] } },
{ "type": "Feature", "properties": { "内容": "デイサービスたから【地域密着型通所介護】佐賀県唐津市石志3203番地3", "url": "https://www.kaigokensaku.mhlw.go.jp/41/index.php?action_kouhyou_detail_004_kani=true&JigyosyoCd=4170201240-00&ServiceCd=780&Type=search", "url2": null }, "geometry": { "type": "Point", "coordinates": [ 129.973195388300184, 33.392724407927275 ] } },
{ "type": "Feature", "properties": { "内容": "デイサービス　南のおひさま【地域密着型通所介護】佐賀県唐津市山田2824-5", "url": "https://www.kaigokensaku.mhlw.go.jp/41/index.php?action_kouhyou_detail_004_kani=true&JigyosyoCd=4170201257-00&ServiceCd=780&Type=search", "url2": "http://link2005.jp/" }, "geometry": { "type": "Point", "coordinates": [ 129.951262149490361, 33.421860481225309 ] } },
{ "type": "Feature", "properties": { "内容": "デイサービス花の家【地域密着型通所介護】佐賀県唐津市北波多岸山560番地1", "url": "https://www.kaigokensaku.mhlw.go.jp/41/index.php?action_kouhyou_detail_004_kani=true&JigyosyoCd=4170201323-00&ServiceCd=780&Type=search", "url2": "https://www.karatsu-dayservice.com/" }, "geometry": { "type": "Point", "coordinates": [ 129.961322984581557, 33.372667644703313 ] } },
{ "type": "Feature", "properties": { "内容": "デイサービス　べのあ【地域密着型通所介護】佐賀県唐津市肥前町切木甲783-11", "url": "https://www.kaigokensaku.mhlw.go.jp/41/index.php?action_kouhyou_detail_004_kani=true&JigyosyoCd=4190200800-00&ServiceCd=780&Type=search", "url2": null }, "geometry": { "type": "Point", "coordinates": [ 129.898462200000012, 33.4277804 ] } },
{ "type": "Feature", "properties": { "内容": "特定非営利活動法人ケアサポートまんねん【地域密着型通所介護】佐賀県唐津市久里295-1", "url": "https://www.kaigokensaku.mhlw.go.jp/41/index.php?action_kouhyou_detail_004_kani=true&JigyosyoCd=4190200032-00&ServiceCd=780&Type=search", "url2": null }, "geometry": { "type": "Point", "coordinates": [ 129.9912706, 33.4027512 ] } },
{ "type": "Feature", "properties": { "内容": "デイサービスひだまり蓮花【地域密着型通所介護】佐賀県唐津市養母田676", "url": "https://www.kaigokensaku.mhlw.go.jp/41/index.php?action_kouhyou_detail_004_kani=true&JigyosyoCd=4190200578-00&ServiceCd=780&Type=search", "url2": null }, "geometry": { "type": "Point", "coordinates": [ 129.981121600000051, 33.4123034 ] } },
{ "type": "Feature", "properties": { "内容": "デイサービス結絆【地域密着型通所介護】佐賀県唐津市見借3459番地13", "url": "https://www.kaigokensaku.mhlw.go.jp/41/index.php?action_kouhyou_detail_004_kani=true&JigyosyoCd=4190200586-00&ServiceCd=780&Type=search", "url2": "http：//yuina.co.jp/" }, "geometry": { "type": "Point", "coordinates": [ 129.942928358140705, 33.441506513804519 ] } },
{ "type": "Feature", "properties": { "内容": "野の里デイサービス【地域密着型通所介護】佐賀県唐津市相知町佐里ｲﾊﾞ山1596", "url": "https://www.kaigokensaku.mhlw.go.jp/41/index.php?action_kouhyou_detail_004_kani=true&JigyosyoCd=4190200610-00&ServiceCd=780&Type=search", "url2": null }, "geometry": { "type": "Point", "coordinates": [ 129.98709, 33.338078 ] } },
{ "type": "Feature", "properties": { "内容": "デイサービス笑い愛【地域密着型通所介護】佐賀県唐津市和多田先石12-80", "url": "https://www.kaigokensaku.mhlw.go.jp/41/index.php?action_kouhyou_detail_004_kani=true&JigyosyoCd=4190200677-00&ServiceCd=780&Type=search", "url2": null }, "geometry": { "type": "Point", "coordinates": [ 129.988531315518429, 33.433938256755141 ] } },
{ "type": "Feature", "properties": { "内容": "有料老人ホームはるの木　唐津館【地域密着型通所介護】佐賀県唐津市神田字内田２９２０番地", "url": "https://www.kaigokensaku.mhlw.go.jp/41/index.php?action_kouhyou_detail_004_kani=true&JigyosyoCd=4190200693-00&ServiceCd=780&Type=search", "url2": null }, "geometry": { "type": "Point", "coordinates": [ 129.952798527018359, 33.445272443174936 ] } },
{ "type": "Feature", "properties": { "内容": "デイサービス笑【地域密着型通所介護】佐賀県唐津市山本字東路2258-5", "url": "https://www.kaigokensaku.mhlw.go.jp/41/index.php?action_kouhyou_detail_004_kani=true&JigyosyoCd=4190200701-00&ServiceCd=780&Type=search", "url2": "https://persons-yo-sho.com/." }, "geometry": { "type": "Point", "coordinates": [ 129.974912790178053, 33.390952854894124 ] } },
{ "type": "Feature", "properties": { "内容": "ケアビレッジ　ちとせ　二タ子【地域密着型通所介護】佐賀県唐津市二タ子2丁目2-24", "url": "https://www.kaigokensaku.mhlw.go.jp/41/index.php?action_kouhyou_detail_004_kani=true&JigyosyoCd=4190200735-00&ServiceCd=780&Type=search", "url2": "https://chitose-gr.com/karatsu/karatsu01/" }, "geometry": { "type": "Point", "coordinates": [ 129.9549212, 33.4607927 ] } },
{ "type": "Feature", "properties": { "内容": "医療法人社団　三浦医院　デイサービスセムイ【地域密着型通所介護】佐賀県唐津市呼子町殿ノ浦984-11テナントＭ　新田ビル4号室5号室", "url": "https://www.kaigokensaku.mhlw.go.jp/41/index.php?action_kouhyou_detail_004_kani=true&JigyosyoCd=4190200743-00&ServiceCd=780&Type=search", "url2": null }, "geometry": { "type": "Point", "coordinates": [ 129.891375176057437, 33.536425614465266 ] } },
{ "type": "Feature", "properties": { "内容": "一般社団法人笑花　デイサービス花笑結【地域密着型通所介護】佐賀県唐津市和多田先石12-83", "url": "https://www.kaigokensaku.mhlw.go.jp/41/index.php?action_kouhyou_detail_004_kani=true&JigyosyoCd=4190200750-00&ServiceCd=780&Type=search", "url2": null }, "geometry": { "type": "Point", "coordinates": [ 129.988421608598287, 33.433915839659377 ] } },
{ "type": "Feature", "properties": { "内容": "唐津市社会福祉協議会通所介護事業所なないろ【地域密着型通所介護】佐賀県唐津市七山仁部98番地５", "url": "https://www.kaigokensaku.mhlw.go.jp/41/index.php?action_kouhyou_detail_004_kani=true&JigyosyoCd=4190200792-00&ServiceCd=780&Type=search", "url2": "www.karatsu-shakyo.or.jp/" }, "geometry": { "type": "Point", "coordinates": [ 130.1143502, 33.4409381 ] } },
{ "type": "Feature", "properties": { "内容": "リハビリデイサービス　フクラス唐津【地域密着型通所介護】佐賀県唐津市藤崎通6880-65", "url": "https://www.kaigokensaku.mhlw.go.jp/41/index.php?action_kouhyou_detail_004_kani=true&JigyosyoCd=4190200842-00&ServiceCd=780&Type=search", "url2": "https://www.fuku2020.com/" }, "geometry": { "type": "Point", "coordinates": [ 129.9527546, 33.4702399 ] } },
{ "type": "Feature", "properties": { "内容": "ぬくもいホーム　だんらん【地域密着型通所介護】唐津市湊町1133番地３", "url": "https://www.kaigokensaku.mhlw.go.jp/41/index.php?action_kouhyou_detail_004_kani=true&JigyosyoCd=4170201026-00&ServiceCd=780&Type=search", "url2": "http//www.danran.info" }, "geometry": { "type": "Point", "coordinates": [ 129.947052, 33.5231519 ] } },
{ "type": "Feature", "properties": { "内容": "医療生協デイサービスやまもと【地域密着型通所介護】佐賀県唐津市山本1398-1", "url": "https://www.kaigokensaku.mhlw.go.jp/41/index.php?action_kouhyou_detail_004_kani=true&JigyosyoCd=4190200644-00&ServiceCd=780&Type=search", "url2": "http://saga-iryou-s.or.jp" }, "geometry": { "type": "Point", "coordinates": [ 129.976589, 33.396875 ] } },
{ "type": "Feature", "properties": { "内容": "唐津市社会福祉協議会通所介護肥前事業所【地域密着型通所介護】佐賀県唐津市肥前町万賀里川953-10", "url": "https://www.kaigokensaku.mhlw.go.jp/41/index.php?action_kouhyou_detail_004_kani=true&JigyosyoCd=4190200719-00&ServiceCd=780&Type=search", "url2": null }, "geometry": { "type": "Point", "coordinates": [ 129.8600543, 33.4258497 ] } },
{ "type": "Feature", "properties": { "内容": "半日型デイサービス　リハビリフィットネスばんざい【地域密着型通所介護】江島町3388番地1", "url": "https://www.kaigokensaku.mhlw.go.jp/41/index.php?action_kouhyou_detail_004_kani=true&JigyosyoCd=4170300562-00&ServiceCd=780&Type=search", "url2": "http://banzai-lohas.co.jp" }, "geometry": { "type": "Point", "coordinates": [ 130.4822213, 33.3447226 ] } },
{ "type": "Feature", "properties": { "内容": "プロジェクトエース弥生が丘【地域密着型通所介護】弥生が丘７丁目１３番地", "url": "https://www.kaigokensaku.mhlw.go.jp/41/index.php?action_kouhyou_detail_004_kani=true&JigyosyoCd=4170300976-00&ServiceCd=780&Type=search", "url2": "https://projectace-kirameki.jimdo.com/" }, "geometry": { "type": "Point", "coordinates": [ 130.514250887696846, 33.407775527259723 ] } },
{ "type": "Feature", "properties": { "内容": "デイサービスセンターあさひ【地域密着型通所介護】佐賀県鳥栖市江島町１８８０－１", "url": "https://www.kaigokensaku.mhlw.go.jp/41/index.php?action_kouhyou_detail_004_kani=true&JigyosyoCd=4170300265-00&ServiceCd=780&Type=search", "url2": "http://hp.kaipoke.biz.mf4/" }, "geometry": { "type": "Point", "coordinates": [ 130.482857100000047, 33.3504975 ] } },
{ "type": "Feature", "properties": { "内容": "小規模デイサービスひだまりファーム【地域密着型通所介護】佐賀県鳥栖市村田町522-18", "url": "https://www.kaigokensaku.mhlw.go.jp/41/index.php?action_kouhyou_detail_004_kani=true&JigyosyoCd=4190300246-00&ServiceCd=780&Type=search", "url2": "https://hidamari-tosu.com" }, "geometry": { "type": "Point", "coordinates": [ 130.4805025, 33.3583483 ] } },
{ "type": "Feature", "properties": { "内容": "Let’ｓリハ鳥栖【地域密着型通所介護】佐賀県鳥栖市轟木町1172-1", "url": "https://www.kaigokensaku.mhlw.go.jp/41/index.php?action_kouhyou_detail_004_kani=true&JigyosyoCd=4190300261-00&ServiceCd=780&Type=search", "url2": "https://www.lets-reha.jp/shop/saga-tosu/" }, "geometry": { "type": "Point", "coordinates": [ 130.5039357, 33.3642365 ] } },
{ "type": "Feature", "properties": { "内容": "デイサービス　人と木【地域密着型通所介護】佐賀県鳥栖市原町1253-1", "url": "https://www.kaigokensaku.mhlw.go.jp/41/index.php?action_kouhyou_detail_004_kani=true&JigyosyoCd=4170300752-00&ServiceCd=780&Type=search", "url2": "http://hitotoki-b.jp/" }, "geometry": { "type": "Point", "coordinates": [ 130.5263592, 33.3862543 ] } },
{ "type": "Feature", "properties": { "内容": "デイサービスセンター　トクダ　tosu【地域密着型通所介護】佐賀県鳥栖市本町２丁目８３－１", "url": "https://www.kaigokensaku.mhlw.go.jp/41/index.php?action_kouhyou_detail_004_kani=true&JigyosyoCd=4170300786-00&ServiceCd=780&Type=search", "url2": "http://www.tokuda-sd.com" }, "geometry": { "type": "Point", "coordinates": [ 130.511013400000024, 33.3772632 ] } },
{ "type": "Feature", "properties": { "内容": "ホーム西渓デイサービス【地域密着型通所介護】多久市多久町２０８２番地１", "url": "https://www.kaigokensaku.mhlw.go.jp/41/index.php?action_kouhyou_detail_004_kani=true&JigyosyoCd=4170400123-00&ServiceCd=780&Type=search", "url2": "http://nposangamhomeseikei.hp.peraichi.com" }, "geometry": { "type": "Point", "coordinates": [ 130.086077499999988, 33.25789020000002 ] } },
{ "type": "Feature", "properties": { "内容": "デイサービス多久生協【地域密着型通所介護】東多久町別府3245-5多久生協クリニック", "url": "https://www.kaigokensaku.mhlw.go.jp/41/index.php?action_kouhyou_detail_004_kani=true&JigyosyoCd=4170400255-00&ServiceCd=780&Type=search", "url2": "ｈｔｔｐｓ：//ｗｗｗ.saga-iryou-s.or.jp" }, "geometry": { "type": "Point", "coordinates": [ 130.150346301631714, 33.2825677157469 ] } },
{ "type": "Feature", "properties": { "内容": "天寿荘デイサービスセンター【地域密着型通所介護】佐賀県多久市北多久町大字小侍132-6", "url": "https://www.kaigokensaku.mhlw.go.jp/41/index.php?action_kouhyou_detail_004_kani=true&JigyosyoCd=4190400020-00&ServiceCd=780&Type=search", "url2": "http://www.tenjukai.com" }, "geometry": { "type": "Point", "coordinates": [ 130.111271100000067, 33.2976814 ] } },
{ "type": "Feature", "properties": { "内容": "通所介護事業所ケアハウス立山【地域密着型通所介護】佐賀県多久市北多久町大字小侍4770-1", "url": "https://www.kaigokensaku.mhlw.go.jp/41/index.php?action_kouhyou_detail_004_kani=true&JigyosyoCd=4190400038-00&ServiceCd=780&Type=search", "url2": "http://hp.kaipoke.biz/hvd/" }, "geometry": { "type": "Point", "coordinates": [ 130.102746461376995, 33.302497568906261 ] } },
{ "type": "Feature", "properties": { "内容": "デイサービス　きずな【地域密着型通所介護】佐賀県伊万里市東山代町里4774-4", "url": "https://www.kaigokensaku.mhlw.go.jp/41/index.php?action_kouhyou_detail_004_kani=true&JigyosyoCd=4170500716-00&ServiceCd=780&Type=search", "url2": "http://hp.kaipoke.biz/3h0/" }, "geometry": { "type": "Point", "coordinates": [ 129.82544429567281, 33.281405180854179 ] } },
{ "type": "Feature", "properties": { "内容": "らくさい倶楽部【地域密着型通所介護】山代町久原1473番地1", "url": "https://www.kaigokensaku.mhlw.go.jp/41/index.php?action_kouhyou_detail_004_kani=true&JigyosyoCd=4170500781-00&ServiceCd=780&Type=search", "url2": null }, "geometry": { "type": "Point", "coordinates": [ 129.812418500000035, 33.3061407 ] } },
{ "type": "Feature", "properties": { "内容": "かさね家【地域密着型通所介護】佐賀県伊万里市脇田町318-37", "url": "https://www.kaigokensaku.mhlw.go.jp/41/index.php?action_kouhyou_detail_004_kani=true&JigyosyoCd=4170500609-00&ServiceCd=780&Type=search", "url2": null }, "geometry": { "type": "Point", "coordinates": [ 129.885182500000042, 33.2806283 ] } },
{ "type": "Feature", "properties": { "内容": "デイサービス　ノア【地域密着型通所介護】佐賀県伊万里市立花町字通谷１６０４番地１５５", "url": "https://www.kaigokensaku.mhlw.go.jp/41/index.php?action_kouhyou_detail_004_kani=true&JigyosyoCd=4170500831-00&ServiceCd=780&Type=search", "url2": null }, "geometry": { "type": "Point", "coordinates": [ 129.88327307409665, 33.263742333278117 ] } },
{ "type": "Feature", "properties": { "内容": "医療法人　水上医院　デイサービス　はやたハウス【地域密着型通所介護】佐賀県伊万里市山代町立岩409-7", "url": "https://www.kaigokensaku.mhlw.go.jp/41/index.php?action_kouhyou_detail_004_kani=true&JigyosyoCd=4170500765-00&ServiceCd=780&Type=search", "url2": null }, "geometry": { "type": "Point", "coordinates": [ 129.791502, 33.3352977 ] } },
{ "type": "Feature", "properties": { "内容": "地域共生ステーションぬくもいホームつくし【地域密着型通所介護】佐賀県伊万里市大坪町丙１９２４－１", "url": "https://www.kaigokensaku.mhlw.go.jp/41/index.php?action_kouhyou_detail_004_kani=true&JigyosyoCd=4170500393-00&ServiceCd=780&Type=search", "url2": null }, "geometry": { "type": "Point", "coordinates": [ 129.888346235581963, 33.270100107832974 ] } },
{ "type": "Feature", "properties": { "内容": "源氣堂リハビリデイサービス【地域密着型通所介護】佐賀県伊万里市山代町楠久津177-161", "url": "https://www.kaigokensaku.mhlw.go.jp/41/index.php?action_kouhyou_detail_004_kani=true&JigyosyoCd=4170500443-00&ServiceCd=780&Type=search", "url2": "http://www.genkido-day.com" }, "geometry": { "type": "Point", "coordinates": [ 129.83164510000006, 33.2932036 ] } },
{ "type": "Feature", "properties": { "内容": "ふくふくの里よしだデイサービス・宅老所【地域密着型通所介護】佐賀県伊万里市大川内町丙924-1", "url": "https://www.kaigokensaku.mhlw.go.jp/41/index.php?action_kouhyou_detail_004_kani=true&JigyosyoCd=4170500583-00&ServiceCd=780&Type=search", "url2": "https://www.fukufukunosato.net/" }, "geometry": { "type": "Point", "coordinates": [ 129.887393400000065, 33.2470157 ] } },
{ "type": "Feature", "properties": { "内容": "デイサービス　ゆうゆう【地域密着型通所介護】佐賀県伊万里市松島町265番地7", "url": "https://www.kaigokensaku.mhlw.go.jp/41/index.php?action_kouhyou_detail_004_kani=true&JigyosyoCd=4170500773-00&ServiceCd=780&Type=search", "url2": null }, "geometry": { "type": "Point", "coordinates": [ 129.876286099999987, 33.2767035 ] } },
{ "type": "Feature", "properties": { "内容": "デイサービスやまぼうし【地域密着型通所介護】佐賀県伊万里市波多津町煤屋２４７７番地１", "url": "https://www.kaigokensaku.mhlw.go.jp/41/index.php?action_kouhyou_detail_004_kani=true&JigyosyoCd=4190500076-00&ServiceCd=780&Type=search", "url2": null }, "geometry": { "type": "Point", "coordinates": [ 129.852948400000059, 33.3595785 ] } },
{ "type": "Feature", "properties": { "内容": "デイサービスながやまハナレンゲ【地域密着型通所介護】佐賀県伊万里市大坪町甲740", "url": "https://www.kaigokensaku.mhlw.go.jp/41/index.php?action_kouhyou_detail_004_kani=true&JigyosyoCd=4170500401-00&ServiceCd=780&Type=search", "url2": null }, "geometry": { "type": "Point", "coordinates": [ 129.896914599999945, 33.2953687 ] } },
{ "type": "Feature", "properties": { "内容": "デイサービスながやま　ハナミズキ【地域密着型通所介護】佐賀県伊万里市大坪町甲734-1", "url": "https://www.kaigokensaku.mhlw.go.jp/41/index.php?action_kouhyou_detail_004_kani=true&JigyosyoCd=4170500575-00&ServiceCd=780&Type=search", "url2": null }, "geometry": { "type": "Point", "coordinates": [ 129.897245099999964, 33.2952799 ] } },
{ "type": "Feature", "properties": { "内容": "デイサービス　えん【地域密着型通所介護】佐賀県武雄市武雄町大字武雄２０５番地", "url": "https://www.kaigokensaku.mhlw.go.jp/41/index.php?action_kouhyou_detail_004_kani=true&JigyosyoCd=4170600524-00&ServiceCd=780&Type=search", "url2": null }, "geometry": { "type": "Point", "coordinates": [ 130.015859, 33.1946375 ] } },
{ "type": "Feature", "properties": { "内容": "宅幼老所笑びす　デイサービス笑びす【地域密着型通所介護】佐賀県武雄市北方町大字大崎753番地", "url": "https://www.kaigokensaku.mhlw.go.jp/41/index.php?action_kouhyou_detail_004_kani=true&JigyosyoCd=4171600325-00&ServiceCd=780&Type=search", "url2": "https://ebisu-mitsuwa.com/" }, "geometry": { "type": "Point", "coordinates": [ 130.0550581, 33.2140998 ] } },
{ "type": "Feature", "properties": { "内容": "医療法人　青葉会　中川内医院　デイサービスセンター【地域密着型通所介護】佐賀県武雄市武内町大字真手野28178-1", "url": "https://www.kaigokensaku.mhlw.go.jp/41/index.php?action_kouhyou_detail_004_kani=true&JigyosyoCd=4110611367-00&ServiceCd=780&Type=search", "url2": null }, "geometry": { "type": "Point", "coordinates": [ 129.964313611114449, 33.230093800731872 ] } },
{ "type": "Feature", "properties": { "内容": "デイサービス　こころの杜【地域密着型通所介護】佐賀県武雄市橘町大字大日８４０２番地２", "url": "https://www.kaigokensaku.mhlw.go.jp/41/index.php?action_kouhyou_detail_004_kani=true&JigyosyoCd=4170600607-00&ServiceCd=780&Type=search", "url2": null }, "geometry": { "type": "Point", "coordinates": [ 130.060746900000026, 33.1766094 ] } },
{ "type": "Feature", "properties": { "内容": "介護福祉ステーション森の音【地域密着型通所介護】佐賀県武雄市西川登町大字小田志16865番地", "url": "https://www.kaigokensaku.mhlw.go.jp/41/index.php?action_kouhyou_detail_004_kani=true&JigyosyoCd=4170600409-00&ServiceCd=780&Type=search", "url2": "https://yasaka-takeo.com/" }, "geometry": { "type": "Point", "coordinates": [ 129.986855099999957, 33.1332506 ] } },
{ "type": "Feature", "properties": { "内容": "いざき整骨院　リハ特化型デイサービス菜の花【地域密着型通所介護】朝日町甘久1778番地", "url": "https://www.kaigokensaku.mhlw.go.jp/41/index.php?action_kouhyou_detail_004_kani=true&JigyosyoCd=4190600140-00&ServiceCd=780&Type=search", "url2": "http://hp.kaipoke.biz/4tg/" }, "geometry": { "type": "Point", "coordinates": [ 130.0398571, 33.213795 ] } },
{ "type": "Feature", "properties": { "内容": "デイサービス久津具【地域密着型通所介護】北方町大字大崎760-1", "url": "https://www.kaigokensaku.mhlw.go.jp/41/index.php?action_kouhyou_detail_004_kani=true&JigyosyoCd=4170600599-00&ServiceCd=780&Type=search", "url2": "https://ebisu-mitsuwa.com/" }, "geometry": { "type": "Point", "coordinates": [ 130.054858100000047, 33.2136887 ] } },
{ "type": "Feature", "properties": { "内容": "リハプライド武雄健創【地域密着型通所介護】佐賀県武雄市武雄町大字富岡字サキ田7847番地7", "url": "https://www.kaigokensaku.mhlw.go.jp/41/index.php?action_kouhyou_detail_004_kani=true&JigyosyoCd=4170600631-00&ServiceCd=780&Type=search", "url2": null }, "geometry": { "type": "Point", "coordinates": [ 130.018291423278839, 33.194541443770675 ] } },
{ "type": "Feature", "properties": { "内容": "デイサービスひだまりひだまり【地域密着型通所介護】佐賀県武雄市東川登町大字永野6363番地4地域共生ステーションひだまり", "url": "https://www.kaigokensaku.mhlw.go.jp/41/index.php?action_kouhyou_detail_004_kani=true&JigyosyoCd=4170600649-00&ServiceCd=780&Type=search", "url2": null }, "geometry": { "type": "Point", "coordinates": [ 130.001213600000028, 33.162462099999985 ] } },
{ "type": "Feature", "properties": { "内容": "デイサービス富乃美の丘【地域密着型通所介護】佐賀県武雄市山内町大字鳥海12095番地1", "url": "https://www.kaigokensaku.mhlw.go.jp/41/index.php?action_kouhyou_detail_004_kani=true&JigyosyoCd=4190600165-00&ServiceCd=780&Type=search", "url2": "https://tonominooka.com/" }, "geometry": { "type": "Point", "coordinates": [ 129.9573485, 33.200491 ] } },
{ "type": "Feature", "properties": { "内容": "デイサービスあいりす【地域密着型通所介護】佐賀県武雄市西川登町大字小田志１８３８２－１", "url": "https://www.kaigokensaku.mhlw.go.jp/41/index.php?action_kouhyou_detail_004_kani=true&JigyosyoCd=4190600157-00&ServiceCd=780&Type=search", "url2": "airis-kaogo.com/" }, "geometry": { "type": "Point", "coordinates": [ 129.993124099999989, 33.1274213 ] } },
{ "type": "Feature", "properties": { "内容": "いざき整骨院リハ特化型デイサービス菜の花【地域密着型通所介護】朝日町大字甘久1778", "url": "https://www.kaigokensaku.mhlw.go.jp/41/index.php?action_kouhyou_detail_004_kani=true&JigyosyoCd=4190600223-00&ServiceCd=780&Type=search", "url2": null }, "geometry": { "type": "Point", "coordinates": [ 130.039871604918346, 33.213847893281475 ] } },
{ "type": "Feature", "properties": { "内容": "デイサービス　きらきら星【地域密着型通所介護】大字納富分４１１４－１５デイサービスきらきら星", "url": "https://www.kaigokensaku.mhlw.go.jp/41/index.php?action_kouhyou_detail_004_kani=true&JigyosyoCd=4170700290-00&ServiceCd=780&Type=search", "url2": null }, "geometry": { "type": "Point", "coordinates": [ 130.10772129999998, 33.097605 ] } },
{ "type": "Feature", "properties": { "内容": "合同会社デイサービスのどかの里【地域密着型通所介護】佐賀県鹿島市古枝甲91-3", "url": "https://www.kaigokensaku.mhlw.go.jp/41/index.php?action_kouhyou_detail_004_kani=true&JigyosyoCd=4190700221-00&ServiceCd=780&Type=search", "url2": null }, "geometry": { "type": "Point", "coordinates": [ 130.106867, 33.0549987 ] } },
{ "type": "Feature", "properties": { "内容": "特定非営利活動法人余暇センターきたじま　地域密着型通所介護　宅老所　鹿城デイサービス【地域密着型通所介護】佐賀県鹿島市大字高津原1193", "url": "https://www.kaigokensaku.mhlw.go.jp/41/index.php?action_kouhyou_detail_004_kani=true&JigyosyoCd=4170700126-00&ServiceCd=780&Type=search", "url2": "http://yokacenter-kitajima.com/" }, "geometry": { "type": "Point", "coordinates": [ 130.094683300000042, 33.1122673 ] } },
{ "type": "Feature", "properties": { "内容": "デイサービスさえずり【地域密着型通所介護】佐賀県鹿島市大字高津原4351番地2", "url": "https://www.kaigokensaku.mhlw.go.jp/41/index.php?action_kouhyou_detail_004_kani=true&JigyosyoCd=4170700274-00&ServiceCd=780&Type=search", "url2": "http://care-net.biz/41/nukumoi-saezuri/" }, "geometry": { "type": "Point", "coordinates": [ 130.085159400000066, 33.1011767 ] } },
{ "type": "Feature", "properties": { "内容": "グリーンライフケア【地域密着型通所介護】佐賀県鹿島市納富分１５１５", "url": "https://www.kaigokensaku.mhlw.go.jp/41/index.php?action_kouhyou_detail_004_kani=true&JigyosyoCd=4170700415-00&ServiceCd=780&Type=search", "url2": "http://green-life-care.com" }, "geometry": { "type": "Point", "coordinates": [ 130.093878099999984, 33.098191 ] } },
{ "type": "Feature", "properties": { "内容": "特定非営利活動法人なごみの会【地域密着型通所介護】佐賀県鹿島市大字山浦甲394番地1", "url": "https://www.kaigokensaku.mhlw.go.jp/41/index.php?action_kouhyou_detail_004_kani=true&JigyosyoCd=4170700241-00&ServiceCd=780&Type=search", "url2": null }, "geometry": { "type": "Point", "coordinates": [ 130.083074471827672, 33.088613320952433 ] } },
{ "type": "Feature", "properties": { "内容": "ＮＰＯ　ひかり【地域密着型通所介護】鹿島市大字納富分1079番地1", "url": "https://www.kaigokensaku.mhlw.go.jp/41/index.php?action_kouhyou_detail_004_kani=true&JigyosyoCd=4170700266-00&ServiceCd=780&Type=search", "url2": "http://hikari1079-1.com" }, "geometry": { "type": "Point", "coordinates": [ 130.093524048410018, 33.093458726550047 ] } },
{ "type": "Feature", "properties": { "内容": "デイサービス　光輝【地域密着型通所介護】佐賀県鹿島市大字納富分579-1", "url": "https://www.kaigokensaku.mhlw.go.jp/41/index.php?action_kouhyou_detail_004_kani=true&JigyosyoCd=4170700332-00&ServiceCd=780&Type=search", "url2": "kouki8880@voice.ocn.ne.jp" }, "geometry": { "type": "Point", "coordinates": [ 130.08987030000003, 33.0949607 ] } },
{ "type": "Feature", "properties": { "内容": "デイサービスこころ【地域密着型通所介護】佐賀県鹿島市大字納富分４４８８番地福祉サービスこころ㈱", "url": "https://www.kaigokensaku.mhlw.go.jp/41/index.php?action_kouhyou_detail_004_kani=true&JigyosyoCd=4190700155-00&ServiceCd=780&Type=search", "url2": "http://www.fukushi-kokoro.com." }, "geometry": { "type": "Point", "coordinates": [ 130.100955399999947, 33.0955219 ] } },
{ "type": "Feature", "properties": { "内容": "デイサービスセンターはるの木【地域密着型通所介護】佐賀県小城市三日月町樋口922番地1", "url": "https://www.kaigokensaku.mhlw.go.jp/41/index.php?action_kouhyou_detail_004_kani=true&JigyosyoCd=4171300488-00&ServiceCd=780&Type=search", "url2": null }, "geometry": { "type": "Point", "coordinates": [ 130.217437139147933, 33.271992725060144 ] } },
{ "type": "Feature", "properties": { "内容": "デイサービスぬくもり【地域密着型通所介護】小城町269番地3", "url": "https://www.kaigokensaku.mhlw.go.jp/41/index.php?action_kouhyou_detail_004_kani=true&JigyosyoCd=4191300112-00&ServiceCd=780&Type=search", "url2": null }, "geometry": { "type": "Point", "coordinates": [ 130.199595, 33.2934622 ] } },
{ "type": "Feature", "properties": { "内容": "デイサービスぎおん【地域密着型通所介護】佐賀県小城市小城町松尾3855", "url": "https://www.kaigokensaku.mhlw.go.jp/41/index.php?action_kouhyou_detail_004_kani=true&JigyosyoCd=4171300405-00&ServiceCd=780&Type=search", "url2": null }, "geometry": { "type": "Point", "coordinates": [ 130.200794099999939, 33.300876 ] } },
{ "type": "Feature", "properties": { "内容": "デイサービスセンター共生の里三日月道辺【地域密着型通所介護】佐賀県小城市三日月町道辺８３８－１共生館２階", "url": "https://www.kaigokensaku.mhlw.go.jp/41/index.php?action_kouhyou_detail_004_kani=true&JigyosyoCd=4171300421-00&ServiceCd=780&Type=search", "url2": "ogi@kyouseinosato.com" }, "geometry": { "type": "Point", "coordinates": [ 130.232108700000026, 33.2918697 ] } },
{ "type": "Feature", "properties": { "内容": "デイサービスセンターふぉれすと【地域密着型通所介護】佐賀県小城市小城町畑田2468-1", "url": "https://www.kaigokensaku.mhlw.go.jp/41/index.php?action_kouhyou_detail_004_kani=true&JigyosyoCd=4171300504-00&ServiceCd=780&Type=search", "url2": "http://lsneo.com/" }, "geometry": { "type": "Point", "coordinates": [ 130.18820119999998, 33.294281500000011 ] } },
{ "type": "Feature", "properties": { "内容": "小城市地域共生ステーション　よりあいの家【地域密着型通所介護】佐賀県小城市三日月町道辺１９２０番地", "url": "https://www.kaigokensaku.mhlw.go.jp/41/index.php?action_kouhyou_detail_004_kani=true&JigyosyoCd=4171300199-00&ServiceCd=780&Type=search", "url2": null }, "geometry": { "type": "Point", "coordinates": [ 130.234573, 33.2804011 ] } },
{ "type": "Feature", "properties": { "内容": "デイサービス　健やか【地域密着型通所介護】佐賀県小城市芦刈町永田309－1", "url": "https://www.kaigokensaku.mhlw.go.jp/41/index.php?action_kouhyou_detail_004_kani=true&JigyosyoCd=4171300454-00&ServiceCd=780&Type=search", "url2": null }, "geometry": { "type": "Point", "coordinates": [ 130.208323, 33.2155049 ] } },
{ "type": "Feature", "properties": { "内容": "デイサービス天山の里【地域密着型通所介護】佐賀県小城市小城町畑田1851-29", "url": "https://www.kaigokensaku.mhlw.go.jp/41/index.php?action_kouhyou_detail_004_kani=true&JigyosyoCd=4171300223-00&ServiceCd=780&Type=search", "url2": null }, "geometry": { "type": "Point", "coordinates": [ 130.183604599999967, 33.2895291 ] } },
{ "type": "Feature", "properties": { "内容": "デイサービス　ほたる【地域密着型通所介護】三日月町久米558-1", "url": "https://www.kaigokensaku.mhlw.go.jp/41/index.php?action_kouhyou_detail_004_kani=true&JigyosyoCd=4171300330-00&ServiceCd=780&Type=search", "url2": null }, "geometry": { "type": "Point", "coordinates": [ 130.205454295058956, 33.290345593257193 ] } },
{ "type": "Feature", "properties": { "内容": "運動特化型デイサービス　HIKARI　PLUS【地域密着型通所介護】佐賀県小城市牛津町牛津536－６", "url": "https://www.kaigokensaku.mhlw.go.jp/41/index.php?action_kouhyou_detail_004_kani=true&JigyosyoCd=4191300161-00&ServiceCd=780&Type=search", "url2": "https://hikari-plus.netolify.app" }, "geometry": { "type": "Point", "coordinates": [ 130.2029987, 33.2443158 ] } },
{ "type": "Feature", "properties": { "内容": "あしはらの園デイサービス【地域密着型通所介護】佐賀県小城市芦刈町三王崎１５２３番地", "url": "https://www.kaigokensaku.mhlw.go.jp/41/index.php?action_kouhyou_detail_004_kani=true&JigyosyoCd=4191300179-00&ServiceCd=780&Type=search", "url2": "https://rikushinfukushikai.com/" }, "geometry": { "type": "Point", "coordinates": [ 130.2072001, 33.2248365 ] } },
{ "type": "Feature", "properties": { "内容": "デイサービスセンターはつらつ【地域密着型通所介護】佐賀県嬉野市嬉野町大字下宿甲４７１４番地５", "url": "https://www.kaigokensaku.mhlw.go.jp/41/index.php?action_kouhyou_detail_004_kani=true&JigyosyoCd=4111710788-00&ServiceCd=780&Type=search", "url2": null }, "geometry": { "type": "Point", "coordinates": [ 129.995663499999978, 33.1027961 ] } },
{ "type": "Feature", "properties": { "内容": "デイサービスぬくもいホーム「よつ葉」【地域密着型通所介護】嬉野市嬉野町大字下野丙１６９９番地２", "url": "https://www.kaigokensaku.mhlw.go.jp/41/index.php?action_kouhyou_detail_004_kani=true&JigyosyoCd=4170900098-00&ServiceCd=780&Type=search", "url2": null }, "geometry": { "type": "Point", "coordinates": [ 129.998595799999947, 33.1231438 ] } },
{ "type": "Feature", "properties": { "内容": "デイサービス　ほほえみの里【地域密着型通所介護】佐賀県嬉野市嬉野町大字下宿甲３７９７番地", "url": "https://www.kaigokensaku.mhlw.go.jp/41/index.php?action_kouhyou_detail_004_kani=true&JigyosyoCd=4170900163-00&ServiceCd=780&Type=search", "url2": null }, "geometry": { "type": "Point", "coordinates": [ 129.9916, 33.1051041 ] } },
{ "type": "Feature", "properties": { "内容": "デイサービス岩ちゃん家【地域密着型通所介護】佐賀県嬉野市嬉野町大字岩屋川内乙2848-1", "url": "https://www.kaigokensaku.mhlw.go.jp/41/index.php?action_kouhyou_detail_004_kani=true&JigyosyoCd=4170900221-00&ServiceCd=780&Type=search", "url2": null }, "geometry": { "type": "Point", "coordinates": [ 129.978554700000018, 33.0828869 ] } },
{ "type": "Feature", "properties": { "内容": "デイサービス百花之里【地域密着型通所介護】嬉野町大字下宿乙961-1", "url": "https://www.kaigokensaku.mhlw.go.jp/41/index.php?action_kouhyou_detail_004_kani=true&JigyosyoCd=4170900197-00&ServiceCd=780&Type=search", "url2": null }, "geometry": { "type": "Point", "coordinates": [ 129.9872368, 33.0980159 ] } },
{ "type": "Feature", "properties": { "内容": "地域共生ステーション　デイサービス・宅老所　たすき【地域密着型通所介護】佐賀県嬉野市塩田町大字久間乙1032番地", "url": "https://www.kaigokensaku.mhlw.go.jp/41/index.php?action_kouhyou_detail_004_kani=true&JigyosyoCd=4170900262-00&ServiceCd=780&Type=search", "url2": null }, "geometry": { "type": "Point", "coordinates": [ 130.060114399999946, 33.1280839 ] } },
{ "type": "Feature", "properties": { "内容": "佐賀ユートピア【地域密着型通所介護】佐賀県嬉野市塩田町五町田甲1858-1", "url": "https://www.kaigokensaku.mhlw.go.jp/41/index.php?action_kouhyou_detail_004_kani=true&JigyosyoCd=4190700148-00&ServiceCd=780&Type=search", "url2": null }, "geometry": { "type": "Point", "coordinates": [ 130.068324792759711, 33.125351819413765 ] } },
{ "type": "Feature", "properties": { "内容": "宅幼老所さくらさくら【地域密着型通所介護】佐賀県嬉野市嬉野町大字下宿甲570番地1", "url": "https://www.kaigokensaku.mhlw.go.jp/41/index.php?action_kouhyou_detail_004_kani=true&JigyosyoCd=4190900094-00&ServiceCd=780&Type=search", "url2": null }, "geometry": { "type": "Point", "coordinates": [ 129.9992049, 33.110364 ] } },
{ "type": "Feature", "properties": { "内容": "デイサービス　はーとふる【地域密着型通所介護】神埼市神埼町本告牟田１１１１番地１", "url": "https://www.kaigokensaku.mhlw.go.jp/41/index.php?action_kouhyou_detail_004_kani=true&JigyosyoCd=4172000160-00&ServiceCd=780&Type=search", "url2": null }, "geometry": { "type": "Point", "coordinates": [ 130.362604989549226, 33.298809889669982 ] } },
{ "type": "Feature", "properties": { "内容": "生活支援所　おさき【地域密着型通所介護】佐賀県神埼市神埼町尾崎　１８２番地１", "url": "https://www.kaigokensaku.mhlw.go.jp/41/index.php?action_kouhyou_detail_004_kani=true&JigyosyoCd=4172000046-00&ServiceCd=780&Type=search", "url2": null }, "geometry": { "type": "Point", "coordinates": [ 130.346118100000012, 33.3080321 ] } },
{ "type": "Feature", "properties": { "内容": "デイホーム脊振【地域密着型通所介護】脊振町広滝495番地3ファミーユ脊振", "url": "https://www.kaigokensaku.mhlw.go.jp/41/index.php?action_kouhyou_detail_004_kani=true&JigyosyoCd=4172000178-00&ServiceCd=780&Type=search", "url2": null }, "geometry": { "type": "Point", "coordinates": [ 130.326110879623457, 33.378598170794753 ] } },
{ "type": "Feature", "properties": { "内容": "社会福祉法人　神埼市社会福祉協議会【地域密着型通所介護】佐賀県神埼市脊振町広滝532-1脊振町高齢者生活福祉センターそよかぜ荘", "url": "https://www.kaigokensaku.mhlw.go.jp/41/index.php?action_kouhyou_detail_004_kani=true&JigyosyoCd=4171100094-00&ServiceCd=780&Type=search", "url2": "http://kanzaki-syakyo.com/" }, "geometry": { "type": "Point", "coordinates": [ 130.3258204, 33.3766308 ] } },
{ "type": "Feature", "properties": { "内容": "特定非営利活動法人宅老ちよだひまわりの会【地域密着型通所介護】佐賀県神埼市千代田町直鳥１５００番地", "url": "https://www.kaigokensaku.mhlw.go.jp/41/index.php?action_kouhyou_detail_004_kani=true&JigyosyoCd=4171100169-00&ServiceCd=780&Type=search", "url2": null }, "geometry": { "type": "Point", "coordinates": [ 130.36758420000001, 33.2657056 ] } },
{ "type": "Feature", "properties": { "内容": "和みの家　よかとこ【地域密着型通所介護】佐賀県神埼市千代田町餘江1211-3", "url": "https://www.kaigokensaku.mhlw.go.jp/41/index.php?action_kouhyou_detail_004_kani=true&JigyosyoCd=4171100219-00&ServiceCd=780&Type=search", "url2": "nagomi-yokatoko.jimdofree.com" }, "geometry": { "type": "Point", "coordinates": [ 130.356759871989993, 33.262117655853011 ] } },
{ "type": "Feature", "properties": { "内容": "デイサービス　あやべ【地域密着型通所介護】佐賀県神埼市神埼町枝ケ里２９２－１０", "url": "https://www.kaigokensaku.mhlw.go.jp/41/index.php?action_kouhyou_detail_004_kani=true&JigyosyoCd=4172000079-00&ServiceCd=780&Type=search", "url2": "http://ayabe-sekkotsuin.com/kaigo.html" }, "geometry": { "type": "Point", "coordinates": [ 130.370705, 33.3064714 ] } },
{ "type": "Feature", "properties": { "内容": "地域共生ホーム　まごころ【地域密着型通所介護】佐賀県神埼市千代田町﨑村911番地", "url": "https://www.kaigokensaku.mhlw.go.jp/41/index.php?action_kouhyou_detail_004_kani=true&JigyosyoCd=4172000087-00&ServiceCd=780&Type=search", "url2": null }, "geometry": { "type": "Point", "coordinates": [ 130.387313100000028, 33.257162 ] } },
{ "type": "Feature", "properties": { "内容": "地域密着型通所介護事業所　ひしの花【地域密着型通所介護】佐賀県神埼市千代田町用作2098-3サービス付き高齢者住宅　こすもす", "url": "https://www.kaigokensaku.mhlw.go.jp/41/index.php?action_kouhyou_detail_004_kani=true&JigyosyoCd=4192000067-00&ServiceCd=780&Type=search", "url2": "e-mail：s.cosmos@jasmine.ocn.ne.jp" }, "geometry": { "type": "Point", "coordinates": [ 130.379036256236276, 33.266758151446844 ] } },
{ "type": "Feature", "properties": { "内容": "デイサービスコラージュ【地域密着型通所介護】佐賀県神埼市千代田町嘉納597番地", "url": "https://www.kaigokensaku.mhlw.go.jp/41/index.php?action_kouhyou_detail_004_kani=true&JigyosyoCd=4192000083-00&ServiceCd=780&Type=search", "url2": null }, "geometry": { "type": "Point", "coordinates": [ 130.3756243, 33.2796345 ] } },
{ "type": "Feature", "properties": { "内容": "デイサービス　あまりえ【地域密着型通所介護】佐賀県神埼市千代田町餘江1208-2", "url": "https://www.kaigokensaku.mhlw.go.jp/41/index.php?action_kouhyou_detail_004_kani=true&JigyosyoCd=4172000111-00&ServiceCd=780&Type=search", "url2": "https://www.shinzenkai.info/" }, "geometry": { "type": "Point", "coordinates": [ 130.355321255155928, 33.262692626012118 ] } },
{ "type": "Feature", "properties": { "内容": "デイサービス日の隈【地域密着型通所介護】佐賀県神埼市神埼町尾崎4530-24", "url": "https://www.kaigokensaku.mhlw.go.jp/41/index.php?action_kouhyou_detail_004_kani=true&JigyosyoCd=4192000075-00&ServiceCd=780&Type=search", "url2": null }, "geometry": { "type": "Point", "coordinates": [ 130.351069700000011, 33.3272442 ] } },
{ "type": "Feature", "properties": { "内容": "VOICE音CAFE【地域密着型通所介護】佐賀県三養基郡基山町大字宮浦186番地57", "url": "https://www.kaigokensaku.mhlw.go.jp/41/index.php?action_kouhyou_detail_004_kani=true&JigyosyoCd=4171200621-00&ServiceCd=780&Type=search", "url2": null }, "geometry": { "type": "Point", "coordinates": [ 130.53017049999994, 33.4220389 ] } },
{ "type": "Feature", "properties": { "内容": "デイサービスセンター　基肄の郷【地域密着型通所介護】佐賀県三養基郡基山町大字小倉853-3", "url": "https://www.kaigokensaku.mhlw.go.jp/41/index.php?action_kouhyou_detail_004_kani=true&JigyosyoCd=4191200130-00&ServiceCd=780&Type=search", "url2": "needscrew.jp" }, "geometry": { "type": "Point", "coordinates": [ 130.535021199999989, 33.4258241 ] } },
{ "type": "Feature", "properties": { "内容": "デイサービス家族【地域密着型通所介護】佐賀県三養基郡上峰町大字坊所3153番地1", "url": "https://www.kaigokensaku.mhlw.go.jp/41/index.php?action_kouhyou_detail_004_kani=true&JigyosyoCd=4171200605-00&ServiceCd=780&Type=search", "url2": null }, "geometry": { "type": "Point", "coordinates": [ 130.4164068, 33.3234755 ] } },
{ "type": "Feature", "properties": { "内容": "ミック健康の森　みやき【地域密着型通所介護】佐賀県三養基郡みやき町白壁690-21階Ｃ号室", "url": "https://www.kaigokensaku.mhlw.go.jp/41/index.php?action_kouhyou_detail_004_kani=true&JigyosyoCd=4171200639-00&ServiceCd=780&Type=search", "url2": "http://www.un-mik.co.jp/" }, "geometry": { "type": "Point", "coordinates": [ 130.468273745893839, 33.328377549771069 ] } },
{ "type": "Feature", "properties": { "内容": "寄り合いステーション　　さくら坂【地域密着型通所介護】佐賀県三養基郡みやき町大字原古賀6309-67", "url": "https://www.kaigokensaku.mhlw.go.jp/41/index.php?action_kouhyou_detail_004_kani=true&JigyosyoCd=4171200399-00&ServiceCd=780&Type=search", "url2": null }, "geometry": { "type": "Point", "coordinates": [ 130.454698399999984, 33.3249819 ] } },
{ "type": "Feature", "properties": { "内容": "リハビリ専門デイサービス　らしく・らしく【地域密着型通所介護】佐賀県三養基郡みやき町原古賀7385番地9", "url": "https://www.kaigokensaku.mhlw.go.jp/41/index.php?action_kouhyou_detail_004_kani=true&JigyosyoCd=4171200654-00&ServiceCd=780&Type=search", "url2": null }, "geometry": { "type": "Point", "coordinates": [ 130.444343200000048, 33.3349862 ] } },
{ "type": "Feature", "properties": { "内容": "ミック健康の森　みやき【地域密着型通所介護】佐賀県三養基郡みやき町白壁690-2", "url": "https://www.kaigokensaku.mhlw.go.jp/41/index.php?action_kouhyou_detail_004_kani=true&JigyosyoCd=4191200163-00&ServiceCd=780&Type=search", "url2": "http://un-mik.co.jp/" }, "geometry": { "type": "Point", "coordinates": [ 130.4682636, 33.3283347 ] } },
{ "type": "Feature", "properties": { "内容": "地域密着型通所介護ともなが【地域密着型通所介護】佐賀県西松浦郡有田町戸杓丙１２４番地３", "url": "https://www.kaigokensaku.mhlw.go.jp/41/index.php?action_kouhyou_detail_004_kani=true&JigyosyoCd=4171500095-00&ServiceCd=780&Type=search", "url2": "https://kyotakukaigo-tomonaga.com/" }, "geometry": { "type": "Point", "coordinates": [ 129.879146, 33.1758115 ] } },
{ "type": "Feature", "properties": { "内容": "ふくしま整骨院リハビリデイサービス【地域密着型通所介護】西松浦郡有田町大木宿乙952-1-2ジャジャの森センターハウス", "url": "https://www.kaigokensaku.mhlw.go.jp/41/index.php?action_kouhyou_detail_004_kani=true&JigyosyoCd=4171500145-00&ServiceCd=780&Type=search", "url2": "http://bone-fukushima.com" }, "geometry": { "type": "Point", "coordinates": [ 129.848847299999989, 33.2228313 ] } },
{ "type": "Feature", "properties": { "内容": "デイサービスふくも【地域密着型通所介護】佐賀県杵島郡大町町大字福母1800番地31", "url": "https://www.kaigokensaku.mhlw.go.jp/41/index.php?action_kouhyou_detail_004_kani=true&JigyosyoCd=4191600107-00&ServiceCd=780&Type=search", "url2": null }, "geometry": { "type": "Point", "coordinates": [ 130.095600499999989, 33.2169235 ] } },
{ "type": "Feature", "properties": { "内容": "NPO法人江北　なごむの里【地域密着型通所介護】杵島郡江北町大字総領分1473番地", "url": "https://www.kaigokensaku.mhlw.go.jp/41/index.php?action_kouhyou_detail_004_kani=true&JigyosyoCd=4171600382-00&ServiceCd=780&Type=search", "url2": null }, "geometry": { "type": "Point", "coordinates": [ 130.177707, 33.216068300000018 ] } },
{ "type": "Feature", "properties": { "内容": "デイサービスセンター　るんびに園【地域密着型通所介護】佐賀県杵島郡江北町大字惣領分4153番地", "url": "https://www.kaigokensaku.mhlw.go.jp/41/index.php?action_kouhyou_detail_004_kani=true&JigyosyoCd=4171600036-00&ServiceCd=780&Type=search", "url2": "http://jizankai.jp/" }, "geometry": { "type": "Point", "coordinates": [ 130.1766404, 33.2276056 ] } },
{ "type": "Feature", "properties": { "内容": "デイサービス　まんまる【地域密着型通所介護】大字福田1894番地30", "url": "https://www.kaigokensaku.mhlw.go.jp/41/index.php?action_kouhyou_detail_004_kani=true&JigyosyoCd=4171600440-00&ServiceCd=780&Type=search", "url2": null }, "geometry": { "type": "Point", "coordinates": [ 130.136613099999977, 33.1862707 ] } },
{ "type": "Feature", "properties": { "内容": "有限会社　片渕　健やかクラブ【地域密着型通所介護】佐賀県杵島郡白石町大字福富3393", "url": "https://www.kaigokensaku.mhlw.go.jp/41/index.php?action_kouhyou_detail_004_kani=true&JigyosyoCd=4171600242-00&ServiceCd=780&Type=search", "url2": null }, "geometry": { "type": "Point", "coordinates": [ 130.186455338484137, 33.185964858132422 ] } },
{ "type": "Feature", "properties": { "内容": "（有）巴屋　デイサービス黒川【地域密着型通所介護】佐賀県杵島郡白石町大字戸ヶ里2374－10デイサービス　黒川", "url": "https://www.kaigokensaku.mhlw.go.jp/41/index.php?action_kouhyou_detail_004_kani=true&JigyosyoCd=4171600341-00&ServiceCd=780&Type=search", "url2": null }, "geometry": { "type": "Point", "coordinates": [ 130.126296292665074, 33.153500458204846 ] } },
{ "type": "Feature", "properties": { "内容": "ライオンハウスデイ桜の園【地域密着型通所介護】佐賀県杵島郡白石町大字福富下分2387番地9", "url": "https://www.kaigokensaku.mhlw.go.jp/41/index.php?action_kouhyou_detail_004_kani=true&JigyosyoCd=4171600614-00&ServiceCd=780&Type=search", "url2": "http://www.sakuranosono.com" }, "geometry": { "type": "Point", "coordinates": [ 130.198840618385248, 33.191999637402049 ] } },
{ "type": "Feature", "properties": { "内容": "医療法人　　醇和会　　有島病院【地域密着型通所介護】佐賀県杵島郡白石町大字戸ヶ里2352-3", "url": "https://www.kaigokensaku.mhlw.go.jp/41/index.php?action_kouhyou_detail_004_kani=true&JigyosyoCd=4111610061-00&ServiceCd=780&Type=search", "url2": "arishima-hp.com" }, "geometry": { "type": "Point", "coordinates": [ 130.12565, 33.1543406 ] } },
{ "type": "Feature", "properties": { "内容": "宅老所　まごころの家【地域密着型通所介護】佐賀県藤津郡太良町大字大浦丙1151番地１０", "url": "https://www.kaigokensaku.mhlw.go.jp/41/index.php?action_kouhyou_detail_004_kani=true&JigyosyoCd=4171700240-00&ServiceCd=780&Type=search", "url2": null }, "geometry": { "type": "Point", "coordinates": [ 130.216310900000053, 32.9748013 ] } },
{ "type": "Feature", "properties": { "内容": "デイサービスせと【地域密着型通所介護】佐賀県藤津郡太良町大字多良854-1", "url": "https://www.kaigokensaku.mhlw.go.jp/41/index.php?action_kouhyou_detail_004_kani=true&JigyosyoCd=4191700048-00&ServiceCd=780&Type=search", "url2": null }, "geometry": { "type": "Point", "coordinates": [ 130.170865600000013, 33.0235069 ] } }
]
}
