{
"type": "FeatureCollection",
"name": "geo_41_特定福祉用具販売",
"crs": { "type": "name", "properties": { "name": "urn:ogc:def:crs:OGC:1.3:CRS84" } },
"features": [
{ "type": "Feature", "properties": { "内容": "ニチイケアセンター佐賀みなみ【特定福祉用具販売】佐賀県佐賀市本庄町袋142-1", "url": "https://www.kaigokensaku.mhlw.go.jp/41/index.php?action_kouhyou_detail_004_kani=true&JigyosyoCd=4170100061-00&ServiceCd=410&Type=search", "url2": "http://www.nichiigakkan.co.jp" }, "geometry": { "type": "Point", "coordinates": [ 130.303272, 33.2377178 ] } },
{ "type": "Feature", "properties": { "内容": "虹の薬局【特定福祉用具販売】神野東4丁目9-21", "url": "https://www.kaigokensaku.mhlw.go.jp/41/index.php?action_kouhyou_detail_004_kani=true&JigyosyoCd=4140142946-00&ServiceCd=410&Type=search", "url2": "http://www.saga-niji.jp/" }, "geometry": { "type": "Point", "coordinates": [ 130.299468599999955, 33.2697037 ] } },
{ "type": "Feature", "properties": { "内容": "介護用品　花みずき【特定福祉用具販売】佐賀県佐賀市本庄町袋256-1ファインビューSAGA　1階", "url": "https://www.kaigokensaku.mhlw.go.jp/41/index.php?action_kouhyou_detail_004_kani=true&JigyosyoCd=4170102877-00&ServiceCd=410&Type=search", "url2": "http://www.nakao-c.com/hanamizuki/" }, "geometry": { "type": "Point", "coordinates": [ 130.299539, 33.2402008 ] } },
{ "type": "Feature", "properties": { "内容": "ケアサポート九州【特定福祉用具販売】佐賀県佐賀市神野東4丁目12番29号", "url": "https://www.kaigokensaku.mhlw.go.jp/41/index.php?action_kouhyou_detail_004_kani=true&JigyosyoCd=4170100863-00&ServiceCd=410&Type=search", "url2": null }, "geometry": { "type": "Point", "coordinates": [ 130.296091199999978, 33.2698035 ] } },
{ "type": "Feature", "properties": { "内容": "エヴァ佐賀【特定福祉用具販売】佐賀県佐賀市川副町南里348番地1", "url": "https://www.kaigokensaku.mhlw.go.jp/41/index.php?action_kouhyou_detail_004_kani=true&JigyosyoCd=4170101697-00&ServiceCd=410&Type=search", "url2": "http://www.evah-care.jp" }, "geometry": { "type": "Point", "coordinates": [ 130.313038892826029, 33.211926432515085 ] } },
{ "type": "Feature", "properties": { "内容": "株式会社　エッグ【特定福祉用具販売】佐賀県佐賀市本庄町大字鹿子295番地1", "url": "https://www.kaigokensaku.mhlw.go.jp/41/index.php?action_kouhyou_detail_004_kani=true&JigyosyoCd=4170102166-00&ServiceCd=410&Type=search", "url2": "https://www.egg-hukushiyougu.jp" }, "geometry": { "type": "Point", "coordinates": [ 130.293850900000052, 33.22810470000001 ] } },
{ "type": "Feature", "properties": { "内容": "株式会社エヴァ・ライフ　ベストケア佐賀【特定福祉用具販売】佐賀県佐賀市卸本町5番13号", "url": "https://www.kaigokensaku.mhlw.go.jp/41/index.php?action_kouhyou_detail_004_kani=true&JigyosyoCd=4170103297-00&ServiceCd=410&Type=search", "url2": "evahlife.jp/smarts/index/0/" }, "geometry": { "type": "Point", "coordinates": [ 130.277175700000043, 33.2729583 ] } },
{ "type": "Feature", "properties": { "内容": "太陽シルバーサービス株式会社　佐賀営業所【特定福祉用具販売】佐賀県佐賀市鍋島5丁目4-15", "url": "https://www.kaigokensaku.mhlw.go.jp/41/index.php?action_kouhyou_detail_004_kani=true&JigyosyoCd=4170103396-00&ServiceCd=410&Type=search", "url2": "http://www.taiyoss.co.jp/" }, "geometry": { "type": "Point", "coordinates": [ 130.2629412, 33.2820845 ] } },
{ "type": "Feature", "properties": { "内容": "人生どうぐ　コグ【特定福祉用具販売】佐賀県佐賀市本庄町本庄1240番地1", "url": "https://www.kaigokensaku.mhlw.go.jp/41/index.php?action_kouhyou_detail_004_kani=true&JigyosyoCd=4170103347-00&ServiceCd=410&Type=search", "url2": "https://www.blue-moment.co.jp/kogu/" }, "geometry": { "type": "Point", "coordinates": [ 130.2894241, 33.2449248 ] } },
{ "type": "Feature", "properties": { "内容": "株式会社リップ【特定福祉用具販売】佐賀市鍋島町大字森田2439-1", "url": "https://www.kaigokensaku.mhlw.go.jp/41/index.php?action_kouhyou_detail_004_kani=true&JigyosyoCd=4171200159-00&ServiceCd=410&Type=search", "url2": "http://www.lipford.co.jp" }, "geometry": { "type": "Point", "coordinates": [ 130.252066499999955, 33.2663692 ] } },
{ "type": "Feature", "properties": { "内容": "株式会社クローバー　唐津営業所【特定福祉用具販売】佐賀県唐津市町田1860-3", "url": "https://www.kaigokensaku.mhlw.go.jp/41/index.php?action_kouhyou_detail_004_kani=true&JigyosyoCd=4170201430-00&ServiceCd=410&Type=search", "url2": "http://www.clover-w.co.jp/" }, "geometry": { "type": "Point", "coordinates": [ 129.971519109721356, 33.437541178100084 ] } },
{ "type": "Feature", "properties": { "内容": "有限会社　トゥーワンケア　唐津支社【特定福祉用具販売】佐賀県唐津市養母田鬼塚３－２２", "url": "https://www.kaigokensaku.mhlw.go.jp/41/index.php?action_kouhyou_detail_004_kani=true&JigyosyoCd=4170201679-00&ServiceCd=410&Type=search", "url2": "https://21care.jp/" }, "geometry": { "type": "Point", "coordinates": [ 129.985296299999987, 33.4147549 ] } },
{ "type": "Feature", "properties": { "内容": "有限会社　ライフケア【特定福祉用具販売】佐賀県唐津市相知町千束１６５４－１", "url": "https://www.kaigokensaku.mhlw.go.jp/41/index.php?action_kouhyou_detail_004_kani=true&JigyosyoCd=4171400221-00&ServiceCd=410&Type=search", "url2": null }, "geometry": { "type": "Point", "coordinates": [ 130.0280444, 33.3526785 ] } },
{ "type": "Feature", "properties": { "内容": "唐津ガス福祉事業部【特定福祉用具販売】神田２３２９", "url": "https://www.kaigokensaku.mhlw.go.jp/41/index.php?action_kouhyou_detail_004_kani=true&JigyosyoCd=4170200960-00&ServiceCd=410&Type=search", "url2": "http://www.karatsugas.co.jp" }, "geometry": { "type": "Point", "coordinates": [ 129.950567487557919, 33.440665297881715 ] } },
{ "type": "Feature", "properties": { "内容": "株式会社　介助　鳥栖営業所【特定福祉用具販売】佐賀県鳥栖市宿町1157-1", "url": "https://www.kaigokensaku.mhlw.go.jp/41/index.php?action_kouhyou_detail_004_kani=true&JigyosyoCd=4170300919-00&ServiceCd=410&Type=search", "url2": "http://www.kaisuke.co.jp/" }, "geometry": { "type": "Point", "coordinates": [ 130.504419200000029, 33.3788795 ] } },
{ "type": "Feature", "properties": { "内容": "サポート中九州【特定福祉用具販売】佐賀県鳥栖市今泉町2125番地22", "url": "https://www.kaigokensaku.mhlw.go.jp/41/index.php?action_kouhyou_detail_004_kani=true&JigyosyoCd=4170300638-00&ServiceCd=410&Type=search", "url2": null }, "geometry": { "type": "Point", "coordinates": [ 130.509350632600388, 33.364525201330046 ] } },
{ "type": "Feature", "properties": { "内容": "フランスベッド株式会社　メディカル鳥栖営業所【特定福祉用具販売】佐賀県鳥栖市轟木町1700", "url": "https://www.kaigokensaku.mhlw.go.jp/41/index.php?action_kouhyou_detail_004_kani=true&JigyosyoCd=4170300760-00&ServiceCd=410&Type=search", "url2": "http://www.francebed.co.jp/" }, "geometry": { "type": "Point", "coordinates": [ 130.499880800000028, 33.3681664 ] } },
{ "type": "Feature", "properties": { "内容": "株式会社フロンティア佐賀営業所【特定福祉用具販売】西新町1422-209", "url": "https://www.kaigokensaku.mhlw.go.jp/41/index.php?action_kouhyou_detail_004_kani=true&JigyosyoCd=4170300943-00&ServiceCd=410&Type=search", "url2": "http://www.frontier-ph.com" }, "geometry": { "type": "Point", "coordinates": [ 130.465550267984014, 33.354556214080645 ] } },
{ "type": "Feature", "properties": { "内容": "株式会社　クローバー鳥栖営業所【特定福祉用具販売】今泉町2248番地1", "url": "https://www.kaigokensaku.mhlw.go.jp/41/index.php?action_kouhyou_detail_004_kani=true&JigyosyoCd=4170301289-00&ServiceCd=410&Type=search", "url2": null }, "geometry": { "type": "Point", "coordinates": [ 130.512446899999986, 33.3634598 ] } },
{ "type": "Feature", "properties": { "内容": "株式会社SUN【特定福祉用具販売】佐賀県鳥栖市原町1296-2", "url": "https://www.kaigokensaku.mhlw.go.jp/41/index.php?action_kouhyou_detail_004_kani=true&JigyosyoCd=4170301297-00&ServiceCd=410&Type=search", "url2": "https://sun-saga.com/" }, "geometry": { "type": "Point", "coordinates": [ 130.527812399999988, 33.3841382 ] } },
{ "type": "Feature", "properties": { "内容": "株式会社　エール【特定福祉用具販売】佐賀県鳥栖市曾根崎町1154-3", "url": "https://www.kaigokensaku.mhlw.go.jp/41/index.php?action_kouhyou_detail_004_kani=true&JigyosyoCd=4170301305-00&ServiceCd=410&Type=search", "url2": null }, "geometry": { "type": "Point", "coordinates": [ 130.5262401, 33.3746185 ] } },
{ "type": "Feature", "properties": { "内容": "株式会社トーカイ　九州中央営業所【特定福祉用具販売】佐賀県鳥栖市藤木町1番地34", "url": "https://www.kaigokensaku.mhlw.go.jp/41/index.php?action_kouhyou_detail_004_kani=true&JigyosyoCd=4170301396-00&ServiceCd=410&Type=search", "url2": "https://www.tokai-corp.com" }, "geometry": { "type": "Point", "coordinates": [ 130.5232897, 33.3712074 ] } },
{ "type": "Feature", "properties": { "内容": "おさるのかごや【特定福祉用具販売】佐賀県多久市北多久町大字小侍54-37", "url": "https://www.kaigokensaku.mhlw.go.jp/41/index.php?action_kouhyou_detail_004_kani=true&JigyosyoCd=4170400354-00&ServiceCd=410&Type=search", "url2": null }, "geometry": { "type": "Point", "coordinates": [ 130.1083678, 33.2888493 ] } },
{ "type": "Feature", "properties": { "内容": "ケアサポート　サンライフ【特定福祉用具販売】佐賀県多久市南多久町大字長尾4131番地4", "url": "https://www.kaigokensaku.mhlw.go.jp/41/index.php?action_kouhyou_detail_004_kani=true&JigyosyoCd=4170400271-00&ServiceCd=410&Type=search", "url2": "http://8425sunlife.com/" }, "geometry": { "type": "Point", "coordinates": [ 130.111141299999986, 33.2818049 ] } },
{ "type": "Feature", "properties": { "内容": "エヴァ　西九州【特定福祉用具販売】佐賀県伊万里南波多町井手野3842番地1", "url": "https://www.kaigokensaku.mhlw.go.jp/41/index.php?action_kouhyou_detail_004_kani=true&JigyosyoCd=4170500351-00&ServiceCd=410&Type=search", "url2": "http://www.evah-care.jp" }, "geometry": { "type": "Point", "coordinates": [ 129.92834110000004, 33.319957 ] } },
{ "type": "Feature", "properties": { "内容": "株式会社　新和メディカル【特定福祉用具販売】佐賀県武雄市武雄町大字昭和109番地", "url": "https://www.kaigokensaku.mhlw.go.jp/41/index.php?action_kouhyou_detail_004_kani=true&JigyosyoCd=4170600037-00&ServiceCd=410&Type=search", "url2": "http://www.shinwamedical.com/index.html" }, "geometry": { "type": "Point", "coordinates": [ 130.024411200000031, 33.1916435 ] } },
{ "type": "Feature", "properties": { "内容": "プラスケア　武雄【特定福祉用具販売】佐賀県武雄市武雄町大字武雄8037", "url": "https://www.kaigokensaku.mhlw.go.jp/41/index.php?action_kouhyou_detail_004_kani=true&JigyosyoCd=4170600433-00&ServiceCd=410&Type=search", "url2": "pluscare2002.co.jp" }, "geometry": { "type": "Point", "coordinates": [ 130.019000284710074, 33.192323498952163 ] } },
{ "type": "Feature", "properties": { "内容": "株式会社　エヴァ・ライフ　ベストケア鹿島営業所【特定福祉用具販売】佐賀県鹿島市大字中村字乙丸2051-1", "url": "https://www.kaigokensaku.mhlw.go.jp/41/index.php?action_kouhyou_detail_004_kani=true&JigyosyoCd=4170700316-00&ServiceCd=410&Type=search", "url2": "http://evahlife.jp" }, "geometry": { "type": "Point", "coordinates": [ 130.096433030024713, 33.121921486265983 ] } },
{ "type": "Feature", "properties": { "内容": "大平総研【特定福祉用具販売】佐賀県小城市三日月町長神田2232番地1", "url": "https://www.kaigokensaku.mhlw.go.jp/41/index.php?action_kouhyou_detail_004_kani=true&JigyosyoCd=4171300611-00&ServiceCd=410&Type=search", "url2": null }, "geometry": { "type": "Point", "coordinates": [ 130.216232, 33.2777872 ] } },
{ "type": "Feature", "properties": { "内容": "株式会社　大平　タイヘイＭ＆Ｃ【特定福祉用具販売】佐賀県小城市三日月町長神田2234番地", "url": "https://www.kaigokensaku.mhlw.go.jp/41/index.php?action_kouhyou_detail_004_kani=true&JigyosyoCd=4171300041-00&ServiceCd=410&Type=search", "url2": "http://www.taihei-group.jp/" }, "geometry": { "type": "Point", "coordinates": [ 130.215305299999955, 33.2775367 ] } },
{ "type": "Feature", "properties": { "内容": "有限会社　睦商事【特定福祉用具販売】佐賀県小城市小城町745-1", "url": "https://www.kaigokensaku.mhlw.go.jp/41/index.php?action_kouhyou_detail_004_kani=true&JigyosyoCd=4171300173-00&ServiceCd=410&Type=search", "url2": null }, "geometry": { "type": "Point", "coordinates": [ 130.208883856652847, 33.299148430633117 ] } },
{ "type": "Feature", "properties": { "内容": "有限会社　トゥーワンケア【特定福祉用具販売】佐賀県嬉野市塩田町大字久間乙3031番地", "url": "https://www.kaigokensaku.mhlw.go.jp/41/index.php?action_kouhyou_detail_004_kani=true&JigyosyoCd=4171700141-00&ServiceCd=410&Type=search", "url2": "http://21care.jp/" }, "geometry": { "type": "Point", "coordinates": [ 130.05990250548777, 33.157289987910964 ] } },
{ "type": "Feature", "properties": { "内容": "としとランド　西九州店【特定福祉用具販売】佐賀県西松浦郡有田町南原甲763-2", "url": "https://www.kaigokensaku.mhlw.go.jp/41/index.php?action_kouhyou_detail_004_kani=true&JigyosyoCd=4171500202-00&ServiceCd=410&Type=search", "url2": null }, "geometry": { "type": "Point", "coordinates": [ 129.8645689, 33.1885045 ] } },
{ "type": "Feature", "properties": { "内容": "株式会社クローバー　佐賀営業所【特定福祉用具販売】佐賀県杵島郡江北町大字山口1355-1", "url": "https://www.kaigokensaku.mhlw.go.jp/41/index.php?action_kouhyou_detail_004_kani=true&JigyosyoCd=4171600549-00&ServiceCd=410&Type=search", "url2": "http://www.clover-w.co.jp" }, "geometry": { "type": "Point", "coordinates": [ 130.16179239444449, 33.217757526163567 ] } },
{ "type": "Feature", "properties": { "内容": "株式会社　スマイルサポート【特定福祉用具販売】杵島郡白石町大字深浦905番地4", "url": "https://www.kaigokensaku.mhlw.go.jp/41/index.php?action_kouhyou_detail_004_kani=true&JigyosyoCd=4171600457-00&ServiceCd=410&Type=search", "url2": null }, "geometry": { "type": "Point", "coordinates": [ 130.122683599999988, 33.135345 ] } },
{ "type": "Feature", "properties": { "内容": "株式会社　メディカルクリエイト【特定福祉用具販売】福富3464-1", "url": "https://www.kaigokensaku.mhlw.go.jp/41/index.php?action_kouhyou_detail_004_kani=true&JigyosyoCd=4171600572-00&ServiceCd=410&Type=search", "url2": null }, "geometry": { "type": "Point", "coordinates": [ 130.192650257672113, 33.185067398287082 ] } }
]
}
