{
"type": "FeatureCollection",
"name": "geo_41_通所リハビリテーション",
"crs": { "type": "name", "properties": { "name": "urn:ogc:def:crs:OGC:1.3:CRS84" } },
"features": [
{ "type": "Feature", "properties": { "内容": "デイケア　おそえがわ【通所リハビリテーション】佐賀市神園三丁目４－５", "url": "https://www.kaigokensaku.mhlw.go.jp/41/index.php?action_kouhyou_detail_004_kani=true&JigyosyoCd=4110114651-00&ServiceCd=160&Type=search", "url2": "http://osoegawa.esaga.jp" }, "geometry": { "type": "Point", "coordinates": [ 130.284925499999986, 33.2653286 ] } },
{ "type": "Feature", "properties": { "内容": "通所リハビリテーション吉原【通所リハビリテーション】佐賀県佐賀市北川副町新郷654-1夢館", "url": "https://www.kaigokensaku.mhlw.go.jp/41/index.php?action_kouhyou_detail_004_kani=true&JigyosyoCd=4110115344-00&ServiceCd=160&Type=search", "url2": "http://yumekan.jp" }, "geometry": { "type": "Point", "coordinates": [ 130.312874237434357, 33.23773581371249 ] } },
{ "type": "Feature", "properties": { "内容": "通所リハビリテーションもろくま【通所リハビリテーション】佐賀県佐賀市水ケ江二丁目６番２２号", "url": "https://www.kaigokensaku.mhlw.go.jp/41/index.php?action_kouhyou_detail_004_kani=true&JigyosyoCd=4110111392-00&ServiceCd=160&Type=search", "url2": "https://morokuma.or.jp/" }, "geometry": { "type": "Point", "coordinates": [ 130.3082145, 33.2497827 ] } },
{ "type": "Feature", "properties": { "内容": "通所リハビリセンター　ウェルネス開成【通所リハビリテーション】佐賀県佐賀市開成６丁目５番３７号", "url": "https://www.kaigokensaku.mhlw.go.jp/41/index.php?action_kouhyou_detail_004_kani=true&JigyosyoCd=4110116284-00&ServiceCd=160&Type=search", "url2": null }, "geometry": { "type": "Point", "coordinates": [ 130.27245389999996, 33.2695945 ] } },
{ "type": "Feature", "properties": { "内容": "リハビリテーションふじ【通所リハビリテーション】佐賀県佐賀市富士町大字梅野1721番地1", "url": "https://www.kaigokensaku.mhlw.go.jp/41/index.php?action_kouhyou_detail_004_kani=true&JigyosyoCd=4119811208-00&ServiceCd=160&Type=search", "url2": "www.hospitalfj.saga.jp" }, "geometry": { "type": "Point", "coordinates": [ 130.249592200000052, 33.3559038 ] } },
{ "type": "Feature", "properties": { "内容": "デイケアながえ【通所リハビリテーション】佐賀市開成１丁目4番2号", "url": "https://www.kaigokensaku.mhlw.go.jp/41/index.php?action_kouhyou_detail_004_kani=true&JigyosyoCd=4110114446-00&ServiceCd=160&Type=search", "url2": "htt㎰://www.nagaenaika.jp/" }, "geometry": { "type": "Point", "coordinates": [ 130.27855640000007, 33.2681837 ] } },
{ "type": "Feature", "properties": { "内容": "医療法人大和正信会　ふじおか病院【通所リハビリテーション】佐賀市大和町尼寺2685番地", "url": "https://www.kaigokensaku.mhlw.go.jp/41/index.php?action_kouhyou_detail_004_kani=true&JigyosyoCd=4111011344-00&ServiceCd=160&Type=search", "url2": "http:/www.fjok-hsp.com" }, "geometry": { "type": "Point", "coordinates": [ 130.283005, 33.3071853 ] } },
{ "type": "Feature", "properties": { "内容": "木下医院通所リハビリテーション【通所リハビリテーション】佐賀県佐賀市久保泉町上和泉2232-1", "url": "https://www.kaigokensaku.mhlw.go.jp/41/index.php?action_kouhyou_detail_004_kani=true&JigyosyoCd=4110116904-00&ServiceCd=160&Type=search", "url2": "http://www.kirin-saga.or.jp" }, "geometry": { "type": "Point", "coordinates": [ 130.3158295, 33.304574 ] } },
{ "type": "Feature", "properties": { "内容": "介護老人保健施設しょうぶ苑　通所リハビリテーション【通所リハビリテーション】佐賀県佐賀市大和町大字尼寺３２２７－１", "url": "https://www.kaigokensaku.mhlw.go.jp/41/index.php?action_kouhyou_detail_004_kani=true&JigyosyoCd=4151080027-00&ServiceCd=160&Type=search", "url2": "https://shobuen.com/" }, "geometry": { "type": "Point", "coordinates": [ 130.275833299999931, 33.3024226 ] } },
{ "type": "Feature", "properties": { "内容": "医療法人尽心会百武整形外科・スポーツクリニックデイケアセンターJ-STEP【通所リハビリテーション】佐賀県佐賀市水ヶ江4丁目２番１５号", "url": "https://www.kaigokensaku.mhlw.go.jp/41/index.php?action_kouhyou_detail_004_kani=true&JigyosyoCd=4110117084-00&ServiceCd=160&Type=search", "url2": "http://www.hyakutake-hp.com/" }, "geometry": { "type": "Point", "coordinates": [ 130.309202699999986, 33.2467723 ] } },
{ "type": "Feature", "properties": { "内容": "医療法人　信愛整形外科医院　通所リハビリテーションセンター　すこやか【通所リハビリテーション】佐賀県佐賀市川原町4番8号", "url": "https://www.kaigokensaku.mhlw.go.jp/41/index.php?action_kouhyou_detail_004_kani=true&JigyosyoCd=4110114438-00&ServiceCd=160&Type=search", "url2": "http://www.shin-ai-seikei.jp/" }, "geometry": { "type": "Point", "coordinates": [ 130.2917172, 33.2500857 ] } },
{ "type": "Feature", "properties": { "内容": "百武整形外科病院　デイケアセンター　J-HEARTY【通所リハビリテーション】佐賀市水ヶ江3丁目２－１３", "url": "https://www.kaigokensaku.mhlw.go.jp/41/index.php?action_kouhyou_detail_004_kani=true&JigyosyoCd=4110115104-00&ServiceCd=160&Type=search", "url2": "http://www.hyakutake-hp.com" }, "geometry": { "type": "Point", "coordinates": [ 130.307396400000016, 33.2463477 ] } },
{ "type": "Feature", "properties": { "内容": "サンテ溝上病院通所リハビリテーション　ストリハ！【通所リハビリテーション】佐賀県佐賀市呉服元町11番1号", "url": "https://www.kaigokensaku.mhlw.go.jp/41/index.php?action_kouhyou_detail_004_kani=true&JigyosyoCd=4110115179-00&ServiceCd=160&Type=search", "url2": "https://sante-mizokami.com/" }, "geometry": { "type": "Point", "coordinates": [ 130.303690687932686, 33.256284038249383 ] } },
{ "type": "Feature", "properties": { "内容": "橋野医院デイケア【通所リハビリテーション】佐賀県佐賀市高木瀬東５丁目１７番１５号", "url": "https://www.kaigokensaku.mhlw.go.jp/41/index.php?action_kouhyou_detail_004_kani=true&JigyosyoCd=4110115302-00&ServiceCd=160&Type=search", "url2": "http://clinic-1.jp/web/hashi/pc/" }, "geometry": { "type": "Point", "coordinates": [ 130.297496099999989, 33.2861743 ] } },
{ "type": "Feature", "properties": { "内容": "なゆたの森通所リハビリテーション【通所リハビリテーション】佐賀県佐賀市本庄町大字本庄269番地1なゆたの森病院", "url": "https://www.kaigokensaku.mhlw.go.jp/41/index.php?action_kouhyou_detail_004_kani=true&JigyosyoCd=4110117183-00&ServiceCd=160&Type=search", "url2": "www.shiseikai-g.or.jp" }, "geometry": { "type": "Point", "coordinates": [ 130.293830000645357, 33.237697813092474 ] } },
{ "type": "Feature", "properties": { "内容": "志田内科　通所リハビリテーション【通所リハビリテーション】佐賀県佐賀市水ヶ江２丁目7-23", "url": "https://www.kaigokensaku.mhlw.go.jp/41/index.php?action_kouhyou_detail_004_kani=true&JigyosyoCd=4110117548-00&ServiceCd=160&Type=search", "url2": "http://www.shida-hp.com" }, "geometry": { "type": "Point", "coordinates": [ 130.308039300000019, 33.2492334 ] } },
{ "type": "Feature", "properties": { "内容": "横須賀病院　通所リハビリテーション　スマイルライフ【通所リハビリテーション】佐賀県佐賀市巨勢町高尾324番地15", "url": "https://www.kaigokensaku.mhlw.go.jp/41/index.php?action_kouhyou_detail_004_kani=true&JigyosyoCd=4110118066-00&ServiceCd=160&Type=search", "url2": "https://yokosuka-hp.jp/" }, "geometry": { "type": "Point", "coordinates": [ 130.326817299999988, 33.2559855 ] } },
{ "type": "Feature", "properties": { "内容": "本多整形外科デイケア【通所リハビリテーション】佐賀県佐賀市高木瀬東二丁目４番１０号", "url": "https://www.kaigokensaku.mhlw.go.jp/41/index.php?action_kouhyou_detail_004_kani=true&JigyosyoCd=4110114511-00&ServiceCd=160&Type=search", "url2": null }, "geometry": { "type": "Point", "coordinates": [ 130.295888099999956, 33.2806609 ] } },
{ "type": "Feature", "properties": { "内容": "医療法人　島内整形外科医院　デイケア春日【通所リハビリテーション】佐賀県佐賀市大和町尼寺2628番地1", "url": "https://www.kaigokensaku.mhlw.go.jp/41/index.php?action_kouhyou_detail_004_kani=true&JigyosyoCd=4111011021-00&ServiceCd=160&Type=search", "url2": "http://www.shimauchi-seikei.jp" }, "geometry": { "type": "Point", "coordinates": [ 130.284893600000032, 33.3093803 ] } },
{ "type": "Feature", "properties": { "内容": "通所リハビリテーション事業所　　デイケアセンター佐賀【通所リハビリテーション】佐賀市高木瀬町長瀬１３０７番地", "url": "https://www.kaigokensaku.mhlw.go.jp/41/index.php?action_kouhyou_detail_004_kani=true&JigyosyoCd=4150180026-00&ServiceCd=160&Type=search", "url2": "silvercare-saga.com" }, "geometry": { "type": "Point", "coordinates": [ 130.287385699999959, 33.2911931 ] } },
{ "type": "Feature", "properties": { "内容": "介護老人保健施設　みどりの園【通所リハビリテーション】佐賀市兵庫町大字渕1912番地1", "url": "https://www.kaigokensaku.mhlw.go.jp/41/index.php?action_kouhyou_detail_004_kani=true&JigyosyoCd=4150180034-00&ServiceCd=160&Type=search", "url2": "http://www.shunyoukai.jp/" }, "geometry": { "type": "Point", "coordinates": [ 130.313550266270454, 33.281522763559074 ] } },
{ "type": "Feature", "properties": { "内容": "通所リハビリテーション　きりん【通所リハビリテーション】佐賀市金立町薬師丸1274-1", "url": "https://www.kaigokensaku.mhlw.go.jp/41/index.php?action_kouhyou_detail_004_kani=true&JigyosyoCd=4150180042-00&ServiceCd=160&Type=search", "url2": "http://www.kirin-saga.or.jp" }, "geometry": { "type": "Point", "coordinates": [ 130.314688499999988, 33.3023567 ] } },
{ "type": "Feature", "properties": { "内容": "通所リハビリテーションエバーグリーン【通所リハビリテーション】佐賀市嘉瀬町中原1965-1", "url": "https://www.kaigokensaku.mhlw.go.jp/41/index.php?action_kouhyou_detail_004_kani=true&JigyosyoCd=4150180059-00&ServiceCd=160&Type=search", "url2": "http://www.shimada.or.jp/" }, "geometry": { "type": "Point", "coordinates": [ 130.258750700000064, 33.2429048 ] } },
{ "type": "Feature", "properties": { "内容": "独立行政法人地域医療機能推進機構　佐賀中部病院附属介護老人保健施設【通所リハビリテーション】佐賀市兵庫南三丁目8-1", "url": "https://www.kaigokensaku.mhlw.go.jp/41/index.php?action_kouhyou_detail_004_kani=true&JigyosyoCd=4150180067-00&ServiceCd=160&Type=search", "url2": "http://saga.jcho.go.jp.rouken/" }, "geometry": { "type": "Point", "coordinates": [ 130.318414299999972, 33.2645908 ] } },
{ "type": "Feature", "properties": { "内容": "介護老人保健施設レストピア【通所リハビリテーション】佐賀市東与賀町大字下古賀1349番地", "url": "https://www.kaigokensaku.mhlw.go.jp/41/index.php?action_kouhyou_detail_004_kani=true&JigyosyoCd=4151080035-00&ServiceCd=160&Type=search", "url2": "honbu@josyunkakai.or.jp" }, "geometry": { "type": "Point", "coordinates": [ 130.2925712, 33.2004911 ] } },
{ "type": "Feature", "properties": { "内容": "メイプルハウス　通所リハビリテーション【通所リハビリテーション】佐賀県佐賀市川副町大字早津江265番地", "url": "https://www.kaigokensaku.mhlw.go.jp/41/index.php?action_kouhyou_detail_004_kani=true&JigyosyoCd=4151080043-00&ServiceCd=160&Type=search", "url2": null }, "geometry": { "type": "Point", "coordinates": [ 130.336046900000042, 33.2048939 ] } },
{ "type": "Feature", "properties": { "内容": "医療法人社団　杠葉会　介護老人保健施設　白寿園【通所リハビリテーション】佐賀県佐賀市諸富町大字諸富津220番地", "url": "https://www.kaigokensaku.mhlw.go.jp/41/index.php?action_kouhyou_detail_004_kani=true&JigyosyoCd=4151080068-00&ServiceCd=160&Type=search", "url2": null }, "geometry": { "type": "Point", "coordinates": [ 130.361822, 33.2210926 ] } },
{ "type": "Feature", "properties": { "内容": "介護老人保健施設　徐福の里　通所リハビリテーション【通所リハビリテーション】佐賀県佐賀市諸富町大字大堂　1049－4", "url": "https://www.kaigokensaku.mhlw.go.jp/41/index.php?action_kouhyou_detail_004_kani=true&JigyosyoCd=4151080076-00&ServiceCd=160&Type=search", "url2": "http://moriyama-clinic.com/" }, "geometry": { "type": "Point", "coordinates": [ 130.3544425, 33.2360213 ] } },
{ "type": "Feature", "properties": { "内容": "介護老人保健施設シンフォニー佐賀【通所リハビリテーション】佐賀県佐賀市久保田町大字新田３６７９", "url": "https://www.kaigokensaku.mhlw.go.jp/41/index.php?action_kouhyou_detail_004_kani=true&JigyosyoCd=4151080050-00&ServiceCd=160&Type=search", "url2": "http://www.youyuukai-heiseikai.jp/" }, "geometry": { "type": "Point", "coordinates": [ 130.241624934918292, 33.224826549541064 ] } },
{ "type": "Feature", "properties": { "内容": "デイケアセンター仁瑚【通所リハビリテーション】佐賀県唐津市大名小路５番３号", "url": "https://www.kaigokensaku.mhlw.go.jp/41/index.php?action_kouhyou_detail_004_kani=true&JigyosyoCd=4110212489-00&ServiceCd=160&Type=search", "url2": "http://nagomisakai.or.jp/" }, "geometry": { "type": "Point", "coordinates": [ 129.972227699999962, 33.4498989 ] } },
{ "type": "Feature", "properties": { "内容": "医療法人　清心会　服巻医院【通所リハビリテーション】佐賀県唐津市船宮町2588-3", "url": "https://www.kaigokensaku.mhlw.go.jp/41/index.php?action_kouhyou_detail_004_kani=true&JigyosyoCd=4110212299-00&ServiceCd=160&Type=search", "url2": "http://www.haramaki-iin.jp" }, "geometry": { "type": "Point", "coordinates": [ 129.980346599999962, 33.4454273 ] } },
{ "type": "Feature", "properties": { "内容": "岩本内科デイケアセンタ－【通所リハビリテーション】佐賀県唐津市海岸通７１８２番地３０６", "url": "https://www.kaigokensaku.mhlw.go.jp/41/index.php?action_kouhyou_detail_004_kani=true&JigyosyoCd=4110212687-00&ServiceCd=160&Type=search", "url2": null }, "geometry": { "type": "Point", "coordinates": [ 129.957336899999973, 33.4683136 ] } },
{ "type": "Feature", "properties": { "内容": "通所リハビリセンター　副島整形外科【通所リハビリテーション】佐賀県唐津市和多田天満町一丁目2番1号", "url": "https://www.kaigokensaku.mhlw.go.jp/41/index.php?action_kouhyou_detail_004_kani=true&JigyosyoCd=4110212695-00&ServiceCd=160&Type=search", "url2": "seiwakai-karatsu.or.jp" }, "geometry": { "type": "Point", "coordinates": [ 129.987054599999965, 33.4330428 ] } },
{ "type": "Feature", "properties": { "内容": "医療法人　賛健会　保利クリニック【通所リハビリテーション】佐賀県唐津市南城内3-34", "url": "https://www.kaigokensaku.mhlw.go.jp/41/index.php?action_kouhyou_detail_004_kani=true&JigyosyoCd=4110212828-00&ServiceCd=160&Type=search", "url2": null }, "geometry": { "type": "Point", "coordinates": [ 129.970125, 33.4503321 ] } },
{ "type": "Feature", "properties": { "内容": "山田整形デイケアセンター波留【通所リハビリテーション】佐賀県唐津市呼子町呼子3753", "url": "https://www.kaigokensaku.mhlw.go.jp/41/index.php?action_kouhyou_detail_004_kani=true&JigyosyoCd=4111411502-00&ServiceCd=160&Type=search", "url2": null }, "geometry": { "type": "Point", "coordinates": [ 129.895069360713251, 33.539185559451695 ] } },
{ "type": "Feature", "properties": { "内容": "デイケアセンターうつのみや【通所リハビリテーション】佐賀県唐津市厳木町本山386-1", "url": "https://www.kaigokensaku.mhlw.go.jp/41/index.php?action_kouhyou_detail_004_kani=true&JigyosyoCd=4111411510-00&ServiceCd=160&Type=search", "url2": "itaru@utunomiya.jp" }, "geometry": { "type": "Point", "coordinates": [ 130.036863935582005, 33.331474425995111 ] } },
{ "type": "Feature", "properties": { "内容": "医療法人　平川俊彦脳神経外科【通所リハビリテーション】佐賀県唐津市鏡４５４３番地１", "url": "https://www.kaigokensaku.mhlw.go.jp/41/index.php?action_kouhyou_detail_004_kani=true&JigyosyoCd=4110213206-00&ServiceCd=160&Type=search", "url2": null }, "geometry": { "type": "Point", "coordinates": [ 130.003878200000031, 33.4281192 ] } },
{ "type": "Feature", "properties": { "内容": "済生会介護老人保健施設まつら荘【通所リハビリテーション】唐津市江川町６９４番地1", "url": "https://www.kaigokensaku.mhlw.go.jp/41/index.php?action_kouhyou_detail_004_kani=true&JigyosyoCd=4150280016-00&ServiceCd=160&Type=search", "url2": "http://matsurasou.jp/" }, "geometry": { "type": "Point", "coordinates": [ 129.963468417196651, 33.454075873773469 ] } },
{ "type": "Feature", "properties": { "内容": "介護老人保健施設セントポーリア【通所リハビリテーション】佐賀県唐津市佐志石ヶ元2119-2", "url": "https://www.kaigokensaku.mhlw.go.jp/41/index.php?action_kouhyou_detail_004_kani=true&JigyosyoCd=4150280024-00&ServiceCd=160&Type=search", "url2": "https://karatsu-kaigo.com/" }, "geometry": { "type": "Point", "coordinates": [ 129.928942365992697, 33.467969114256583 ] } },
{ "type": "Feature", "properties": { "内容": "介護老人保健施設　のぞみ【通所リハビリテーション】佐賀県唐津市養母田553-1", "url": "https://www.kaigokensaku.mhlw.go.jp/41/index.php?action_kouhyou_detail_004_kani=true&JigyosyoCd=4150280032-00&ServiceCd=160&Type=search", "url2": "http://www.shujinkai.or.jp" }, "geometry": { "type": "Point", "coordinates": [ 129.984463099999971, 33.4127368 ] } },
{ "type": "Feature", "properties": { "内容": "介護老人保健施設　城内荘【通所リハビリテーション】唐津市　南城内　３番４０号", "url": "https://www.kaigokensaku.mhlw.go.jp/41/index.php?action_kouhyou_detail_004_kani=true&JigyosyoCd=4150280040-00&ServiceCd=160&Type=search", "url2": null }, "geometry": { "type": "Point", "coordinates": [ 129.969744499999933, 33.4503377 ] } },
{ "type": "Feature", "properties": { "内容": "介護老人保健施設　ケアハイツ虹【通所リハビリテーション】唐津市浜玉町横田下177", "url": "https://www.kaigokensaku.mhlw.go.jp/41/index.php?action_kouhyou_detail_004_kani=true&JigyosyoCd=4151480011-00&ServiceCd=160&Type=search", "url2": "http://www.shouraikai.jp/" }, "geometry": { "type": "Point", "coordinates": [ 130.043458200000032, 33.4314261 ] } },
{ "type": "Feature", "properties": { "内容": "介護老人保健施設　アメニティきゅうらぎ　通所リハビリテーション【通所リハビリテーション】佐賀県唐津市厳木町岩屋５０５", "url": "https://www.kaigokensaku.mhlw.go.jp/41/index.php?action_kouhyou_detail_004_kani=true&JigyosyoCd=4151480029-00&ServiceCd=160&Type=search", "url2": "https://www.hp-hirakawa.com/kyuragi" }, "geometry": { "type": "Point", "coordinates": [ 130.0325001, 33.316529 ] } },
{ "type": "Feature", "properties": { "内容": "石橋整形外科　デイケアセンター　つばさ【通所リハビリテーション】佐賀県鳥栖市桜町1465-1", "url": "https://www.kaigokensaku.mhlw.go.jp/41/index.php?action_kouhyou_detail_004_kani=true&JigyosyoCd=4110311307-00&ServiceCd=160&Type=search", "url2": null }, "geometry": { "type": "Point", "coordinates": [ 130.522968100000071, 33.3846684 ] } },
{ "type": "Feature", "properties": { "内容": "デイケアなないろ【通所リハビリテーション】佐賀県鳥栖市原町字恒石688-1", "url": "https://www.kaigokensaku.mhlw.go.jp/41/index.php?action_kouhyou_detail_004_kani=true&JigyosyoCd=4170300547-00&ServiceCd=160&Type=search", "url2": "http://www.keisinkai.jp" }, "geometry": { "type": "Point", "coordinates": [ 130.5258983, 33.3824769 ] } },
{ "type": "Feature", "properties": { "内容": "岩岡整形外科通所リハビリテーション【通所リハビリテーション】佐賀県鳥栖市蔵上２丁目１１２番地", "url": "https://www.kaigokensaku.mhlw.go.jp/41/index.php?action_kouhyou_detail_004_kani=true&JigyosyoCd=4110311208-00&ServiceCd=160&Type=search", "url2": "https://www.iwaokaseikei.com" }, "geometry": { "type": "Point", "coordinates": [ 130.498497616595301, 33.374919343223546 ] } },
{ "type": "Feature", "properties": { "内容": "山津通所リハビリセンター【通所リハビリテーション】佐賀県鳥栖市萱方町２７０番地", "url": "https://www.kaigokensaku.mhlw.go.jp/41/index.php?action_kouhyou_detail_004_kani=true&JigyosyoCd=4110311885-00&ServiceCd=160&Type=search", "url2": "http://www.sanzenkai.jp/" }, "geometry": { "type": "Point", "coordinates": [ 130.4999044613769, 33.390323514541421 ] } },
{ "type": "Feature", "properties": { "内容": "やよいがおか鹿毛病院【通所リハビリテーション】佐賀県鳥栖市弥生が丘二丁目143", "url": "https://www.kaigokensaku.mhlw.go.jp/41/index.php?action_kouhyou_detail_004_kani=true&JigyosyoCd=4110311935-00&ServiceCd=160&Type=search", "url2": "https://kagehospital.or.jp/" }, "geometry": { "type": "Point", "coordinates": [ 130.522469699999988, 33.4053359 ] } },
{ "type": "Feature", "properties": { "内容": "医療法人　まごころ医療館　通所リハビリテーションセンター　まごころ【通所リハビリテーション】佐賀県鳥栖市蔵上2丁目210番地", "url": "https://www.kaigokensaku.mhlw.go.jp/41/index.php?action_kouhyou_detail_004_kani=true&JigyosyoCd=4110312131-00&ServiceCd=160&Type=search", "url2": "http://www.magokoroiryoukan.com" }, "geometry": { "type": "Point", "coordinates": [ 130.494353, 33.3747935 ] } },
{ "type": "Feature", "properties": { "内容": "医療法人仁徳会　今村病院　通所リハビリテーション【通所リハビリテーション】佐賀県鳥栖市本通町一丁目855番地10医療法人仁徳会　今村病院", "url": "https://www.kaigokensaku.mhlw.go.jp/41/index.php?action_kouhyou_detail_004_kani=true&JigyosyoCd=4110312370-00&ServiceCd=160&Type=search", "url2": "http://jintokukai.jp/医療法人仁徳会-今村病院/通所リハビリテーション/" }, "geometry": { "type": "Point", "coordinates": [ 130.5172569, 33.3737231 ] } },
{ "type": "Feature", "properties": { "内容": "通所リハビリテーションふれあい【通所リハビリテーション】佐賀県鳥栖市東町1丁目1059-16", "url": "https://www.kaigokensaku.mhlw.go.jp/41/index.php?action_kouhyou_detail_004_kani=true&JigyosyoCd=4110312586-00&ServiceCd=160&Type=search", "url2": "http://www.saitou-naika.com" }, "geometry": { "type": "Point", "coordinates": [ 130.516652170534826, 33.371437641126917 ] } },
{ "type": "Feature", "properties": { "内容": "通所リハビリテーション「いまむら」【通所リハビリテーション】佐賀県鳥栖市轟木町1523-6", "url": "https://www.kaigokensaku.mhlw.go.jp/41/index.php?action_kouhyou_detail_004_kani=true&JigyosyoCd=4170300539-00&ServiceCd=160&Type=search", "url2": "http://josuikai.or.jp/about/facilities/imamura.php" }, "geometry": { "type": "Point", "coordinates": [ 130.505275303704849, 33.367139379046797 ] } },
{ "type": "Feature", "properties": { "内容": "山津通所リハビリセンター短時間型【通所リハビリテーション】佐賀県鳥栖市神辺町1273-8", "url": "https://www.kaigokensaku.mhlw.go.jp/41/index.php?action_kouhyou_detail_004_kani=true&JigyosyoCd=4170301172-00&ServiceCd=160&Type=search", "url2": "http://www.sanzenkai.jp/" }, "geometry": { "type": "Point", "coordinates": [ 130.499927282803355, 33.390654922743849 ] } },
{ "type": "Feature", "properties": { "内容": "医療法人せとじまクリニック通所リハビリテーション【通所リハビリテーション】佐賀県鳥栖市真木町１９７４－４", "url": "https://www.kaigokensaku.mhlw.go.jp/41/index.php?action_kouhyou_detail_004_kani=true&JigyosyoCd=4110312180-00&ServiceCd=160&Type=search", "url2": "http://setojima-clinic.com/" }, "geometry": { "type": "Point", "coordinates": [ 130.506861, 33.3605032 ] } },
{ "type": "Feature", "properties": { "内容": "医療法人　しばやま整形外科【通所リハビリテーション】佐賀県鳥栖市本鳥栖町633番地43", "url": "https://www.kaigokensaku.mhlw.go.jp/41/index.php?action_kouhyou_detail_004_kani=true&JigyosyoCd=4110312537-00&ServiceCd=160&Type=search", "url2": "https://www.shibayama-seikei.net/" }, "geometry": { "type": "Point", "coordinates": [ 130.519341152114862, 33.376715709925072 ] } },
{ "type": "Feature", "properties": { "内容": "パワーリハたく【通所リハビリテーション】佐賀県多久市東多久町大字別府4156-7", "url": "https://www.kaigokensaku.mhlw.go.jp/41/index.php?action_kouhyou_detail_004_kani=true&JigyosyoCd=4110410588-00&ServiceCd=160&Type=search", "url2": "https://ryu-orthopedics-clinic.jimdofree.com/" }, "geometry": { "type": "Point", "coordinates": [ 130.143793600000038, 33.2811687 ] } },
{ "type": "Feature", "properties": { "内容": "通所リハビリテーション　ケアハイツやすらぎ【通所リハビリテーション】佐賀県多久市南多久町大字下多久２１１８番地１７３", "url": "https://www.kaigokensaku.mhlw.go.jp/41/index.php?action_kouhyou_detail_004_kani=true&JigyosyoCd=4150480012-00&ServiceCd=160&Type=search", "url2": "http://yasuragi.tenjyukai.com/" }, "geometry": { "type": "Point", "coordinates": [ 130.1168573, 33.2837214 ] } },
{ "type": "Feature", "properties": { "内容": "剛友会　通所リハビリテーション【通所リハビリテーション】佐賀県多久市北多久町大字多久原2414－70", "url": "https://www.kaigokensaku.mhlw.go.jp/41/index.php?action_kouhyou_detail_004_kani=true&JigyosyoCd=4110410620-00&ServiceCd=160&Type=search", "url2": "https://www.morokuma-hos.jp/" }, "geometry": { "type": "Point", "coordinates": [ 130.1142241, 33.2863018 ] } },
{ "type": "Feature", "properties": { "内容": "デイケア　多久いこいの里（老健）【通所リハビリテーション】佐賀県多久市北多久町多久原2512-24", "url": "https://www.kaigokensaku.mhlw.go.jp/41/index.php?action_kouhyou_detail_004_kani=true&JigyosyoCd=4150480020-00&ServiceCd=160&Type=search", "url2": "http://www.koujinkai.net/" }, "geometry": { "type": "Point", "coordinates": [ 130.1130743, 33.2848158 ] } },
{ "type": "Feature", "properties": { "内容": "山元記念病院　通所リハビリテーション事業所【通所リハビリテーション】佐賀県伊万里市二里町八谷搦88番地4", "url": "https://www.kaigokensaku.mhlw.go.jp/41/index.php?action_kouhyou_detail_004_kani=true&JigyosyoCd=4110511773-00&ServiceCd=160&Type=search", "url2": "https://kenjin-kai.com" }, "geometry": { "type": "Point", "coordinates": [ 129.870664300000044, 33.2746091 ] } },
{ "type": "Feature", "properties": { "内容": "前田病院　健康増進センター　通所リハビリテーション【通所リハビリテーション】佐賀県伊万里市立花町2742番地1", "url": "https://www.kaigokensaku.mhlw.go.jp/41/index.php?action_kouhyou_detail_004_kani=true&JigyosyoCd=4110511799-00&ServiceCd=160&Type=search", "url2": "http://www.maeda-imari.or.jp/" }, "geometry": { "type": "Point", "coordinates": [ 129.88943770000003, 33.265483 ] } },
{ "type": "Feature", "properties": { "内容": "介護老人保健施設　西光苑デイケアセンター【通所リハビリテーション】佐賀県伊万里市山代町峰6545番地11", "url": "https://www.kaigokensaku.mhlw.go.jp/41/index.php?action_kouhyou_detail_004_kani=true&JigyosyoCd=4150580019-00&ServiceCd=160&Type=search", "url2": "http://www.saganet.ne.jp/kojinkai/" }, "geometry": { "type": "Point", "coordinates": [ 129.817250486508186, 33.299291083124977 ] } },
{ "type": "Feature", "properties": { "内容": "医療法人　二期会　小島病院　通所リハビリテーション【通所リハビリテーション】佐賀県伊万里市黒川町塩屋２０５－１", "url": "https://www.kaigokensaku.mhlw.go.jp/41/index.php?action_kouhyou_detail_004_kani=true&JigyosyoCd=4110511344-00&ServiceCd=160&Type=search", "url2": "https://nikikai-kojima.com" }, "geometry": { "type": "Point", "coordinates": [ 129.851129799999967, 33.3312109 ] } },
{ "type": "Feature", "properties": { "内容": "医療法人朋友会　山口病院温泉デイケアセンター【通所リハビリテーション】佐賀県伊万里市新天町３０５", "url": "https://www.kaigokensaku.mhlw.go.jp/41/index.php?action_kouhyou_detail_004_kani=true&JigyosyoCd=4110511369-00&ServiceCd=160&Type=search", "url2": "http://www.yamaguchi-hp-imari.jp/" }, "geometry": { "type": "Point", "coordinates": [ 129.8747551269837, 33.268676381843754 ] } },
{ "type": "Feature", "properties": { "内容": "西田病院【通所リハビリテーション】佐賀県伊万里市山代町楠久890番地2", "url": "https://www.kaigokensaku.mhlw.go.jp/41/index.php?action_kouhyou_detail_004_kani=true&JigyosyoCd=4110511732-00&ServiceCd=160&Type=search", "url2": "http://nishida-hp.jp/main/" }, "geometry": { "type": "Point", "coordinates": [ 129.816704499999986, 33.2969613 ] } },
{ "type": "Feature", "properties": { "内容": "伊万里整形外科病院【通所リハビリテーション】佐賀県伊万里市木須町4450", "url": "https://www.kaigokensaku.mhlw.go.jp/41/index.php?action_kouhyou_detail_004_kani=true&JigyosyoCd=4110512011-00&ServiceCd=160&Type=search", "url2": null }, "geometry": { "type": "Point", "coordinates": [ 129.871026825192274, 33.28419785071975 ] } },
{ "type": "Feature", "properties": { "内容": "ケアポート楽寿園　通所リハビリテーション事業所【通所リハビリテーション】佐賀県伊万里市二里町八谷搦1224番地", "url": "https://www.kaigokensaku.mhlw.go.jp/41/index.php?action_kouhyou_detail_004_kani=true&JigyosyoCd=4150580027-00&ServiceCd=160&Type=search", "url2": "http://www.kenjin-kai.com/rakujyuen/" }, "geometry": { "type": "Point", "coordinates": [ 129.86599810000007, 33.2791334 ] } },
{ "type": "Feature", "properties": { "内容": "大川野クリニック【通所リハビリテーション】佐賀県伊万里市大川町大川野字片竹3143番地1", "url": "https://www.kaigokensaku.mhlw.go.jp/41/index.php?action_kouhyou_detail_004_kani=true&JigyosyoCd=4110511740-00&ServiceCd=160&Type=search", "url2": "ohkawano-dc@nishida-hp.jp" }, "geometry": { "type": "Point", "coordinates": [ 129.976738100000034, 33.304273 ] } },
{ "type": "Feature", "properties": { "内容": "副島整形外科クリニック　通所リハビリテーションセンター骨【通所リハビリテーション】佐賀県武雄市武雄町大字富岡7724番地1", "url": "https://www.kaigokensaku.mhlw.go.jp/41/index.php?action_kouhyou_detail_004_kani=true&JigyosyoCd=4110611136-00&ServiceCd=160&Type=search", "url2": "https://soejimaseikei.or.jp/clinic-rehabilitation-center-kotsu/" }, "geometry": { "type": "Point", "coordinates": [ 130.018997600000034, 33.1964957 ] } },
{ "type": "Feature", "properties": { "内容": "（介護予防）通所リハビリテーション　コスモス【通所リハビリテーション】佐賀県武雄市武雄町大字永島13821番地", "url": "https://www.kaigokensaku.mhlw.go.jp/41/index.php?action_kouhyou_detail_004_kani=true&JigyosyoCd=4150680017-00&ServiceCd=160&Type=search", "url2": "http://shinoda-seikei.com/" }, "geometry": { "type": "Point", "coordinates": [ 130.034638, 33.1928046 ] } },
{ "type": "Feature", "properties": { "内容": "介護老人保健施設たんぽぽ　通所リハビリテーション【通所リハビリテーション】佐賀県武雄市朝日町大字中野１１２９６－１", "url": "https://www.kaigokensaku.mhlw.go.jp/41/index.php?action_kouhyou_detail_004_kani=true&JigyosyoCd=4150680025-00&ServiceCd=160&Type=search", "url2": "https://www.ufokai.com/" }, "geometry": { "type": "Point", "coordinates": [ 130.030376400000023, 33.2272036 ] } },
{ "type": "Feature", "properties": { "内容": "通所リハビリテーション　青春時代【通所リハビリテーション】佐賀県武雄市武雄町大字富岡12624番地4スポリハビル1階", "url": "https://www.kaigokensaku.mhlw.go.jp/41/index.php?action_kouhyou_detail_004_kani=true&JigyosyoCd=4110611425-00&ServiceCd=160&Type=search", "url2": "https://nagomitoiyashi.or.jp/main/13.html" }, "geometry": { "type": "Point", "coordinates": [ 130.033500830688467, 33.197355966768448 ] } },
{ "type": "Feature", "properties": { "内容": "医療法人社団　別府整形外科　通所リハビリテーション【通所リハビリテーション】佐賀県鹿島市大字高津原3525-9", "url": "https://www.kaigokensaku.mhlw.go.jp/41/index.php?action_kouhyou_detail_004_kani=true&JigyosyoCd=4110710631-00&ServiceCd=160&Type=search", "url2": "http://www.beppu-seikei.jp/" }, "geometry": { "type": "Point", "coordinates": [ 130.089075434393294, 33.110951186538458 ] } },
{ "type": "Feature", "properties": { "内容": "犬塚病院　通所リハビリテーション【通所リハビリテーション】佐賀県鹿島市大字高津原602-3犬塚病院", "url": "https://www.kaigokensaku.mhlw.go.jp/41/index.php?action_kouhyou_detail_004_kani=true&JigyosyoCd=4110710698-00&ServiceCd=160&Type=search", "url2": "http://inuzuka-hp.or.jp/" }, "geometry": { "type": "Point", "coordinates": [ 130.096347, 33.1074262 ] } },
{ "type": "Feature", "properties": { "内容": "デイケア　きんもくせい【通所リハビリテーション】佐賀県鹿島市大字中村2111番地1志田病院　新館　1階", "url": "https://www.kaigokensaku.mhlw.go.jp/41/index.php?action_kouhyou_detail_004_kani=true&JigyosyoCd=4110710805-00&ServiceCd=160&Type=search", "url2": "https://shidahp.com/care/kinmokusei/index.html" }, "geometry": { "type": "Point", "coordinates": [ 130.097772339286848, 33.119163617276023 ] } },
{ "type": "Feature", "properties": { "内容": "ケアコートゆうあい【通所リハビリテーション】佐賀県鹿島市大字高津原2962-1", "url": "https://www.kaigokensaku.mhlw.go.jp/41/index.php?action_kouhyou_detail_004_kani=true&JigyosyoCd=4150780015-00&ServiceCd=160&Type=search", "url2": "http://www.yuaivillage.com" }, "geometry": { "type": "Point", "coordinates": [ 130.084520500000053, 33.1049319 ] } },
{ "type": "Feature", "properties": { "内容": "通所リハビリテーションひらまつ【通所リハビリテーション】佐賀県小城市小城町815-1", "url": "https://www.kaigokensaku.mhlw.go.jp/41/index.php?action_kouhyou_detail_004_kani=true&JigyosyoCd=4111311181-00&ServiceCd=160&Type=search", "url2": "http:∥www.hiramatsu-hp.or.jp" }, "geometry": { "type": "Point", "coordinates": [ 130.206390756869496, 33.301012127953278 ] } },
{ "type": "Feature", "properties": { "内容": "医療法人孟子会　通所リハビリセンター【通所リハビリテーション】佐賀県小城市三日月町久米1295-2", "url": "https://www.kaigokensaku.mhlw.go.jp/41/index.php?action_kouhyou_detail_004_kani=true&JigyosyoCd=4111311215-00&ServiceCd=160&Type=search", "url2": "https://www.hirooka-clinic.com" }, "geometry": { "type": "Point", "coordinates": [ 130.2075428, 33.2870977 ] } },
{ "type": "Feature", "properties": { "内容": "医療法人ロコメディカル　通所リハビリテーション　デイケア三日月【通所リハビリテーション】佐賀県小城市三日月町金田1178-1", "url": "https://www.kaigokensaku.mhlw.go.jp/41/index.php?action_kouhyou_detail_004_kani=true&JigyosyoCd=4111311256-00&ServiceCd=160&Type=search", "url2": "https://www.eguchi-hospital.com/" }, "geometry": { "type": "Point", "coordinates": [ 130.228452299999987, 33.2598245 ] } },
{ "type": "Feature", "properties": { "内容": "通所リハビリテーション心【通所リハビリテーション】佐賀県小城市三日月町長神田2171-5通所リハビリテーション心", "url": "https://www.kaigokensaku.mhlw.go.jp/41/index.php?action_kouhyou_detail_004_kani=true&JigyosyoCd=4111311264-00&ServiceCd=160&Type=search", "url2": "http://nishikawa-eijun.com/kokoro/" }, "geometry": { "type": "Point", "coordinates": [ 130.217886, 33.278403 ] } },
{ "type": "Feature", "properties": { "内容": "蛍水荘通所リハビリテーション【通所リハビリテーション】佐賀県小城市小城町８１４－１", "url": "https://www.kaigokensaku.mhlw.go.jp/41/index.php?action_kouhyou_detail_004_kani=true&JigyosyoCd=4151380013-00&ServiceCd=160&Type=search", "url2": "http://www.keisuiso@po.hagakure.ne.jp" }, "geometry": { "type": "Point", "coordinates": [ 130.205204800000047, 33.3013679 ] } },
{ "type": "Feature", "properties": { "内容": "指定通所リハビリテーション　ふれあいの里【通所リハビリテーション】佐賀県嬉野市嬉野町大字下宿甲１７４０番地１", "url": "https://www.kaigokensaku.mhlw.go.jp/41/index.php?action_kouhyou_detail_004_kani=true&JigyosyoCd=4111710697-00&ServiceCd=160&Type=search", "url2": null }, "geometry": { "type": "Point", "coordinates": [ 130.001892799999951, 33.1199609 ] } },
{ "type": "Feature", "properties": { "内容": "デイケアイン　ハピネス【通所リハビリテーション】佐賀県嬉野市嬉野町大字下宿甲4714番地10", "url": "https://www.kaigokensaku.mhlw.go.jp/41/index.php?action_kouhyou_detail_004_kani=true&JigyosyoCd=4111710788-00&ServiceCd=160&Type=search", "url2": null }, "geometry": { "type": "Point", "coordinates": [ 129.995505702902165, 33.102425939221462 ] } },
{ "type": "Feature", "properties": { "内容": "通所リハビリげんき【通所リハビリテーション】佐賀県嬉野市嬉野町大字下宿甲４７１５番地５", "url": "https://www.kaigokensaku.mhlw.go.jp/41/index.php?action_kouhyou_detail_004_kani=true&JigyosyoCd=4111710796-00&ServiceCd=160&Type=search", "url2": null }, "geometry": { "type": "Point", "coordinates": [ 129.996546399999943, 33.1119201 ] } },
{ "type": "Feature", "properties": { "内容": "介護老人保健施設　朋寿苑【通所リハビリテーション】佐賀県嬉野市嬉野町大字下宿乙１９１９番地", "url": "https://www.kaigokensaku.mhlw.go.jp/41/index.php?action_kouhyou_detail_004_kani=true&JigyosyoCd=4151780014-00&ServiceCd=160&Type=search", "url2": "http://yuhokai.com" }, "geometry": { "type": "Point", "coordinates": [ 129.9754322, 33.1010402 ] } },
{ "type": "Feature", "properties": { "内容": "神埼病院デイケアセンター【通所リハビリテーション】佐賀県神埼市神埼町鶴3194-3", "url": "https://www.kaigokensaku.mhlw.go.jp/41/index.php?action_kouhyou_detail_004_kani=true&JigyosyoCd=4112010154-00&ServiceCd=160&Type=search", "url2": "https://kanzakihp.jp/" }, "geometry": { "type": "Point", "coordinates": [ 130.3705176, 33.3183606 ] } },
{ "type": "Feature", "properties": { "内容": "通所ﾘﾊﾋﾞﾘｾﾝﾀｰ和【通所リハビリテーション】佐賀県神埼市神埼町本告牟田2994-1", "url": "https://www.kaigokensaku.mhlw.go.jp/41/index.php?action_kouhyou_detail_004_kani=true&JigyosyoCd=4112010139-00&ServiceCd=160&Type=search", "url2": null }, "geometry": { "type": "Point", "coordinates": [ 130.3681599, 33.3051037 ] } },
{ "type": "Feature", "properties": { "内容": "介護老人保健施設　うぶすな【通所リハビリテーション】佐賀県神埼市神埼町永歌1021", "url": "https://www.kaigokensaku.mhlw.go.jp/41/index.php?action_kouhyou_detail_004_kani=true&JigyosyoCd=4151180017-00&ServiceCd=160&Type=search", "url2": "http://kyuwakai.jp" }, "geometry": { "type": "Point", "coordinates": [ 130.37621050000007, 33.2973223 ] } },
{ "type": "Feature", "properties": { "内容": "目達原整形外科【通所リハビリテーション】佐賀県神埼郡吉野ヶ里町吉田2900", "url": "https://www.kaigokensaku.mhlw.go.jp/41/index.php?action_kouhyou_detail_004_kani=true&JigyosyoCd=4111111052-00&ServiceCd=160&Type=search", "url2": "https://metabaru-seikei.com/" }, "geometry": { "type": "Point", "coordinates": [ 130.41260888317268, 33.331313740585685 ] } },
{ "type": "Feature", "properties": { "内容": "ひらまつふれあい　通所リハビリテーション【通所リハビリテーション】佐賀県神埼郡吉野ヶ里町吉田2925-1", "url": "https://www.kaigokensaku.mhlw.go.jp/41/index.php?action_kouhyou_detail_004_kani=true&JigyosyoCd=4111111144-00&ServiceCd=160&Type=search", "url2": "http://www.hiramatsu-hp.or.jp/fureai_web/index.html" }, "geometry": { "type": "Point", "coordinates": [ 130.410748499999954, 33.3314609 ] } },
{ "type": "Feature", "properties": { "内容": "つくしせいけいげかいいん【通所リハビリテーション】佐賀県三養基郡基山町園部2765-25", "url": "https://www.kaigokensaku.mhlw.go.jp/41/index.php?action_kouhyou_detail_004_kani=true&JigyosyoCd=4111210623-00&ServiceCd=160&Type=search", "url2": null }, "geometry": { "type": "Point", "coordinates": [ 130.522491100000025, 33.4188978 ] } },
{ "type": "Feature", "properties": { "内容": "ばば整形外科　通所リハビリテーション【通所リハビリテーション】佐賀県三養基郡基山町宮浦186-18", "url": "https://www.kaigokensaku.mhlw.go.jp/41/index.php?action_kouhyou_detail_004_kani=true&JigyosyoCd=4111211035-00&ServiceCd=160&Type=search", "url2": "http://baba-seikei.com" }, "geometry": { "type": "Point", "coordinates": [ 130.5304778, 33.421782 ] } },
{ "type": "Feature", "properties": { "内容": "デイケアセンターあおぞら【通所リハビリテーション】佐賀県三養基郡基山町大字園部2307番地", "url": "https://www.kaigokensaku.mhlw.go.jp/41/index.php?action_kouhyou_detail_004_kani=true&JigyosyoCd=4151280023-00&ServiceCd=160&Type=search", "url2": "http://www.jurakuen.jp/" }, "geometry": { "type": "Point", "coordinates": [ 130.501112809786946, 33.418088081845845 ] } },
{ "type": "Feature", "properties": { "内容": "三樹病院通所リハビリテーション明日葉【通所リハビリテーション】佐賀県三養基郡上峰町大字坊所276-1", "url": "https://www.kaigokensaku.mhlw.go.jp/41/index.php?action_kouhyou_detail_004_kani=true&JigyosyoCd=4111210920-00&ServiceCd=160&Type=search", "url2": "http://miki-hosp.gr.jp/riha_asitaba/" }, "geometry": { "type": "Point", "coordinates": [ 130.424856299999988, 33.3206175 ] } },
{ "type": "Feature", "properties": { "内容": "平川医院通所リハビリテーション　訪問リハビリテーション【通所リハビリテーション】佐賀県三養基郡みやき町大字西島２９７９番地８平川医院通所リハビリテーション", "url": "https://www.kaigokensaku.mhlw.go.jp/41/index.php?action_kouhyou_detail_004_kani=true&JigyosyoCd=4111210706-00&ServiceCd=160&Type=search", "url2": null }, "geometry": { "type": "Point", "coordinates": [ 130.4442917, 33.2955342 ] } },
{ "type": "Feature", "properties": { "内容": "みきクリニック通所リハビリテーション明日花【通所リハビリテーション】佐賀県三養基郡みやき町大字市武１３３１番地９", "url": "https://www.kaigokensaku.mhlw.go.jp/41/index.php?action_kouhyou_detail_004_kani=true&JigyosyoCd=4111210938-00&ServiceCd=160&Type=search", "url2": "miki-hosp.gr.jp" }, "geometry": { "type": "Point", "coordinates": [ 130.43001240000001, 33.2963421 ] } },
{ "type": "Feature", "properties": { "内容": "医療法人幸伸会　みやき統合医療クリニック　通所リハビリテーション【通所リハビリテーション】佐賀県三養基郡みやき町大字白壁字三本松１０７４番地３市村清記念メディカルコミュニティセンター２階", "url": "https://www.kaigokensaku.mhlw.go.jp/41/index.php?action_kouhyou_detail_004_kani=true&JigyosyoCd=4111211043-00&ServiceCd=160&Type=search", "url2": null }, "geometry": { "type": "Point", "coordinates": [ 130.47519188806649, 33.326546690438043 ] } },
{ "type": "Feature", "properties": { "内容": "指定通所リハビリテーション　ゆうあい【通所リハビリテーション】佐賀県三養基郡みやき町大字白壁４３０５－４０", "url": "https://www.kaigokensaku.mhlw.go.jp/41/index.php?action_kouhyou_detail_004_kani=true&JigyosyoCd=4111210441-00&ServiceCd=160&Type=search", "url2": null }, "geometry": { "type": "Point", "coordinates": [ 130.460903, 33.3450722 ] } },
{ "type": "Feature", "properties": { "内容": "介護老人保健施設　アザレア【通所リハビリテーション】佐賀県三養基郡みやき町大字簑原1116-1", "url": "https://www.kaigokensaku.mhlw.go.jp/41/index.php?action_kouhyou_detail_004_kani=true&JigyosyoCd=4151280015-00&ServiceCd=160&Type=search", "url2": "https://www.gajumaru.or.jp/yume/" }, "geometry": { "type": "Point", "coordinates": [ 130.443448200000034, 33.349077 ] } },
{ "type": "Feature", "properties": { "内容": "医療法人田渕医院デイケア【通所リハビリテーション】佐賀県東松浦郡玄海町大字諸浦６番地１", "url": "https://www.kaigokensaku.mhlw.go.jp/41/index.php?action_kouhyou_detail_004_kani=true&JigyosyoCd=4111411387-00&ServiceCd=160&Type=search", "url2": null }, "geometry": { "type": "Point", "coordinates": [ 129.876537242327913, 33.473724597363201 ] } },
{ "type": "Feature", "properties": { "内容": "グリーンヒル幸寿園　通所リハビリテーション【通所リハビリテーション】佐賀県西松浦郡有田町南原甲678番地1", "url": "https://www.kaigokensaku.mhlw.go.jp/41/index.php?action_kouhyou_detail_004_kani=true&JigyosyoCd=4151580018-00&ServiceCd=160&Type=search", "url2": "http://www.kenjin-kai.com/koujyuen/" }, "geometry": { "type": "Point", "coordinates": [ 129.862735433435091, 33.193555912938713 ] } },
{ "type": "Feature", "properties": { "内容": "介護老人保健施設敬松苑【通所リハビリテーション】佐賀県杵島郡大町町大字福母７０７番地１", "url": "https://www.kaigokensaku.mhlw.go.jp/41/index.php?action_kouhyou_detail_004_kani=true&JigyosyoCd=4151680032-00&ServiceCd=160&Type=search", "url2": "http://www.juntendo.or.jp" }, "geometry": { "type": "Point", "coordinates": [ 130.10252360000004, 33.2079735 ] } },
{ "type": "Feature", "properties": { "内容": "介護老人保健施設　ユートピアしゃくなげ【通所リハビリテーション】佐賀県杵島郡江北町大字惣領分２４２０番地１", "url": "https://www.kaigokensaku.mhlw.go.jp/41/index.php?action_kouhyou_detail_004_kani=true&JigyosyoCd=4151680057-00&ServiceCd=160&Type=search", "url2": "www.keitendo.jp" }, "geometry": { "type": "Point", "coordinates": [ 130.173104500000022, 33.2240116 ] } },
{ "type": "Feature", "properties": { "内容": "医療法人　　　　醇和会　　　有島病院【通所リハビリテーション】佐賀県杵島郡白石町大字戸ヶ里2352-3", "url": "https://www.kaigokensaku.mhlw.go.jp/41/index.php?action_kouhyou_detail_004_kani=true&JigyosyoCd=4111610061-00&ServiceCd=160&Type=search", "url2": "arishima-hp.com" }, "geometry": { "type": "Point", "coordinates": [ 130.12565, 33.1543406 ] } },
{ "type": "Feature", "properties": { "内容": "白石共立病院　通所リハビリテーション【通所リハビリテーション】佐賀県杵島郡白石町大字福田1296", "url": "https://www.kaigokensaku.mhlw.go.jp/41/index.php?action_kouhyou_detail_004_kani=true&JigyosyoCd=4111610954-00&ServiceCd=160&Type=search", "url2": "http://seibindo.xsrv.jp/" }, "geometry": { "type": "Point", "coordinates": [ 130.141035, 33.1817073 ] } },
{ "type": "Feature", "properties": { "内容": "原田内科医院指定通所リハビリテーション事業所【通所リハビリテーション】佐賀県杵島郡白石町大字福富１８２７", "url": "https://www.kaigokensaku.mhlw.go.jp/41/index.php?action_kouhyou_detail_004_kani=true&JigyosyoCd=4111611390-00&ServiceCd=160&Type=search", "url2": "haradanaikaiin.jp" }, "geometry": { "type": "Point", "coordinates": [ 130.184335, 33.1840692 ] } },
{ "type": "Feature", "properties": { "内容": "介護老人保健施設　　白い石【通所リハビリテーション】佐賀県白石町福吉１８０８", "url": "https://www.kaigokensaku.mhlw.go.jp/41/index.php?action_kouhyou_detail_004_kani=true&JigyosyoCd=4151680024-00&ServiceCd=160&Type=search", "url2": "https://tougen.or.jp" }, "geometry": { "type": "Point", "coordinates": [ 130.153442400000017, 33.185696 ] } },
{ "type": "Feature", "properties": { "内容": "介護老人保健施設　清涼荘【通所リハビリテーション】佐賀県杵島郡白石町大字戸ヶ里1831番地18", "url": "https://www.kaigokensaku.mhlw.go.jp/41/index.php?action_kouhyou_detail_004_kani=true&JigyosyoCd=4151680065-00&ServiceCd=160&Type=search", "url2": "https://yuai-th.com" }, "geometry": { "type": "Point", "coordinates": [ 130.1247696, 33.1548033 ] } },
{ "type": "Feature", "properties": { "内容": "町立太良病院通所リハビリテーション【通所リハビリテーション】佐賀県藤津郡太良町大字多良1520番地12", "url": "https://www.kaigokensaku.mhlw.go.jp/41/index.php?action_kouhyou_detail_004_kani=true&JigyosyoCd=4119811265-00&ServiceCd=160&Type=search", "url2": "https://tara-hp.com" }, "geometry": { "type": "Point", "coordinates": [ 130.178692800000022, 33.0269597 ] } },
{ "type": "Feature", "properties": { "内容": "介護老人保健施設ふるさとの森【通所リハビリテーション】佐賀県藤津郡太良町大字糸岐6797番地１", "url": "https://www.kaigokensaku.mhlw.go.jp/41/index.php?action_kouhyou_detail_004_kani=true&JigyosyoCd=4151780022-00&ServiceCd=160&Type=search", "url2": "furusato-no-mori@crest.ocn.ne.jp" }, "geometry": { "type": "Point", "coordinates": [ 130.163041300000032, 33.0159017 ] } }
]
}
