{
"type": "FeatureCollection",
"name": "geo_41_訪問看護",
"crs": { "type": "name", "properties": { "name": "urn:ogc:def:crs:OGC:1.3:CRS84" } },
"features": [
{ "type": "Feature", "properties": { "内容": "訪問看護ステーション　きらめき【訪問看護】佐賀県佐賀市新郷本町23番地22号", "url": "https://www.kaigokensaku.mhlw.go.jp/41/index.php?action_kouhyou_detail_004_kani=true&JigyosyoCd=4160190387-00&ServiceCd=130&Type=search", "url2": "s-kirameki＠villagehills.jp" }, "geometry": { "type": "Point", "coordinates": [ 130.3224215, 33.2330118 ] } },
{ "type": "Feature", "properties": { "内容": "訪問看護ステーションうえむら【訪問看護】佐賀県佐賀市兵庫町大字渕4604番地１", "url": "https://www.kaigokensaku.mhlw.go.jp/41/index.php?action_kouhyou_detail_004_kani=true&JigyosyoCd=4160190072-00&ServiceCd=130&Type=search", "url2": "http://www3.ocn.ne.jp/~uemurahp/" }, "geometry": { "type": "Point", "coordinates": [ 130.314038249225632, 33.283110042273243 ] } },
{ "type": "Feature", "properties": { "内容": "訪問看護ステーションフローレンス佐賀【訪問看護】神園５丁目５番２６号アーバン神園", "url": "https://www.kaigokensaku.mhlw.go.jp/41/index.php?action_kouhyou_detail_004_kani=true&JigyosyoCd=4160190445-00&ServiceCd=130&Type=search", "url2": null }, "geometry": { "type": "Point", "coordinates": [ 130.2796405, 33.2624214 ] } },
{ "type": "Feature", "properties": { "内容": "訪問看護ステーションかささぎ【訪問看護】佐賀市鍋島３丁目３－２０鍋島シェストビル1F", "url": "https://www.kaigokensaku.mhlw.go.jp/41/index.php?action_kouhyou_detail_004_kani=true&JigyosyoCd=4160190015-00&ServiceCd=130&Type=search", "url2": "http://seiyuukai.org/" }, "geometry": { "type": "Point", "coordinates": [ 130.2684317, 33.2802667 ] } },
{ "type": "Feature", "properties": { "内容": "訪問看護ステーションなのはな【訪問看護】佐賀県佐賀市兵庫南4丁目19-2", "url": "https://www.kaigokensaku.mhlw.go.jp/41/index.php?action_kouhyou_detail_004_kani=true&JigyosyoCd=4160190205-00&ServiceCd=130&Type=search", "url2": "http://medicalimpress.com" }, "geometry": { "type": "Point", "coordinates": [ 130.321186399999988, 33.2619356 ] } },
{ "type": "Feature", "properties": { "内容": "在宅看護センター佐賀　ほっこり【訪問看護】佐賀県佐賀市北川副町大字新郷781", "url": "https://www.kaigokensaku.mhlw.go.jp/41/index.php?action_kouhyou_detail_004_kani=true&JigyosyoCd=4160190262-00&ServiceCd=130&Type=search", "url2": null }, "geometry": { "type": "Point", "coordinates": [ 130.311858475840694, 33.23405834126271 ] } },
{ "type": "Feature", "properties": { "内容": "株式会社shift訪問看護ステーションきぼう【訪問看護】佐賀県佐賀市兵庫南２丁目４番２２号訪問看護ステーションきぼう", "url": "https://www.kaigokensaku.mhlw.go.jp/41/index.php?action_kouhyou_detail_004_kani=true&JigyosyoCd=4160190429-00&ServiceCd=130&Type=search", "url2": "http://kaigo.lsneo.co.jp/" }, "geometry": { "type": "Point", "coordinates": [ 130.313159899999988, 33.2638951 ] } },
{ "type": "Feature", "properties": { "内容": "訪問看護ステーションみかん畑【訪問看護】佐賀県佐賀市大和町大字久池井860-1", "url": "https://www.kaigokensaku.mhlw.go.jp/41/index.php?action_kouhyou_detail_004_kani=true&JigyosyoCd=4160190528-00&ServiceCd=130&Type=search", "url2": null }, "geometry": { "type": "Point", "coordinates": [ 130.2941928, 33.315328 ] } },
{ "type": "Feature", "properties": { "内容": "あいず訪問看護ステーション佐賀【訪問看護】佐賀県佐賀市新中町9番12号", "url": "https://www.kaigokensaku.mhlw.go.jp/41/index.php?action_kouhyou_detail_004_kani=true&JigyosyoCd=4160190577-00&ServiceCd=130&Type=search", "url2": "https://www.aizu-company.co.jp/" }, "geometry": { "type": "Point", "coordinates": [ 130.3003771, 33.2710477 ] } },
{ "type": "Feature", "properties": { "内容": "訪問看護ステーションもろくま【訪問看護】佐賀県佐賀市水ケ江二丁目６番２２号", "url": "https://www.kaigokensaku.mhlw.go.jp/41/index.php?action_kouhyou_detail_004_kani=true&JigyosyoCd=4160190403-00&ServiceCd=130&Type=search", "url2": "https://morokuma.or.jp/" }, "geometry": { "type": "Point", "coordinates": [ 130.3082145, 33.249782700000011 ] } },
{ "type": "Feature", "properties": { "内容": "訪問看護ステーションTOMO佐賀【訪問看護】佐賀県佐賀市高木瀬東3丁目13番10号", "url": "https://www.kaigokensaku.mhlw.go.jp/41/index.php?action_kouhyou_detail_004_kani=true&JigyosyoCd=4160190221-00&ServiceCd=130&Type=search", "url2": "human-loop.com/" }, "geometry": { "type": "Point", "coordinates": [ 130.297817321041407, 33.284091070136 ] } },
{ "type": "Feature", "properties": { "内容": "佐賀県看護協会　訪問看護ステーション【訪問看護】佐賀県佐賀市緑小路6番10号", "url": "https://www.kaigokensaku.mhlw.go.jp/41/index.php?action_kouhyou_detail_004_kani=true&JigyosyoCd=4160190031-00&ServiceCd=130&Type=search", "url2": "http://www.nonohana-saga.org/" }, "geometry": { "type": "Point", "coordinates": [ 130.283743882803378, 33.260313656237926 ] } },
{ "type": "Feature", "properties": { "内容": "訪問看護ステーション　よろこび【訪問看護】佐賀市北川副町新郷654-1", "url": "https://www.kaigokensaku.mhlw.go.jp/41/index.php?action_kouhyou_detail_004_kani=true&JigyosyoCd=4160190064-00&ServiceCd=130&Type=search", "url2": "http://www.yumekan.jp/" }, "geometry": { "type": "Point", "coordinates": [ 130.3128192, 33.2377323 ] } },
{ "type": "Feature", "properties": { "内容": "医療法人社団敬愛会　クローバー訪問看護ステーション【訪問看護】佐賀県佐賀市高木瀬町大字長瀬1167番地2健診センター佐賀", "url": "https://www.kaigokensaku.mhlw.go.jp/41/index.php?action_kouhyou_detail_004_kani=true&JigyosyoCd=4160190155-00&ServiceCd=130&Type=search", "url2": null }, "geometry": { "type": "Point", "coordinates": [ 130.283154809539866, 33.293314181908514 ] } },
{ "type": "Feature", "properties": { "内容": "訪問看護ステーション　こより【訪問看護】佐賀県佐賀市本庄町本庄264番地1", "url": "https://www.kaigokensaku.mhlw.go.jp/41/index.php?action_kouhyou_detail_004_kani=true&JigyosyoCd=4160190213-00&ServiceCd=130&Type=search", "url2": null }, "geometry": { "type": "Point", "coordinates": [ 130.292681502377008, 33.238110825146414 ] } },
{ "type": "Feature", "properties": { "内容": "訪問看護ステーション　サニーコート【訪問看護】佐賀県佐賀市西与賀町大字高太郎１８４－１", "url": "https://www.kaigokensaku.mhlw.go.jp/41/index.php?action_kouhyou_detail_004_kani=true&JigyosyoCd=4160190338-00&ServiceCd=130&Type=search", "url2": "https://sunnycourt.info" }, "geometry": { "type": "Point", "coordinates": [ 130.268372699999986, 33.2253612 ] } },
{ "type": "Feature", "properties": { "内容": "独立行政法人地域医療機能推進機構　佐賀中部病院　附属訪問看護ステーション【訪問看護】佐賀市兵庫南三丁目8-1", "url": "https://www.kaigokensaku.mhlw.go.jp/41/index.php?action_kouhyou_detail_004_kani=true&JigyosyoCd=4160190452-00&ServiceCd=130&Type=search", "url2": "https://saga.jcho.go.jp/medical-personnel/others/houmon/" }, "geometry": { "type": "Point", "coordinates": [ 130.31864490000001, 33.2649744 ] } },
{ "type": "Feature", "properties": { "内容": "訪問看護ステーションふじ【訪問看護】佐賀県佐賀市富士町大字梅野１７２１番地1", "url": "https://www.kaigokensaku.mhlw.go.jp/41/index.php?action_kouhyou_detail_004_kani=true&JigyosyoCd=4161090024-00&ServiceCd=130&Type=search", "url2": "https://www.hosupitarlfj.saga.jp" }, "geometry": { "type": "Point", "coordinates": [ 130.249592200000052, 33.3559038 ] } },
{ "type": "Feature", "properties": { "内容": "ニチイケアセンターさが訪問看護ステーション【訪問看護】佐賀市鍋島3丁目14番28号", "url": "https://www.kaigokensaku.mhlw.go.jp/41/index.php?action_kouhyou_detail_004_kani=true&JigyosyoCd=4170100319-00&ServiceCd=130&Type=search", "url2": "hsth01@nichiigakkan.co.jp" }, "geometry": { "type": "Point", "coordinates": [ 130.2641596, 33.2800741 ] } },
{ "type": "Feature", "properties": { "内容": "ツクイ　佐賀訪問看護ステーション【訪問看護】佐賀県佐賀市駅前中央1丁目9番45号大樹生命佐賀駅前ビル1階", "url": "https://www.kaigokensaku.mhlw.go.jp/41/index.php?action_kouhyou_detail_004_kani=true&JigyosyoCd=4160190593-00&ServiceCd=130&Type=search", "url2": null }, "geometry": { "type": "Point", "coordinates": [ 130.297414800000013, 33.2632119 ] } },
{ "type": "Feature", "properties": { "内容": "訪問看護ステーションリヤンド佐賀【訪問看護】佐賀県佐賀市木原一丁目25番17号", "url": "https://www.kaigokensaku.mhlw.go.jp/41/index.php?action_kouhyou_detail_004_kani=true&JigyosyoCd=4160190601-00&ServiceCd=130&Type=search", "url2": "https://liende-kizuna.jp/saga/" }, "geometry": { "type": "Point", "coordinates": [ 130.3168536, 33.2428563 ] } },
{ "type": "Feature", "properties": { "内容": "田中病院訪問看護ステーション【訪問看護】佐賀県佐賀市嘉瀬町大字扇町2344番地16", "url": "https://www.kaigokensaku.mhlw.go.jp/41/index.php?action_kouhyou_detail_004_kani=true&JigyosyoCd=4160190619-00&ServiceCd=130&Type=search", "url2": "https://tanakahp.com/" }, "geometry": { "type": "Point", "coordinates": [ 130.2654167, 33.2446231 ] } },
{ "type": "Feature", "properties": { "内容": "訪問看護ステーション　ほうむ日和【訪問看護】佐賀県佐賀市川副町大字大詫間　620", "url": "https://www.kaigokensaku.mhlw.go.jp/41/index.php?action_kouhyou_detail_004_kani=true&JigyosyoCd=4160190635-00&ServiceCd=130&Type=search", "url2": null }, "geometry": { "type": "Point", "coordinates": [ 130.34253480000001, 33.1783706 ] } },
{ "type": "Feature", "properties": { "内容": "セントケア訪問看護ステーション佐賀【訪問看護】佐賀市兵庫南三丁目1番19号", "url": "https://www.kaigokensaku.mhlw.go.jp/41/index.php?action_kouhyou_detail_004_kani=true&JigyosyoCd=4160190148-00&ServiceCd=130&Type=search", "url2": null }, "geometry": { "type": "Point", "coordinates": [ 130.317111599999947, 33.264851229153912 ] } },
{ "type": "Feature", "properties": { "内容": "やよい訪問看護ステーション【訪問看護】佐賀県佐賀市諸富町大字諸富津209番地3", "url": "https://www.kaigokensaku.mhlw.go.jp/41/index.php?action_kouhyou_detail_004_kani=true&JigyosyoCd=4160190197-00&ServiceCd=130&Type=search", "url2": "https://fukujukaisaga.com/" }, "geometry": { "type": "Point", "coordinates": [ 130.360997099999963, 33.219731700000011 ] } },
{ "type": "Feature", "properties": { "内容": "訪問看護・リハビリステーション福禄寿【訪問看護】佐賀県佐賀市長瀬町5-12", "url": "https://www.kaigokensaku.mhlw.go.jp/41/index.php?action_kouhyou_detail_004_kani=true&JigyosyoCd=4160190288-00&ServiceCd=130&Type=search", "url2": "https://r.goope.jp/fukurokuzyu" }, "geometry": { "type": "Point", "coordinates": [ 130.283462500000013, 33.250433800000032 ] } },
{ "type": "Feature", "properties": { "内容": "訪問看護ステーションちとせ【訪問看護】佐賀県佐賀市北川副光法1777-8", "url": "https://www.kaigokensaku.mhlw.go.jp/41/index.php?action_kouhyou_detail_004_kani=true&JigyosyoCd=4160190296-00&ServiceCd=130&Type=search", "url2": null }, "geometry": { "type": "Point", "coordinates": [ 130.325093, 33.234582 ] } },
{ "type": "Feature", "properties": { "内容": "訪問看護ステーションぶどうの木【訪問看護】佐賀県佐賀市水ケ江1-2-21", "url": "https://www.kaigokensaku.mhlw.go.jp/41/index.php?action_kouhyou_detail_004_kani=true&JigyosyoCd=4160190346-00&ServiceCd=130&Type=search", "url2": "http://budounoki-mc.jp/" }, "geometry": { "type": "Point", "coordinates": [ 130.304873396631706, 33.250667912561703 ] } },
{ "type": "Feature", "properties": { "内容": "在宅看護センターびりーぶ【訪問看護】東与賀町大字田中881-2", "url": "https://www.kaigokensaku.mhlw.go.jp/41/index.php?action_kouhyou_detail_004_kani=true&JigyosyoCd=4160190395-00&ServiceCd=130&Type=search", "url2": "https://believe-saga.com/" }, "geometry": { "type": "Point", "coordinates": [ 130.27920924186401, 33.200963823083214 ] } },
{ "type": "Feature", "properties": { "内容": "訪問看護ステーションいちご【訪問看護】佐賀県佐賀市川副町大字早津江74", "url": "https://www.kaigokensaku.mhlw.go.jp/41/index.php?action_kouhyou_detail_004_kani=true&JigyosyoCd=4160190627-00&ServiceCd=130&Type=search", "url2": "https://msnk.or.jp" }, "geometry": { "type": "Point", "coordinates": [ 130.33598090000001, 33.2120351 ] } },
{ "type": "Feature", "properties": { "内容": "唐津訪問看護ステーション【訪問看護】唐津市西唐津1丁目6167番地", "url": "https://www.kaigokensaku.mhlw.go.jp/41/index.php?action_kouhyou_detail_004_kani=true&JigyosyoCd=4160290021-00&ServiceCd=130&Type=search", "url2": "http://karatsu-kaigo.com/karatsu-first-hospital/" }, "geometry": { "type": "Point", "coordinates": [ 129.956175900000062, 33.462753 ] } },
{ "type": "Feature", "properties": { "内容": "カラフルリハ訪問看護ステーション【訪問看護】佐賀県唐津市町田5丁目4-15", "url": "https://www.kaigokensaku.mhlw.go.jp/41/index.php?action_kouhyou_detail_004_kani=true&JigyosyoCd=4160290146-00&ServiceCd=130&Type=search", "url2": "https://yu-syun.com" }, "geometry": { "type": "Point", "coordinates": [ 129.9719696, 33.4441905 ] } },
{ "type": "Feature", "properties": { "内容": "訪問看護ステーション　ゆうぜん【訪問看護】佐賀県唐津市呼子町殿ノ浦911-1", "url": "https://www.kaigokensaku.mhlw.go.jp/41/index.php?action_kouhyou_detail_004_kani=true&JigyosyoCd=4160290161-00&ServiceCd=130&Type=search", "url2": null }, "geometry": { "type": "Point", "coordinates": [ 129.8908012, 33.5318171 ] } },
{ "type": "Feature", "properties": { "内容": "済生会訪問看護ステーションなでしこ唐津【訪問看護】佐賀県唐津市江川町694-1", "url": "https://www.kaigokensaku.mhlw.go.jp/41/index.php?action_kouhyou_detail_004_kani=true&JigyosyoCd=4160290013-00&ServiceCd=130&Type=search", "url2": "http://nadeshikokaratsu.com/" }, "geometry": { "type": "Point", "coordinates": [ 129.963296755819698, 33.454219095539102 ] } },
{ "type": "Feature", "properties": { "内容": "医療法人　修腎会　藤﨑病院　訪問看護ステーションのぞみ【訪問看護】佐賀県唐津市栄町2578番地13", "url": "https://www.kaigokensaku.mhlw.go.jp/41/index.php?action_kouhyou_detail_004_kani=true&JigyosyoCd=4160290039-00&ServiceCd=130&Type=search", "url2": "http://www.shujinkai.or.jp/" }, "geometry": { "type": "Point", "coordinates": [ 129.97793009999998, 33.447252 ] } },
{ "type": "Feature", "properties": { "内容": "訪問看護ステーション　笑えれば【訪問看護】佐賀県唐津市坊主町548-21F", "url": "https://www.kaigokensaku.mhlw.go.jp/41/index.php?action_kouhyou_detail_004_kani=true&JigyosyoCd=4160290088-00&ServiceCd=130&Type=search", "url2": "k-lavie.com" }, "geometry": { "type": "Point", "coordinates": [ 129.964567, 33.4512792 ] } },
{ "type": "Feature", "properties": { "内容": "まつのみ訪問看護ステーション【訪問看護】佐賀県唐津市松南町１１９－２", "url": "https://www.kaigokensaku.mhlw.go.jp/41/index.php?action_kouhyou_detail_004_kani=true&JigyosyoCd=4161490026-00&ServiceCd=130&Type=search", "url2": "http;//www.shouraikai.jp/kahan" }, "geometry": { "type": "Point", "coordinates": [ 130.001575499999944, 33.4387818 ] } },
{ "type": "Feature", "properties": { "内容": "唐津市民病院きたはた【訪問看護】佐賀県唐津市北波多徳須恵1424番地1", "url": "https://www.kaigokensaku.mhlw.go.jp/41/index.php?action_kouhyou_detail_004_kani=true&JigyosyoCd=4119811182-00&ServiceCd=130&Type=search", "url2": "https://www.city.karatsu.lg.jp/soshiki/53/" }, "geometry": { "type": "Point", "coordinates": [ 129.9460137, 33.3743028 ] } },
{ "type": "Feature", "properties": { "内容": "訪問看護ステーションしろくま【訪問看護】佐賀県唐津市竹木場4900‐23", "url": "https://www.kaigokensaku.mhlw.go.jp/41/index.php?action_kouhyou_detail_004_kani=true&JigyosyoCd=4160290096-00&ServiceCd=130&Type=search", "url2": "https://www.shirokumapharmacy-coltd.com/home-visiting-nursing" }, "geometry": { "type": "Point", "coordinates": [ 129.934471745352198, 33.428163731497392 ] } },
{ "type": "Feature", "properties": { "内容": "あいず訪問看護ステーション唐津中央【訪問看護】新興町17-103", "url": "https://www.kaigokensaku.mhlw.go.jp/41/index.php?action_kouhyou_detail_004_kani=true&JigyosyoCd=4160290120-00&ServiceCd=130&Type=search", "url2": "https://www.aizu-company.co.jp" }, "geometry": { "type": "Point", "coordinates": [ 129.965712700000012, 33.4463648 ] } },
{ "type": "Feature", "properties": { "内容": "訪問看護ステーションさいこうね【訪問看護】佐賀県唐津市新興町193番地", "url": "https://www.kaigokensaku.mhlw.go.jp/41/index.php?action_kouhyou_detail_004_kani=true&JigyosyoCd=4160290138-00&ServiceCd=130&Type=search", "url2": null }, "geometry": { "type": "Point", "coordinates": [ 129.9692827, 33.4453749 ] } },
{ "type": "Feature", "properties": { "内容": "訪問看護ステーションハートリンク【訪問看護】佐賀県唐津市唐川46番地1", "url": "https://www.kaigokensaku.mhlw.go.jp/41/index.php?action_kouhyou_detail_004_kani=true&JigyosyoCd=4160290187-00&ServiceCd=130&Type=search", "url2": "https://www.heartlinked.info" }, "geometry": { "type": "Point", "coordinates": [ 129.9167775, 33.4198899 ] } },
{ "type": "Feature", "properties": { "内容": "訪問看護ステーション行かなくっ茶【訪問看護】佐賀県唐津市新興町193番地", "url": "https://www.kaigokensaku.mhlw.go.jp/41/index.php?action_kouhyou_detail_004_kani=true&JigyosyoCd=4170200036-00&ServiceCd=130&Type=search", "url2": "http://www.osewa.co.jp/" }, "geometry": { "type": "Point", "coordinates": [ 129.9693028, 33.4453675 ] } },
{ "type": "Feature", "properties": { "内容": "あいぞら訪問看護ステーション【訪問看護】田代外町655-20", "url": "https://www.kaigokensaku.mhlw.go.jp/41/index.php?action_kouhyou_detail_004_kani=true&JigyosyoCd=4160390102-00&ServiceCd=130&Type=search", "url2": null }, "geometry": { "type": "Point", "coordinates": [ 130.51662399817701, 33.386824166673989 ] } },
{ "type": "Feature", "properties": { "内容": "在宅看護センター　ホットス【訪問看護】佐賀県鳥栖市古賀町622-3-101号", "url": "https://www.kaigokensaku.mhlw.go.jp/41/index.php?action_kouhyou_detail_004_kani=true&JigyosyoCd=4160390169-00&ServiceCd=130&Type=search", "url2": "https://www.hottosu.com/" }, "geometry": { "type": "Point", "coordinates": [ 130.498777100000012, 33.3887684 ] } },
{ "type": "Feature", "properties": { "内容": "医療法人せとじまクリニック訪問看護ステーションセントポーリア【訪問看護】佐賀県鳥栖市今泉町2434番地セントポーリア", "url": "https://www.kaigokensaku.mhlw.go.jp/41/index.php?action_kouhyou_detail_004_kani=true&JigyosyoCd=4170300596-00&ServiceCd=130&Type=search", "url2": "www15.ocn.ne.jp/~setojima/" }, "geometry": { "type": "Point", "coordinates": [ 130.513707899999986, 33.3626616 ] } },
{ "type": "Feature", "properties": { "内容": "訪問看護ステーションろしゅう【訪問看護】佐賀県鳥栖市儀徳町2907番地1", "url": "https://www.kaigokensaku.mhlw.go.jp/41/index.php?action_kouhyou_detail_004_kani=true&JigyosyoCd=4160390227-00&ServiceCd=130&Type=search", "url2": "https://roshuu.rukkusu.com" }, "geometry": { "type": "Point", "coordinates": [ 130.4941925, 33.3522237 ] } },
{ "type": "Feature", "properties": { "内容": "医療法人仁徳会　今村病院訪問看護【訪問看護】佐賀県鳥栖市本通町一丁目855番地10医療法人仁徳会　今村病院", "url": "https://www.kaigokensaku.mhlw.go.jp/41/index.php?action_kouhyou_detail_004_kani=true&JigyosyoCd=4110312370-00&ServiceCd=130&Type=search", "url2": "https://jintokukai.jp/" }, "geometry": { "type": "Point", "coordinates": [ 130.5172569, 33.3737231 ] } },
{ "type": "Feature", "properties": { "内容": "訪問看護ステーションふれあい【訪問看護】鳥栖市東町1丁目1058", "url": "https://www.kaigokensaku.mhlw.go.jp/41/index.php?action_kouhyou_detail_004_kani=true&JigyosyoCd=4160390011-00&ServiceCd=130&Type=search", "url2": "http://www.saitou-naika.com" }, "geometry": { "type": "Point", "coordinates": [ 130.516484242556658, 33.371339545121941 ] } },
{ "type": "Feature", "properties": { "内容": "エンジェル訪問看護ステーション【訪問看護】佐賀県鳥栖市轟木町１５２３番地６", "url": "https://www.kaigokensaku.mhlw.go.jp/41/index.php?action_kouhyou_detail_004_kani=true&JigyosyoCd=4160390086-00&ServiceCd=130&Type=search", "url2": "http://www.josuikai.or.jp" }, "geometry": { "type": "Point", "coordinates": [ 130.505125099999987, 33.3677666 ] } },
{ "type": "Feature", "properties": { "内容": "聖マリア病院鳥栖訪問看護ステーション【訪問看護】佐賀県鳥栖市神辺町字合町1588－6", "url": "https://www.kaigokensaku.mhlw.go.jp/41/index.php?action_kouhyou_detail_004_kani=true&JigyosyoCd=4160390110-00&ServiceCd=130&Type=search", "url2": "https://www.st-mary-kaigo.jp" }, "geometry": { "type": "Point", "coordinates": [ 130.509532842189088, 33.385208598050887 ] } },
{ "type": "Feature", "properties": { "内容": "株式会社　バイタル【訪問看護】佐賀県鳥栖市桜町1448-4アイエフエアリーコート103", "url": "https://www.kaigokensaku.mhlw.go.jp/41/index.php?action_kouhyou_detail_004_kani=true&JigyosyoCd=4160390136-00&ServiceCd=130&Type=search", "url2": null }, "geometry": { "type": "Point", "coordinates": [ 130.524566704354925, 33.384493526915662 ] } },
{ "type": "Feature", "properties": { "内容": "まごころ訪問看護ステーション【訪問看護】佐賀県鳥栖市蔵上2丁目221番地ドリーム蔵上102", "url": "https://www.kaigokensaku.mhlw.go.jp/41/index.php?action_kouhyou_detail_004_kani=true&JigyosyoCd=4160390219-00&ServiceCd=130&Type=search", "url2": "https://magokoroiryoukan.com/" }, "geometry": { "type": "Point", "coordinates": [ 130.494933730475708, 33.374964625779469 ] } },
{ "type": "Feature", "properties": { "内容": "あいず訪問看護ステーション鳥栖【訪問看護】佐賀県鳥栖市京町723-7", "url": "https://www.kaigokensaku.mhlw.go.jp/41/index.php?action_kouhyou_detail_004_kani=true&JigyosyoCd=4160390177-00&ServiceCd=130&Type=search", "url2": "http://www.aizu-company.co.jp" }, "geometry": { "type": "Point", "coordinates": [ 130.5185764, 33.3748643 ] } },
{ "type": "Feature", "properties": { "内容": "訪問看護ステーション・ALTON【訪問看護】佐賀県多久市北多久町多久原2463-13", "url": "https://www.kaigokensaku.mhlw.go.jp/41/index.php?action_kouhyou_detail_004_kani=true&JigyosyoCd=4160490035-00&ServiceCd=130&Type=search", "url2": "http://www.houmonalton.com" }, "geometry": { "type": "Point", "coordinates": [ 130.115100500000011, 33.2858698 ] } },
{ "type": "Feature", "properties": { "内容": "訪問看護ステーションかんちゃん【訪問看護】佐賀県多久市多久町521番地1", "url": "https://www.kaigokensaku.mhlw.go.jp/41/index.php?action_kouhyou_detail_004_kani=true&JigyosyoCd=4160490043-00&ServiceCd=130&Type=search", "url2": "https://tenten-sagataku.com" }, "geometry": { "type": "Point", "coordinates": [ 130.102146299999987, 33.2685107 ] } },
{ "type": "Feature", "properties": { "内容": "訪問看護ステーション　佐賀中央【訪問看護】佐賀県多久市東多久町大字別府3562番地", "url": "https://www.kaigokensaku.mhlw.go.jp/41/index.php?action_kouhyou_detail_004_kani=true&JigyosyoCd=4160490050-00&ServiceCd=130&Type=search", "url2": null }, "geometry": { "type": "Point", "coordinates": [ 130.1457494, 33.2788759 ] } },
{ "type": "Feature", "properties": { "内容": "医療法人剛友会　にこにこ訪問看護ステーション【訪問看護】佐賀県多久市北多久町大字多久原2414－70", "url": "https://www.kaigokensaku.mhlw.go.jp/41/index.php?action_kouhyou_detail_004_kani=true&JigyosyoCd=4160490019-00&ServiceCd=130&Type=search", "url2": "http://www9.ocn.ne.jp/~morokuma/" }, "geometry": { "type": "Point", "coordinates": [ 130.1142241, 33.2863018 ] } },
{ "type": "Feature", "properties": { "内容": "訪問看護ステーション　なずな【訪問看護】佐賀県多久市北多久町多久原2512-24", "url": "https://www.kaigokensaku.mhlw.go.jp/41/index.php?action_kouhyou_detail_004_kani=true&JigyosyoCd=4160490027-00&ServiceCd=130&Type=search", "url2": "http://www.koujinkai.net/" }, "geometry": { "type": "Point", "coordinates": [ 130.1130743, 33.2848158 ] } },
{ "type": "Feature", "properties": { "内容": "陽あたりリハビリ訪問看護ステーション【訪問看護】佐賀県伊万里市立花町2927番地9", "url": "https://www.kaigokensaku.mhlw.go.jp/41/index.php?action_kouhyou_detail_004_kani=true&JigyosyoCd=4160590099-00&ServiceCd=130&Type=search", "url2": "https://hiatari2020.com/" }, "geometry": { "type": "Point", "coordinates": [ 129.888062422173817, 33.268536125703591 ] } },
{ "type": "Feature", "properties": { "内容": "訪問看護ステーションくらら【訪問看護】佐賀県伊万里市大川町大川野4163-3", "url": "https://www.kaigokensaku.mhlw.go.jp/41/index.php?action_kouhyou_detail_004_kani=true&JigyosyoCd=4160590107-00&ServiceCd=130&Type=search", "url2": "https://st-kurara.com/" }, "geometry": { "type": "Point", "coordinates": [ 129.9709167, 33.2936647 ] } },
{ "type": "Feature", "properties": { "内容": "訪問看護ステーションなないろ【訪問看護】佐賀県伊万里市八谷搦13番地5", "url": "https://www.kaigokensaku.mhlw.go.jp/41/index.php?action_kouhyou_detail_004_kani=true&JigyosyoCd=4170500278-00&ServiceCd=130&Type=search", "url2": "http://www.kenjin-kai.com/care-support/" }, "geometry": { "type": "Point", "coordinates": [ 129.871567, 33.2732426 ] } },
{ "type": "Feature", "properties": { "内容": "医療法人光仁会　光仁会訪問看護ステーション【訪問看護】佐賀県伊万里市山代町峰6522番地4", "url": "https://www.kaigokensaku.mhlw.go.jp/41/index.php?action_kouhyou_detail_004_kani=true&JigyosyoCd=4160590024-00&ServiceCd=130&Type=search", "url2": "http://nishida-hp.jp" }, "geometry": { "type": "Point", "coordinates": [ 129.816364016428764, 33.298886432187118 ] } },
{ "type": "Feature", "properties": { "内容": "訪問看護ステーション　道の家【訪問看護】佐賀県武雄市武雄町大字富岡11083番地1", "url": "https://www.kaigokensaku.mhlw.go.jp/41/index.php?action_kouhyou_detail_004_kani=true&JigyosyoCd=4170600474-00&ServiceCd=130&Type=search", "url2": null }, "geometry": { "type": "Point", "coordinates": [ 130.0230858, 33.2075947 ] } },
{ "type": "Feature", "properties": { "内容": "訪問看護ステーションつぐみ【訪問看護】佐賀県武雄市武雄町大字富岡12519番地1グランベール武雄壱番館301号", "url": "https://www.kaigokensaku.mhlw.go.jp/41/index.php?action_kouhyou_detail_004_kani=true&JigyosyoCd=4160690055-00&ServiceCd=130&Type=search", "url2": null }, "geometry": { "type": "Point", "coordinates": [ 130.0350091, 33.1997363 ] } },
{ "type": "Feature", "properties": { "内容": "訪問看護ステーション　一叶【訪問看護】佐賀県武雄市朝日町大字甘久320番地1ヤマサキビル2F", "url": "https://www.kaigokensaku.mhlw.go.jp/41/index.php?action_kouhyou_detail_004_kani=true&JigyosyoCd=4160690071-00&ServiceCd=130&Type=search", "url2": "https://takeo-ichika.com/" }, "geometry": { "type": "Point", "coordinates": [ 130.0349821, 33.2038735 ] } },
{ "type": "Feature", "properties": { "内容": "訪問看護ステーション　副島整形外科【訪問看護】佐賀県武雄市武雄町大字富岡7641番地1", "url": "https://www.kaigokensaku.mhlw.go.jp/41/index.php?action_kouhyou_detail_004_kani=true&JigyosyoCd=4160690089-00&ServiceCd=130&Type=search", "url2": "https://soejimaseikei.or.jp" }, "geometry": { "type": "Point", "coordinates": [ 130.0169191, 33.1966547 ] } },
{ "type": "Feature", "properties": { "内容": "さくら訪問看護ステーション【訪問看護】佐賀県武雄市武雄町大字昭和801果林コーポ102", "url": "https://www.kaigokensaku.mhlw.go.jp/41/index.php?action_kouhyou_detail_004_kani=true&JigyosyoCd=4170600706-00&ServiceCd=130&Type=search", "url2": null }, "geometry": { "type": "Point", "coordinates": [ 130.031700799999953, 33.1960967 ] } },
{ "type": "Feature", "properties": { "内容": "訪問看護ステーション道の家【訪問看護】佐賀県武雄市武雄町大字富岡11083ー１", "url": "https://www.kaigokensaku.mhlw.go.jp/41/index.php?action_kouhyou_detail_004_kani=true&JigyosyoCd=4170600813-00&ServiceCd=130&Type=search", "url2": "https://www.akinokai.jp/facility/michinoie.html" }, "geometry": { "type": "Point", "coordinates": [ 130.022411299999987, 33.2073921 ] } },
{ "type": "Feature", "properties": { "内容": "訪問看護ステーションease【訪問看護】佐賀県武雄市武雄町武雄5598-22", "url": "https://www.kaigokensaku.mhlw.go.jp/41/index.php?action_kouhyou_detail_004_kani=true&JigyosyoCd=4160690030-00&ServiceCd=130&Type=search", "url2": "https://nursingcareplus-saga.com/" }, "geometry": { "type": "Point", "coordinates": [ 130.017938, 33.192604193562644 ] } },
{ "type": "Feature", "properties": { "内容": "訪問看護ステーション　お家がいちばん【訪問看護】佐賀県武雄市武雄町大字富岡12624番地4スポリハビル2階", "url": "https://www.kaigokensaku.mhlw.go.jp/41/index.php?action_kouhyou_detail_004_kani=true&JigyosyoCd=4160690063-00&ServiceCd=130&Type=search", "url2": null }, "geometry": { "type": "Point", "coordinates": [ 130.033455111494789, 33.197432147586582 ] } },
{ "type": "Feature", "properties": { "内容": "あいず訪問看護ステーション武雄【訪問看護】佐賀県武雄市武雄町昭和23-12", "url": "https://www.kaigokensaku.mhlw.go.jp/41/index.php?action_kouhyou_detail_004_kani=true&JigyosyoCd=4160690105-00&ServiceCd=130&Type=search", "url2": "https://www.aizu-company.co.jp" }, "geometry": { "type": "Point", "coordinates": [ 130.0257265, 33.1951715 ] } },
{ "type": "Feature", "properties": { "内容": "訪問看護ステーションこころ【訪問看護】佐賀県鹿島市大字納富分4488番地", "url": "https://www.kaigokensaku.mhlw.go.jp/41/index.php?action_kouhyou_detail_004_kani=true&JigyosyoCd=4160790038-00&ServiceCd=130&Type=search", "url2": "https://fukushi-kokoro.com/" }, "geometry": { "type": "Point", "coordinates": [ 130.101073, 33.0955672 ] } },
{ "type": "Feature", "properties": { "内容": "訪問看護ステーションゆうあい【訪問看護】佐賀県鹿島市大字高津原4306", "url": "https://www.kaigokensaku.mhlw.go.jp/41/index.php?action_kouhyou_detail_004_kani=true&JigyosyoCd=4160790012-00&ServiceCd=130&Type=search", "url2": "http://www.yuaivillage.com" }, "geometry": { "type": "Point", "coordinates": [ 130.095608199999987, 33.111409 ] } },
{ "type": "Feature", "properties": { "内容": "訪問看護ステーションおぎ【訪問看護】佐賀県小城市小城町松尾4100", "url": "https://www.kaigokensaku.mhlw.go.jp/41/index.php?action_kouhyou_detail_004_kani=true&JigyosyoCd=4161390036-00&ServiceCd=130&Type=search", "url2": "http://www.city.ogi.lg.jp/hospital/" }, "geometry": { "type": "Point", "coordinates": [ 130.196842, 33.2959928 ] } },
{ "type": "Feature", "properties": { "内容": "訪問看護ステーション三日月【訪問看護】佐賀県小城市三日月町金田１１７８－１", "url": "https://www.kaigokensaku.mhlw.go.jp/41/index.php?action_kouhyou_detail_004_kani=true&JigyosyoCd=4161390028-00&ServiceCd=130&Type=search", "url2": "www.eguchi-hospital.com/" }, "geometry": { "type": "Point", "coordinates": [ 130.228372425378438, 33.259774982155378 ] } },
{ "type": "Feature", "properties": { "内容": "医療法人孟子会　訪問看護ステーション【訪問看護】佐賀県小城市三日月町久米1009-1セジュールJ103号", "url": "https://www.kaigokensaku.mhlw.go.jp/41/index.php?action_kouhyou_detail_004_kani=true&JigyosyoCd=4161390051-00&ServiceCd=130&Type=search", "url2": "https://www.hirooka-clinic.com" }, "geometry": { "type": "Point", "coordinates": [ 130.20501680000001, 33.2884649 ] } },
{ "type": "Feature", "properties": { "内容": "医療法人　ひらまつ病院　訪問看護ステーション【訪問看護】佐賀県小城市小城町1000-1", "url": "https://www.kaigokensaku.mhlw.go.jp/41/index.php?action_kouhyou_detail_004_kani=true&JigyosyoCd=4171300298-00&ServiceCd=130&Type=search", "url2": "http://www.hiramatsu-hp.or.jp/ladiesclinic/" }, "geometry": { "type": "Point", "coordinates": [ 130.201032982215338, 33.298111503728286 ] } },
{ "type": "Feature", "properties": { "内容": "訪問看護ステーション　嬉々【訪問看護】佐賀県嬉野市塩田町馬場下甲1814", "url": "https://www.kaigokensaku.mhlw.go.jp/41/index.php?action_kouhyou_detail_004_kani=true&JigyosyoCd=4160990026-00&ServiceCd=130&Type=search", "url2": "https://goudouamenohi.wixsite.com/my-site-1" }, "geometry": { "type": "Point", "coordinates": [ 130.0608559, 33.1277316 ] } },
{ "type": "Feature", "properties": { "内容": "訪問看護ステーションまごころ【訪問看護】佐賀県嬉野市嬉野町大字下宿乙1919", "url": "https://www.kaigokensaku.mhlw.go.jp/41/index.php?action_kouhyou_detail_004_kani=true&JigyosyoCd=4161790011-00&ServiceCd=130&Type=search", "url2": "http://www.yuhokai.com" }, "geometry": { "type": "Point", "coordinates": [ 129.978098315760803, 33.101601925730208 ] } },
{ "type": "Feature", "properties": { "内容": "セントケア訪問看護ステーション吉野ヶ里【訪問看護】佐賀県神埼市神埼町大字田道ケ里2892番1", "url": "https://www.kaigokensaku.mhlw.go.jp/41/index.php?action_kouhyou_detail_004_kani=true&JigyosyoCd=4162090049-00&ServiceCd=130&Type=search", "url2": null }, "geometry": { "type": "Point", "coordinates": [ 130.379247099999986, 33.3162729 ] } },
{ "type": "Feature", "properties": { "内容": "訪問看護ステーション　バルーン【訪問看護】佐賀県神埼市神埼町枝ヶ里61-1", "url": "https://www.kaigokensaku.mhlw.go.jp/41/index.php?action_kouhyou_detail_004_kani=true&JigyosyoCd=4161190022-00&ServiceCd=130&Type=search", "url2": "https://www.houmon-balloon.com/" }, "geometry": { "type": "Point", "coordinates": [ 130.371650509001199, 33.306565038633202 ] } },
{ "type": "Feature", "properties": { "内容": "神埼病院訪問看護ステーションかんざき【訪問看護】佐賀県神埼市神埼町鶴3194－3", "url": "https://www.kaigokensaku.mhlw.go.jp/41/index.php?action_kouhyou_detail_004_kani=true&JigyosyoCd=4162090031-00&ServiceCd=130&Type=search", "url2": "https://kanzakihp.jp" }, "geometry": { "type": "Point", "coordinates": [ 130.3705176, 33.3183606 ] } },
{ "type": "Feature", "properties": { "内容": "訪問看護ステーションRｅａｆかんざき【訪問看護】佐賀県神埼市千代田町下西662番地11", "url": "https://www.kaigokensaku.mhlw.go.jp/41/index.php?action_kouhyou_detail_004_kani=true&JigyosyoCd=4162090064-00&ServiceCd=130&Type=search", "url2": "https://care-rapport.jp/" }, "geometry": { "type": "Point", "coordinates": [ 130.3488753, 33.2613492 ] } },
{ "type": "Feature", "properties": { "内容": "はなあかり訪問看護ステーション【訪問看護】佐賀県神埼市神埼町本告牟田1256-1", "url": "https://www.kaigokensaku.mhlw.go.jp/41/index.php?action_kouhyou_detail_004_kani=true&JigyosyoCd=4162090072-00&ServiceCd=130&Type=search", "url2": "www.hanaakari-houkan.jp" }, "geometry": { "type": "Point", "coordinates": [ 130.3596114, 33.2962707 ] } },
{ "type": "Feature", "properties": { "内容": "アップルハート訪問看護ステーション吉野ケ里【訪問看護】神埼郡吉野ケ里町吉田2180-1馬郡店舗103", "url": "https://www.kaigokensaku.mhlw.go.jp/41/index.php?action_kouhyou_detail_004_kani=true&JigyosyoCd=4171100292-00&ServiceCd=130&Type=search", "url2": "http：//www.aso-kaigo.jp" }, "geometry": { "type": "Point", "coordinates": [ 130.414581873016346, 33.333637762241928 ] } },
{ "type": "Feature", "properties": { "内容": "メディケア訪問看護リハビリステーション佐賀基山【訪問看護】佐賀県三養基郡基山町大字宮浦186‐65きやまクリニックモールA－3", "url": "https://www.kaigokensaku.mhlw.go.jp/41/index.php?action_kouhyou_detail_004_kani=true&JigyosyoCd=4161290129-00&ServiceCd=130&Type=search", "url2": "http://medicare-fukuoka.com/" }, "geometry": { "type": "Point", "coordinates": [ 130.5304717, 33.4218812 ] } },
{ "type": "Feature", "properties": { "内容": "医療法人　三樹会　みき訪問看護ステーション【訪問看護】佐賀県三養基郡上峰町坊所279番地1", "url": "https://www.kaigokensaku.mhlw.go.jp/41/index.php?action_kouhyou_detail_004_kani=true&JigyosyoCd=4161290079-00&ServiceCd=130&Type=search", "url2": null }, "geometry": { "type": "Point", "coordinates": [ 130.425089699999944, 33.3203509 ] } },
{ "type": "Feature", "properties": { "内容": "訪問看護ステーションみやき【訪問看護】佐賀県三養基郡みやき町江口3187-2メゾン原Ⅱ505号室", "url": "https://www.kaigokensaku.mhlw.go.jp/41/index.php?action_kouhyou_detail_004_kani=true&JigyosyoCd=4161290095-00&ServiceCd=130&Type=search", "url2": "https://houmonkango-miyaki.jimdofree.com/" }, "geometry": { "type": "Point", "coordinates": [ 130.4860898, 33.3163098 ] } },
{ "type": "Feature", "properties": { "内容": "株式会社よつば会　よつば訪問ステーション【訪問看護】大字中津隈6017番地3", "url": "https://www.kaigokensaku.mhlw.go.jp/41/index.php?action_kouhyou_detail_004_kani=true&JigyosyoCd=4161290053-00&ServiceCd=130&Type=search", "url2": "https://www.yotsubakai.net" }, "geometry": { "type": "Point", "coordinates": [ 130.449186127930318, 33.319863716692794 ] } },
{ "type": "Feature", "properties": { "内容": "訪問看護ステーション　カラビナ【訪問看護】佐賀県三養基郡みやき町江口3489　メゾンドみやき101号", "url": "https://www.kaigokensaku.mhlw.go.jp/41/index.php?action_kouhyou_detail_004_kani=true&JigyosyoCd=4161290145-00&ServiceCd=130&Type=search", "url2": null }, "geometry": { "type": "Point", "coordinates": [ 130.48382380000001, 33.312884 ] } },
{ "type": "Feature", "properties": { "内容": "訪問看護ステーションともに【訪問看護】佐賀県三養基郡みやき町白壁3516-6", "url": "https://www.kaigokensaku.mhlw.go.jp/41/index.php?action_kouhyou_detail_004_kani=true&JigyosyoCd=4161290137-00&ServiceCd=130&Type=search", "url2": "tomoni1010.com" }, "geometry": { "type": "Point", "coordinates": [ 130.4620425, 33.3262151 ] } },
{ "type": "Feature", "properties": { "内容": "ひかり訪問看護ステーション【訪問看護】佐賀県　東松浦郡　玄海町　大字　長倉1553-1", "url": "https://www.kaigokensaku.mhlw.go.jp/41/index.php?action_kouhyou_detail_004_kani=true&JigyosyoCd=4161490059-00&ServiceCd=130&Type=search", "url2": "https://www.shante.co.jp" }, "geometry": { "type": "Point", "coordinates": [ 129.879203100000012, 33.4720231 ] } },
{ "type": "Feature", "properties": { "内容": "訪問看護ステーションまどか【訪問看護】佐賀県西松浦郡有田町黒川丙627番地20", "url": "https://www.kaigokensaku.mhlw.go.jp/41/index.php?action_kouhyou_detail_004_kani=true&JigyosyoCd=4161590049-00&ServiceCd=130&Type=search", "url2": "https://www.fukufukunosato.net/" }, "geometry": { "type": "Point", "coordinates": [ 129.851881100000014, 33.1965038 ] } },
{ "type": "Feature", "properties": { "内容": "訪問看護ステーションともなが【訪問看護】佐賀県西松浦郡有田町戸杓丙124番地3", "url": "https://www.kaigokensaku.mhlw.go.jp/41/index.php?action_kouhyou_detail_004_kani=true&JigyosyoCd=4171500095-00&ServiceCd=130&Type=search", "url2": "https://kyotakukaigo-tomonaga.com/" }, "geometry": { "type": "Point", "coordinates": [ 129.879146, 33.1758115 ] } },
{ "type": "Feature", "properties": { "内容": "訪問看護ステーションひなた【訪問看護】佐賀県杵島郡大町町大字大町5136番地9", "url": "https://www.kaigokensaku.mhlw.go.jp/41/index.php?action_kouhyou_detail_004_kani=true&JigyosyoCd=4161690088-00&ServiceCd=130&Type=search", "url2": "hinata10161126@icloud.com" }, "geometry": { "type": "Point", "coordinates": [ 130.113565599999987, 33.217633 ] } },
{ "type": "Feature", "properties": { "内容": "訪問看護ステーション　タンポポ【訪問看護】佐賀県杵島郡江北町惣領分２４２０番地１", "url": "https://www.kaigokensaku.mhlw.go.jp/41/index.php?action_kouhyou_detail_004_kani=true&JigyosyoCd=4151680057-00&ServiceCd=130&Type=search", "url2": "www.keitendo.jp" }, "geometry": { "type": "Point", "coordinates": [ 130.173104500000022, 33.224011600000011 ] } },
{ "type": "Feature", "properties": { "内容": "のどか訪問看護ステーション【訪問看護】佐賀県杵島郡江北町大字山口1403－１エスティアムA　105", "url": "https://www.kaigokensaku.mhlw.go.jp/41/index.php?action_kouhyou_detail_004_kani=true&JigyosyoCd=4161690096-00&ServiceCd=130&Type=search", "url2": null }, "geometry": { "type": "Point", "coordinates": [ 130.1589107, 33.2188584 ] } },
{ "type": "Feature", "properties": { "内容": "訪問看護ステーションスマイル【訪問看護】佐賀県杵島郡江北町上小田274-1", "url": "https://www.kaigokensaku.mhlw.go.jp/41/index.php?action_kouhyou_detail_004_kani=true&JigyosyoCd=4171600655-00&ServiceCd=130&Type=search", "url2": "https://eijyukai-saga.jp/" }, "geometry": { "type": "Point", "coordinates": [ 130.1455637081269, 33.225376821471457 ] } },
{ "type": "Feature", "properties": { "内容": "訪問看護ステーション　タンポポ【訪問看護】佐賀県杵島郡江北町上小田1150番地", "url": "https://www.kaigokensaku.mhlw.go.jp/41/index.php?action_kouhyou_detail_004_kani=true&JigyosyoCd=4161690104-00&ServiceCd=130&Type=search", "url2": "https://www.keitendo.jp/" }, "geometry": { "type": "Point", "coordinates": [ 130.1373611, 33.2184298 ] } },
{ "type": "Feature", "properties": { "内容": "訪問看護ステーション　かちがら巣【訪問看護】佐賀県杵島郡白石町福吉1808", "url": "https://www.kaigokensaku.mhlw.go.jp/41/index.php?action_kouhyou_detail_004_kani=true&JigyosyoCd=4161690013-00&ServiceCd=130&Type=search", "url2": "http://tougen.or.jp" }, "geometry": { "type": "Point", "coordinates": [ 130.153442400000017, 33.185696 ] } },
{ "type": "Feature", "properties": { "内容": "白石共立病院訪問看護ステーション菜の花【訪問看護】佐賀県杵島郡白石町大字福田１２９６", "url": "https://www.kaigokensaku.mhlw.go.jp/41/index.php?action_kouhyou_detail_004_kani=true&JigyosyoCd=4161690047-00&ServiceCd=130&Type=search", "url2": "https://shiroishikyouritsu.jp/" }, "geometry": { "type": "Point", "coordinates": [ 130.138234, 33.1850475 ] } },
{ "type": "Feature", "properties": { "内容": "杵藤訪問看護リハビリステーションふみ【訪問看護】佐賀県杵島郡白石町大字戸ヶ里1831-12", "url": "https://www.kaigokensaku.mhlw.go.jp/41/index.php?action_kouhyou_detail_004_kani=true&JigyosyoCd=4161690054-00&ServiceCd=130&Type=search", "url2": "http://fumi-chiiki.com" }, "geometry": { "type": "Point", "coordinates": [ -8.24389, 53.41291 ] } },
{ "type": "Feature", "properties": { "内容": "ひかり訪問看護ステーション【訪問看護】佐賀県杵島郡白石町福田２２８５", "url": "https://www.kaigokensaku.mhlw.go.jp/41/index.php?action_kouhyou_detail_004_kani=true&JigyosyoCd=4161690062-00&ServiceCd=130&Type=search", "url2": null }, "geometry": { "type": "Point", "coordinates": [ 130.1429085, 33.1863153 ] } },
{ "type": "Feature", "properties": { "内容": "訪問看護ステーショングリーンウッド【訪問看護】佐賀県杵島郡白石町大字福田1514-2", "url": "https://www.kaigokensaku.mhlw.go.jp/41/index.php?action_kouhyou_detail_004_kani=true&JigyosyoCd=4161690070-00&ServiceCd=130&Type=search", "url2": "http://hp.kaipoke.biz/grx/" }, "geometry": { "type": "Point", "coordinates": [ 130.1390437, 33.1830644 ] } },
{ "type": "Feature", "properties": { "内容": "訪問看護ステーション笑む【訪問看護】佐賀県杵島郡白石町戸ケ里1811森外科医院3階", "url": "https://www.kaigokensaku.mhlw.go.jp/41/index.php?action_kouhyou_detail_004_kani=true&JigyosyoCd=4161690120-00&ServiceCd=130&Type=search", "url2": null }, "geometry": { "type": "Point", "coordinates": [ 130.1243828, 33.1525156 ] } },
{ "type": "Feature", "properties": { "内容": "太良町訪問看護ステーション【訪問看護】佐賀県藤津郡太良町大字多良１５２０番地１２", "url": "https://www.kaigokensaku.mhlw.go.jp/41/index.php?action_kouhyou_detail_004_kani=true&JigyosyoCd=4161790029-00&ServiceCd=130&Type=search", "url2": "tara-houkan@po.hagakure.ne.jp" }, "geometry": { "type": "Point", "coordinates": [ 130.178692800000022, 33.0269597 ] } }
]
}
