{
"type": "FeatureCollection",
"name": "geo_41_通所介護",
"crs": { "type": "name", "properties": { "name": "urn:ogc:def:crs:OGC:1.3:CRS84" } },
"features": [
{ "type": "Feature", "properties": { "内容": "デイサービスセンター　レインボー川副【通所介護】佐賀県佐賀市川副町鹿江９６０－１４", "url": "https://www.kaigokensaku.mhlw.go.jp/41/index.php?action_kouhyou_detail_004_kani=true&JigyosyoCd=4170101432-00&ServiceCd=150&Type=search", "url2": "http://www.medical-sanko.com" }, "geometry": { "type": "Point", "coordinates": [ 130.3154409, 33.1912006 ] } },
{ "type": "Feature", "properties": { "内容": "デイサービスセンター　希望川副【通所介護】佐賀市川副町鹿江９６０－２３", "url": "https://www.kaigokensaku.mhlw.go.jp/41/index.php?action_kouhyou_detail_004_kani=true&JigyosyoCd=4170102091-00&ServiceCd=150&Type=search", "url2": "http://www.medical-sanko.com" }, "geometry": { "type": "Point", "coordinates": [ 130.3154409, 33.1912006 ] } },
{ "type": "Feature", "properties": { "内容": "デイサービスセンター　さつき苑【通所介護】佐賀県佐賀市鍋島町大字蛎久字二本松1377-5", "url": "https://www.kaigokensaku.mhlw.go.jp/41/index.php?action_kouhyou_detail_004_kani=true&JigyosyoCd=4170102372-00&ServiceCd=150&Type=search", "url2": null }, "geometry": { "type": "Point", "coordinates": [ 130.280192100000022, 33.2776135 ] } },
{ "type": "Feature", "properties": { "内容": "デイサービス　オリーブの苑【通所介護】佐賀県佐賀市大和町大字久池井１５２１－５オリーブの苑", "url": "https://www.kaigokensaku.mhlw.go.jp/41/index.php?action_kouhyou_detail_004_kani=true&JigyosyoCd=4170102216-00&ServiceCd=150&Type=search", "url2": ":http://rosaryo.jp/" }, "geometry": { "type": "Point", "coordinates": [ 130.288567899999947, 33.3248539 ] } },
{ "type": "Feature", "properties": { "内容": "ツクイ　佐賀北【通所介護】佐賀市兵庫北二丁目27番18号", "url": "https://www.kaigokensaku.mhlw.go.jp/41/index.php?action_kouhyou_detail_004_kani=true&JigyosyoCd=4170103438-00&ServiceCd=150&Type=search", "url2": "http://www.tsukui.net/" }, "geometry": { "type": "Point", "coordinates": [ 130.3057241, 33.2710002 ] } },
{ "type": "Feature", "properties": { "内容": "しのか家デイサービス【通所介護】佐賀県佐賀市南佐賀２丁目７－２０", "url": "https://www.kaigokensaku.mhlw.go.jp/41/index.php?action_kouhyou_detail_004_kani=true&JigyosyoCd=4170103719-00&ServiceCd=150&Type=search", "url2": "https://yumekaya-dayservice.com/" }, "geometry": { "type": "Point", "coordinates": [ 130.3207841, 33.2375829 ] } },
{ "type": "Feature", "properties": { "内容": "デイサービスほうむ大詫間【通所介護】佐賀県佐賀市川副町大字大詫間620", "url": "https://www.kaigokensaku.mhlw.go.jp/41/index.php?action_kouhyou_detail_004_kani=true&JigyosyoCd=4170103453-00&ServiceCd=150&Type=search", "url2": null }, "geometry": { "type": "Point", "coordinates": [ 130.3424938, 33.1783444 ] } },
{ "type": "Feature", "properties": { "内容": "デイサービスセンター高木瀬【通所介護】佐賀市高木瀬町大字東高木239-9", "url": "https://www.kaigokensaku.mhlw.go.jp/41/index.php?action_kouhyou_detail_004_kani=true&JigyosyoCd=4170101903-00&ServiceCd=150&Type=search", "url2": "siniaho-mutakagise@celery.ocn.ne.jp" }, "geometry": { "type": "Point", "coordinates": [ 130.300206322090162, 33.27584520277891 ] } },
{ "type": "Feature", "properties": { "内容": "デイサービス　げんき【通所介護】佐賀県佐賀市開成１丁目４－２", "url": "https://www.kaigokensaku.mhlw.go.jp/41/index.php?action_kouhyou_detail_004_kani=true&JigyosyoCd=4110114446-00&ServiceCd=150&Type=search", "url2": "http://www.nagaenaika.jp/" }, "geometry": { "type": "Point", "coordinates": [ 130.27855640000007, 33.2681837 ] } },
{ "type": "Feature", "properties": { "内容": "有料老人ホームひだまり鍋島館【通所介護】佐賀県佐賀市鍋島町八戸1969-1有料老人ホームひだまり鍋島館", "url": "https://www.kaigokensaku.mhlw.go.jp/41/index.php?action_kouhyou_detail_004_kani=true&JigyosyoCd=4170103693-00&ServiceCd=150&Type=search", "url2": "http://hidamari-saga.com" }, "geometry": { "type": "Point", "coordinates": [ 130.269284699999986, 33.2549932 ] } },
{ "type": "Feature", "properties": { "内容": "デイサービスいしいび【通所介護】佐賀県佐賀市大和町大字尼寺3227番地1", "url": "https://www.kaigokensaku.mhlw.go.jp/41/index.php?action_kouhyou_detail_004_kani=true&JigyosyoCd=4170102604-00&ServiceCd=150&Type=search", "url2": "http;//www.fjok-hsp.com/ishiibinoyakata" }, "geometry": { "type": "Point", "coordinates": [ 130.275833299999931, 33.3024226 ] } },
{ "type": "Feature", "properties": { "内容": "デイサービス　やまと【通所介護】佐賀市大和町大字久池井1943番地", "url": "https://www.kaigokensaku.mhlw.go.jp/41/index.php?action_kouhyou_detail_004_kani=true&JigyosyoCd=4170101242-00&ServiceCd=150&Type=search", "url2": null }, "geometry": { "type": "Point", "coordinates": [ 130.284112899999968, 33.3173852 ] } },
{ "type": "Feature", "properties": { "内容": "扇寿荘指定通所介護センタ－【通所介護】佐賀県佐賀市嘉瀬町大字中原2585", "url": "https://www.kaigokensaku.mhlw.go.jp/41/index.php?action_kouhyou_detail_004_kani=true&JigyosyoCd=4170100111-00&ServiceCd=150&Type=search", "url2": null }, "geometry": { "type": "Point", "coordinates": [ 130.253795699999955, 33.2395133 ] } },
{ "type": "Feature", "properties": { "内容": "シオンの園　デイサービス大和【通所介護】佐賀市大和町大字久留間3865-1", "url": "https://www.kaigokensaku.mhlw.go.jp/41/index.php?action_kouhyou_detail_004_kani=true&JigyosyoCd=4161090032-00&ServiceCd=150&Type=search", "url2": "http://www.zion.or.jp" }, "geometry": { "type": "Point", "coordinates": [ 130.2433294, 33.3123104 ] } },
{ "type": "Feature", "properties": { "内容": "つぼみ荘　デイ・サービス【通所介護】佐賀市北川副町大字光法1480-2", "url": "https://www.kaigokensaku.mhlw.go.jp/41/index.php?action_kouhyou_detail_004_kani=true&JigyosyoCd=4170100103-00&ServiceCd=150&Type=search", "url2": "http://itwan.main.jp/tsubomi-sou/" }, "geometry": { "type": "Point", "coordinates": [ 130.331258400000024, 33.2321383 ] } },
{ "type": "Feature", "properties": { "内容": "開成デイサービスセンター【通所介護】佐賀市鍋島町森田27-5", "url": "https://www.kaigokensaku.mhlw.go.jp/41/index.php?action_kouhyou_detail_004_kani=true&JigyosyoCd=4170100129-00&ServiceCd=150&Type=search", "url2": "http://www.scshakyou.jp/" }, "geometry": { "type": "Point", "coordinates": [ 130.270518, 33.2673836 ] } },
{ "type": "Feature", "properties": { "内容": "福生苑デイサービスセンター【通所介護】佐賀県佐賀市嘉瀬町大字中原1952番地1", "url": "https://www.kaigokensaku.mhlw.go.jp/41/index.php?action_kouhyou_detail_004_kani=true&JigyosyoCd=4170100210-00&ServiceCd=150&Type=search", "url2": "http://www.shimada.or.jp" }, "geometry": { "type": "Point", "coordinates": [ 130.258942400000024, 33.242141 ] } },
{ "type": "Feature", "properties": { "内容": "ニチイケアセンターさが【通所介護】佐賀県佐賀市鍋島３丁目１４番２８号", "url": "https://www.kaigokensaku.mhlw.go.jp/41/index.php?action_kouhyou_detail_004_kani=true&JigyosyoCd=4170100319-00&ServiceCd=150&Type=search", "url2": "http://www.nichiigakkan.cojp" }, "geometry": { "type": "Point", "coordinates": [ 130.264159599999971, 33.2800741 ] } },
{ "type": "Feature", "properties": { "内容": "ディサービス華【通所介護】佐賀市久保泉町大字川久保２１２０番地７", "url": "https://www.kaigokensaku.mhlw.go.jp/41/index.php?action_kouhyou_detail_004_kani=true&JigyosyoCd=4170100855-00&ServiceCd=150&Type=search", "url2": "http://friendly-hana.com" }, "geometry": { "type": "Point", "coordinates": [ 130.31789260000005, 33.324116 ] } },
{ "type": "Feature", "properties": { "内容": "通所介護　　春庵【通所介護】佐賀市鍋島町蛎久１３１３番地", "url": "https://www.kaigokensaku.mhlw.go.jp/41/index.php?action_kouhyou_detail_004_kani=true&JigyosyoCd=4170101044-00&ServiceCd=150&Type=search", "url2": "http://www.2006shunan.sakura.ne.jp" }, "geometry": { "type": "Point", "coordinates": [ 130.280577900000026, 33.2879155 ] } },
{ "type": "Feature", "properties": { "内容": "通所介護事業所　オリーブ【通所介護】佐賀県佐賀市鍋島町蛎久１０7有料老人ホーム　青空", "url": "https://www.kaigokensaku.mhlw.go.jp/41/index.php?action_kouhyou_detail_004_kani=true&JigyosyoCd=4170101051-00&ServiceCd=150&Type=search", "url2": null }, "geometry": { "type": "Point", "coordinates": [ 130.280224286508172, 33.279967569078089 ] } },
{ "type": "Feature", "properties": { "内容": "ケアパートナー佐賀【通所介護】佐賀県佐賀市兵庫北３丁目１０番２９号フレアルーチェ１Ｆ", "url": "https://www.kaigokensaku.mhlw.go.jp/41/index.php?action_kouhyou_detail_004_kani=true&JigyosyoCd=4170101424-00&ServiceCd=150&Type=search", "url2": "http://www.care-partner.com/" }, "geometry": { "type": "Point", "coordinates": [ 130.305142805032375, 33.271137307304208 ] } },
{ "type": "Feature", "properties": { "内容": "デイサービス　かわそえ【通所介護】佐賀市川副町南里３６７－１有料老人ホーム　かわそえ", "url": "https://www.kaigokensaku.mhlw.go.jp/41/index.php?action_kouhyou_detail_004_kani=true&JigyosyoCd=4170101499-00&ServiceCd=150&Type=search", "url2": "http://paradis-care.jp/" }, "geometry": { "type": "Point", "coordinates": [ 130.312352, 33.2122206 ] } },
{ "type": "Feature", "properties": { "内容": "きんりゅうケアセンター桂寿苑　通所介護【通所介護】金立町大字千布４０８８－１", "url": "https://www.kaigokensaku.mhlw.go.jp/41/index.php?action_kouhyou_detail_004_kani=true&JigyosyoCd=4170101507-00&ServiceCd=150&Type=search", "url2": "http://www.ryouyuukai.jp" }, "geometry": { "type": "Point", "coordinates": [ 130.297306899999967, 33.2981177 ] } },
{ "type": "Feature", "properties": { "内容": "デイサービス　クローバー【通所介護】佐賀市高木瀬町大字長瀬１２４０番地１", "url": "https://www.kaigokensaku.mhlw.go.jp/41/index.php?action_kouhyou_detail_004_kani=true&JigyosyoCd=4170101606-00&ServiceCd=150&Type=search", "url2": null }, "geometry": { "type": "Point", "coordinates": [ 130.282502600000043, 33.2931873 ] } },
{ "type": "Feature", "properties": { "内容": "デイサービス　円花【通所介護】佐賀市北川副町大字光法943-6", "url": "https://www.kaigokensaku.mhlw.go.jp/41/index.php?action_kouhyou_detail_004_kani=true&JigyosyoCd=4170101689-00&ServiceCd=150&Type=search", "url2": "http://paradis-care.jp/" }, "geometry": { "type": "Point", "coordinates": [ 130.331433619790658, 33.244336862197549 ] } },
{ "type": "Feature", "properties": { "内容": "デイサービス　東与賀【通所介護】佐賀市東与賀町大字飯盛2-5", "url": "https://www.kaigokensaku.mhlw.go.jp/41/index.php?action_kouhyou_detail_004_kani=true&JigyosyoCd=4170101721-00&ServiceCd=150&Type=search", "url2": null }, "geometry": { "type": "Point", "coordinates": [ 130.282777099999947, 33.2228828 ] } },
{ "type": "Feature", "properties": { "内容": "リーガルデイサービスセンター【通所介護】佐賀県佐賀市大和町池上1894－1", "url": "https://www.kaigokensaku.mhlw.go.jp/41/index.php?action_kouhyou_detail_004_kani=true&JigyosyoCd=4170101887-00&ServiceCd=150&Type=search", "url2": "http://hyu-mu.jp/" }, "geometry": { "type": "Point", "coordinates": [ 130.250168600000052, 33.2910842 ] } },
{ "type": "Feature", "properties": { "内容": "デイサービスセンター　わいわい【通所介護】佐賀市金立町大字金立799", "url": "https://www.kaigokensaku.mhlw.go.jp/41/index.php?action_kouhyou_detail_004_kani=true&JigyosyoCd=4170101895-00&ServiceCd=150&Type=search", "url2": "https://sakou21.jp/" }, "geometry": { "type": "Point", "coordinates": [ 130.303496645785572, 33.324369454672194 ] } },
{ "type": "Feature", "properties": { "内容": "デイサービスセンターひだまり【通所介護】佐賀市金立町千布3898-6有料老人ホーム　ひだまり", "url": "https://www.kaigokensaku.mhlw.go.jp/41/index.php?action_kouhyou_detail_004_kani=true&JigyosyoCd=4170101929-00&ServiceCd=150&Type=search", "url2": "hidamari-saga.com" }, "geometry": { "type": "Point", "coordinates": [ 130.29753688272487, 33.300553887141014 ] } },
{ "type": "Feature", "properties": { "内容": "デイサービスセンター　シニアライフ佐賀【通所介護】佐賀県佐賀市高木瀬町大字長瀬1245番地1有料老人ホームシニアライフ佐賀", "url": "https://www.kaigokensaku.mhlw.go.jp/41/index.php?action_kouhyou_detail_004_kani=true&JigyosyoCd=4170101960-00&ServiceCd=150&Type=search", "url2": "sagakita.com" }, "geometry": { "type": "Point", "coordinates": [ 130.282511, 33.2923429 ] } },
{ "type": "Feature", "properties": { "内容": "デイサービスきらり【通所介護】佐賀県佐賀市川副町南里３４０－３", "url": "https://www.kaigokensaku.mhlw.go.jp/41/index.php?action_kouhyou_detail_004_kani=true&JigyosyoCd=4170101986-00&ServiceCd=150&Type=search", "url2": null }, "geometry": { "type": "Point", "coordinates": [ 130.31417005277865, 33.211876535567249 ] } },
{ "type": "Feature", "properties": { "内容": "ディサービスセンターてんゆう【通所介護】佐賀市天祐一丁目6番23-2シルバーランド天祐", "url": "https://www.kaigokensaku.mhlw.go.jp/41/index.php?action_kouhyou_detail_004_kani=true&JigyosyoCd=4170102042-00&ServiceCd=150&Type=search", "url2": null }, "geometry": { "type": "Point", "coordinates": [ 130.28194893421167, 33.257637827516398 ] } },
{ "type": "Feature", "properties": { "内容": "デイサービスセンター　イコロの家　昇開橋【通所介護】佐賀市諸富町大字徳富19-1", "url": "https://www.kaigokensaku.mhlw.go.jp/41/index.php?action_kouhyou_detail_004_kani=true&JigyosyoCd=4170102174-00&ServiceCd=150&Type=search", "url2": "http://www.souseikai.or.jp/" }, "geometry": { "type": "Point", "coordinates": [ 130.364785500000039, 33.218468 ] } },
{ "type": "Feature", "properties": { "内容": "デイサービス　ケアポート晴寿【通所介護】佐賀県佐賀市高木瀬町東高木1170番", "url": "https://www.kaigokensaku.mhlw.go.jp/41/index.php?action_kouhyou_detail_004_kani=true&JigyosyoCd=4170101473-00&ServiceCd=150&Type=search", "url2": "http://www.seijyukai.com/" }, "geometry": { "type": "Point", "coordinates": [ 130.299782, 33.287116 ] } },
{ "type": "Feature", "properties": { "内容": "デイサービスセンターきりん【通所介護】佐賀市久保泉町大字上和泉2232-1きりんアパートメント", "url": "https://www.kaigokensaku.mhlw.go.jp/41/index.php?action_kouhyou_detail_004_kani=true&JigyosyoCd=4170102208-00&ServiceCd=150&Type=search", "url2": "http://kirin-saga.or.jp/" }, "geometry": { "type": "Point", "coordinates": [ 130.316296599999987, 33.3043622 ] } },
{ "type": "Feature", "properties": { "内容": "デイサービス花みずき【通所介護】佐賀市巨勢町牛島３９７－１１住宅型有料老人ホーム花みずき", "url": "https://www.kaigokensaku.mhlw.go.jp/41/index.php?action_kouhyou_detail_004_kani=true&JigyosyoCd=4170102240-00&ServiceCd=150&Type=search", "url2": "www.nakao-c.com/hanamizuki/" }, "geometry": { "type": "Point", "coordinates": [ 130.318623, 33.2537501 ] } },
{ "type": "Feature", "properties": { "内容": "デイサービスセンターいこいの里巨勢【通所介護】巨勢町大字牛島681-1", "url": "https://www.kaigokensaku.mhlw.go.jp/41/index.php?action_kouhyou_detail_004_kani=true&JigyosyoCd=4170102307-00&ServiceCd=150&Type=search", "url2": "http://ikoino-sato.com" }, "geometry": { "type": "Point", "coordinates": [ 130.318832647221342, 33.250231191996129 ] } },
{ "type": "Feature", "properties": { "内容": "デイサービス縁結び【通所介護】佐賀県佐賀市伊勢町11番9号", "url": "https://www.kaigokensaku.mhlw.go.jp/41/index.php?action_kouhyou_detail_004_kani=true&JigyosyoCd=4170102356-00&ServiceCd=150&Type=search", "url2": "http://www.osewa.jp/" }, "geometry": { "type": "Point", "coordinates": [ 130.291581742327907, 33.252536358926811 ] } },
{ "type": "Feature", "properties": { "内容": "デイサービスセンターひだまり久保田館【通所介護】佐賀市久保田町大字徳万2117-2有料老人ホームひだまり久保田館", "url": "https://www.kaigokensaku.mhlw.go.jp/41/index.php?action_kouhyou_detail_004_kani=true&JigyosyoCd=4170102398-00&ServiceCd=150&Type=search", "url2": "https://hiamari-saga.com/" }, "geometry": { "type": "Point", "coordinates": [ 130.237714778959656, 33.248685566386243 ] } },
{ "type": "Feature", "properties": { "内容": "デイサービスたかハウス昭栄【通所介護】佐賀市長瀬町5番地54号", "url": "https://www.kaigokensaku.mhlw.go.jp/41/index.php?action_kouhyou_detail_004_kani=true&JigyosyoCd=4170102422-00&ServiceCd=150&Type=search", "url2": "https://fukushi-net-service.com/" }, "geometry": { "type": "Point", "coordinates": [ 130.281518, 33.2488356 ] } },
{ "type": "Feature", "properties": { "内容": "通所介護事業所　SINみらい【通所介護】佐賀県佐賀市本庄町大字末次４2－１住宅型有料老人ホームSINみらい", "url": "https://www.kaigokensaku.mhlw.go.jp/41/index.php?action_kouhyou_detail_004_kani=true&JigyosyoCd=4170102612-00&ServiceCd=150&Type=search", "url2": "http://www.sincere.or.jp" }, "geometry": { "type": "Point", "coordinates": [ 130.3023412, 33.2340028 ] } },
{ "type": "Feature", "properties": { "内容": "デイサービスセンター佐賀【通所介護】佐賀県佐賀市高木瀬町大字長瀬1156-1デイサービスセンター佐賀", "url": "https://www.kaigokensaku.mhlw.go.jp/41/index.php?action_kouhyou_detail_004_kani=true&JigyosyoCd=4170102588-00&ServiceCd=150&Type=search", "url2": null }, "geometry": { "type": "Point", "coordinates": [ 130.284636317968761, 33.292732807431342 ] } },
{ "type": "Feature", "properties": { "内容": "リハビリデイ　花みずき【通所介護】佐賀県佐賀市本庄町大字袋256-1ファインビューＳＡＧＡ　1階", "url": "https://www.kaigokensaku.mhlw.go.jp/41/index.php?action_kouhyou_detail_004_kani=true&JigyosyoCd=4170102786-00&ServiceCd=150&Type=search", "url2": "http://www.nakao-c.com/hanamizuki/" }, "geometry": { "type": "Point", "coordinates": [ 130.308456570348483, 33.239230088628169 ] } },
{ "type": "Feature", "properties": { "内容": "ディサービスたま【通所介護】佐賀県佐賀市北川副町大字光法735-1番地", "url": "https://www.kaigokensaku.mhlw.go.jp/41/index.php?action_kouhyou_detail_004_kani=true&JigyosyoCd=4170102802-00&ServiceCd=150&Type=search", "url2": "https://dansi.jimdosite.com/" }, "geometry": { "type": "Point", "coordinates": [ 130.334798205557263, 33.246419163473369 ] } },
{ "type": "Feature", "properties": { "内容": "デイサービス　カームの里【通所介護】佐賀県佐賀市富士町大字上熊川337番地4", "url": "https://www.kaigokensaku.mhlw.go.jp/41/index.php?action_kouhyou_detail_004_kani=true&JigyosyoCd=4170102935-00&ServiceCd=150&Type=search", "url2": null }, "geometry": { "type": "Point", "coordinates": [ 130.235593, 33.3630806 ] } },
{ "type": "Feature", "properties": { "内容": "デイサービスＳｏｌａ【通所介護】佐賀県佐賀市久保泉町大字川久保字赤井手２２２５番地１", "url": "https://www.kaigokensaku.mhlw.go.jp/41/index.php?action_kouhyou_detail_004_kani=true&JigyosyoCd=4170103008-00&ServiceCd=150&Type=search", "url2": null }, "geometry": { "type": "Point", "coordinates": [ 130.315065868576994, 33.324134853796402 ] } },
{ "type": "Feature", "properties": { "内容": "デイサービス　かがやき【通所介護】佐賀県高木瀬町大字長瀬1910-1", "url": "https://www.kaigokensaku.mhlw.go.jp/41/index.php?action_kouhyou_detail_004_kani=true&JigyosyoCd=4170103172-00&ServiceCd=150&Type=search", "url2": null }, "geometry": { "type": "Point", "coordinates": [ 130.2922686, 33.2931072 ] } },
{ "type": "Feature", "properties": { "内容": "通所介護事業所　SINみらい大輪【通所介護】佐賀県佐賀市本庄町末次41番地1", "url": "https://www.kaigokensaku.mhlw.go.jp/41/index.php?action_kouhyou_detail_004_kani=true&JigyosyoCd=4170103214-00&ServiceCd=150&Type=search", "url2": "http://sincere.or.jp" }, "geometry": { "type": "Point", "coordinates": [ 130.302271018385341, 33.234341139890269 ] } },
{ "type": "Feature", "properties": { "内容": "デイサービスしあわせ工房神園【通所介護】神園四丁目7番3号", "url": "https://www.kaigokensaku.mhlw.go.jp/41/index.php?action_kouhyou_detail_004_kani=true&JigyosyoCd=4170103255-00&ServiceCd=150&Type=search", "url2": null }, "geometry": { "type": "Point", "coordinates": [ 130.282019200000036, 33.2700568 ] } },
{ "type": "Feature", "properties": { "内容": "デイサービス　ディーフェスタ東与賀【通所介護】東与賀町飯盛224-1ディーフェスタ東与賀", "url": "https://www.kaigokensaku.mhlw.go.jp/41/index.php?action_kouhyou_detail_004_kani=true&JigyosyoCd=4170103370-00&ServiceCd=150&Type=search", "url2": "https://www.daiwaliving-care.co.jp/" }, "geometry": { "type": "Point", "coordinates": [ 130.285093499999988, 33.2137778 ] } },
{ "type": "Feature", "properties": { "内容": "シオンの園デイサービスはるかぜ【通所介護】佐賀県佐賀市大和町久池井2584-1", "url": "https://www.kaigokensaku.mhlw.go.jp/41/index.php?action_kouhyou_detail_004_kani=true&JigyosyoCd=4170103487-00&ServiceCd=150&Type=search", "url2": null }, "geometry": { "type": "Point", "coordinates": [ 130.276922949186343, 33.316111615914899 ] } },
{ "type": "Feature", "properties": { "内容": "デイGym花みずき【通所介護】佐賀県佐賀市本庄町本庄3-1", "url": "https://www.kaigokensaku.mhlw.go.jp/41/index.php?action_kouhyou_detail_004_kani=true&JigyosyoCd=4170103727-00&ServiceCd=150&Type=search", "url2": "https://kanpo-jp.net/hanamizuki/" }, "geometry": { "type": "Point", "coordinates": [ 130.297335, 33.2387615 ] } },
{ "type": "Feature", "properties": { "内容": "デイサービスあいあい【通所介護】佐賀県佐賀市諸富町大字山領1148番地1有料老人ホーム＆デイサービス　あいあい", "url": "https://www.kaigokensaku.mhlw.go.jp/41/index.php?action_kouhyou_detail_004_kani=true&JigyosyoCd=4170103776-00&ServiceCd=150&Type=search", "url2": null }, "geometry": { "type": "Point", "coordinates": [ 130.3341017, 33.2311481 ] } },
{ "type": "Feature", "properties": { "内容": "ロザリオの園　デイサービスセンター【通所介護】佐賀市大和町大字久池井1386-2", "url": "https://www.kaigokensaku.mhlw.go.jp/41/index.php?action_kouhyou_detail_004_kani=true&JigyosyoCd=4171000013-00&ServiceCd=150&Type=search", "url2": "http://www.rosaryo.jp/" }, "geometry": { "type": "Point", "coordinates": [ 130.288170700000023, 33.3257233 ] } },
{ "type": "Feature", "properties": { "内容": "南鴎荘デイサービスセンター【通所介護】佐賀市久保田町大字久富３４５９番地２", "url": "https://www.kaigokensaku.mhlw.go.jp/41/index.php?action_kouhyou_detail_004_kani=true&JigyosyoCd=4171000039-00&ServiceCd=150&Type=search", "url2": "https://www.nanousou.com" }, "geometry": { "type": "Point", "coordinates": [ 130.238202600000022, 33.2195266 ] } },
{ "type": "Feature", "properties": { "内容": "なごみ荘デイサービスセンター【通所介護】佐賀県佐賀市富士町大字小副川562", "url": "https://www.kaigokensaku.mhlw.go.jp/41/index.php?action_kouhyou_detail_004_kani=true&JigyosyoCd=4171000047-00&ServiceCd=150&Type=search", "url2": "https://www.kenjyu-nagomi.jp" }, "geometry": { "type": "Point", "coordinates": [ 130.243953733729512, 33.365088086419718 ] } },
{ "type": "Feature", "properties": { "内容": "デイサービスセンターけやき荘【通所介護】佐賀市川副町大字福富８２８－１", "url": "https://www.kaigokensaku.mhlw.go.jp/41/index.php?action_kouhyou_detail_004_kani=true&JigyosyoCd=4171000054-00&ServiceCd=150&Type=search", "url2": "http://www.keyakisou.or.jp/" }, "geometry": { "type": "Point", "coordinates": [ 130.321751, 33.2113929 ] } },
{ "type": "Feature", "properties": { "内容": "福寿園デイサービスセンター【通所介護】佐賀県佐賀市諸富町大字山領２１０番地４", "url": "https://www.kaigokensaku.mhlw.go.jp/41/index.php?action_kouhyou_detail_004_kani=true&JigyosyoCd=4171000062-00&ServiceCd=150&Type=search", "url2": "https://fukujukaisaga.com/" }, "geometry": { "type": "Point", "coordinates": [ 130.3471154, 33.2228311 ] } },
{ "type": "Feature", "properties": { "内容": "デイサービス　もみじ【通所介護】佐賀県佐賀市川副町大字早津江津370-1", "url": "https://www.kaigokensaku.mhlw.go.jp/41/index.php?action_kouhyou_detail_004_kani=true&JigyosyoCd=4171000237-00&ServiceCd=150&Type=search", "url2": "http://www." }, "geometry": { "type": "Point", "coordinates": [ 130.338005100000032, 33.2071937 ] } },
{ "type": "Feature", "properties": { "内容": "デイホーム家族【通所介護】佐賀県佐賀市久保田町大字徳万2489-3", "url": "https://www.kaigokensaku.mhlw.go.jp/41/index.php?action_kouhyou_detail_004_kani=true&JigyosyoCd=4171000278-00&ServiceCd=150&Type=search", "url2": null }, "geometry": { "type": "Point", "coordinates": [ 130.239142476868437, 33.239135770730996 ] } },
{ "type": "Feature", "properties": { "内容": "デイサービスゆうゆう【通所介護】佐賀市大和町大字久池井１０２０－７", "url": "https://www.kaigokensaku.mhlw.go.jp/41/index.php?action_kouhyou_detail_004_kani=true&JigyosyoCd=4171000286-00&ServiceCd=150&Type=search", "url2": null }, "geometry": { "type": "Point", "coordinates": [ 130.293745477523771, 33.3196037647417 ] } },
{ "type": "Feature", "properties": { "内容": "デイサービスよからいふ【通所介護】川副町大字犬井道８９２番地１", "url": "https://www.kaigokensaku.mhlw.go.jp/41/index.php?action_kouhyou_detail_004_kani=true&JigyosyoCd=4170103149-00&ServiceCd=150&Type=search", "url2": null }, "geometry": { "type": "Point", "coordinates": [ 130.316393903704778, 33.188197445911491 ] } },
{ "type": "Feature", "properties": { "内容": "デイサービスしあわせ工房　大和【通所介護】大和町大字尼寺3227-1サービス付き高齢者向け住宅　しあわせ工房やまと館", "url": "https://www.kaigokensaku.mhlw.go.jp/41/index.php?action_kouhyou_detail_004_kani=true&JigyosyoCd=4170103834-00&ServiceCd=150&Type=search", "url2": null }, "geometry": { "type": "Point", "coordinates": [ 130.275488899999971, 33.302533899999986 ] } },
{ "type": "Feature", "properties": { "内容": "デイサービス美則【通所介護】佐賀市若宮1-17-65", "url": "https://www.kaigokensaku.mhlw.go.jp/41/index.php?action_kouhyou_detail_004_kani=true&JigyosyoCd=4170100558-00&ServiceCd=150&Type=search", "url2": null }, "geometry": { "type": "Point", "coordinates": [ 130.290004364205316, 33.27230108638377 ] } },
{ "type": "Feature", "properties": { "内容": "ニチイケアセンター佐賀みなみ【通所介護】佐賀県佐賀市本庄町袋142-1", "url": "https://www.kaigokensaku.mhlw.go.jp/41/index.php?action_kouhyou_detail_004_kani=true&JigyosyoCd=4170100772-00&ServiceCd=150&Type=search", "url2": "http://www.nichiigakkan.co.jp" }, "geometry": { "type": "Point", "coordinates": [ 130.303272, 33.2377178 ] } },
{ "type": "Feature", "properties": { "内容": "デイサービス　サンライズ【通所介護】佐賀市神野東３－３－６", "url": "https://www.kaigokensaku.mhlw.go.jp/41/index.php?action_kouhyou_detail_004_kani=true&JigyosyoCd=4170100848-00&ServiceCd=150&Type=search", "url2": null }, "geometry": { "type": "Point", "coordinates": [ 130.295324599999958, 33.2675148 ] } },
{ "type": "Feature", "properties": { "内容": "デイサービス　ケアビレッジ夢咲【通所介護】佐賀県佐賀市兵庫北六丁目2-23", "url": "https://www.kaigokensaku.mhlw.go.jp/41/index.php?action_kouhyou_detail_004_kani=true&JigyosyoCd=4170101309-00&ServiceCd=150&Type=search", "url2": null }, "geometry": { "type": "Point", "coordinates": [ 130.311903499999971, 33.2733454 ] } },
{ "type": "Feature", "properties": { "内容": "デイサービス　きらめき【通所介護】神野東４－８－１５", "url": "https://www.kaigokensaku.mhlw.go.jp/41/index.php?action_kouhyou_detail_004_kani=true&JigyosyoCd=4170101713-00&ServiceCd=150&Type=search", "url2": null }, "geometry": { "type": "Point", "coordinates": [ 130.299002100000052, 33.2686426 ] } },
{ "type": "Feature", "properties": { "内容": "デイサービス　白百合【通所介護】佐賀市川副町大字南里１１９７番地２デイサービス白百合", "url": "https://www.kaigokensaku.mhlw.go.jp/41/index.php?action_kouhyou_detail_004_kani=true&JigyosyoCd=4170101846-00&ServiceCd=150&Type=search", "url2": "http://www6.ocn.ne.jp/~index.html" }, "geometry": { "type": "Point", "coordinates": [ 130.312910200000033, 33.2201948 ] } },
{ "type": "Feature", "properties": { "内容": "デイサービスながせ【通所介護】佐賀県佐賀市長瀬町5-21", "url": "https://www.kaigokensaku.mhlw.go.jp/41/index.php?action_kouhyou_detail_004_kani=true&JigyosyoCd=4170102182-00&ServiceCd=150&Type=search", "url2": "nagase37-7500" }, "geometry": { "type": "Point", "coordinates": [ 130.28312619999997, 33.2498105 ] } },
{ "type": "Feature", "properties": { "内容": "ﾆﾁｲｹｱｾﾝﾀｰ久保田【通所介護】佐賀市久保田町大字徳万345番地6", "url": "https://www.kaigokensaku.mhlw.go.jp/41/index.php?action_kouhyou_detail_004_kani=true&JigyosyoCd=4170102323-00&ServiceCd=150&Type=search", "url2": "ｈｓｔP57@nichiigakkan.co.jp" }, "geometry": { "type": "Point", "coordinates": [ 130.238851899999986, 33.2472039 ] } },
{ "type": "Feature", "properties": { "内容": "デイサービス　ふくろ【通所介護】佐賀県佐賀市本庄町大字袋１６７－２介護複合施設ふくろ", "url": "https://www.kaigokensaku.mhlw.go.jp/41/index.php?action_kouhyou_detail_004_kani=true&JigyosyoCd=4170102448-00&ServiceCd=150&Type=search", "url2": "http://www.fukuro-care.co.jp" }, "geometry": { "type": "Point", "coordinates": [ 130.305402903093182, 33.237711201035154 ] } },
{ "type": "Feature", "properties": { "内容": "デイサービスあいさぽ【通所介護】久保田町大字新田3427番地3", "url": "https://www.kaigokensaku.mhlw.go.jp/41/index.php?action_kouhyou_detail_004_kani=true&JigyosyoCd=4170102489-00&ServiceCd=150&Type=search", "url2": null }, "geometry": { "type": "Point", "coordinates": [ 130.24911623743435, 33.225165775227211 ] } },
{ "type": "Feature", "properties": { "内容": "デイサービス　アイケア佐賀【通所介護】佐賀県佐賀市木原1丁目24番39号", "url": "https://www.kaigokensaku.mhlw.go.jp/41/index.php?action_kouhyou_detail_004_kani=true&JigyosyoCd=4170102547-00&ServiceCd=150&Type=search", "url2": "http://www.ikk-grp.jp" }, "geometry": { "type": "Point", "coordinates": [ 130.316202583467089, 33.243530801245981 ] } },
{ "type": "Feature", "properties": { "内容": "デイサービス　あかね【通所介護】佐賀県佐賀市川副町大字南里1197-8", "url": "https://www.kaigokensaku.mhlw.go.jp/41/index.php?action_kouhyou_detail_004_kani=true&JigyosyoCd=4170102646-00&ServiceCd=150&Type=search", "url2": null }, "geometry": { "type": "Point", "coordinates": [ 130.312910200000033, 33.2201948 ] } },
{ "type": "Feature", "properties": { "内容": "優雅縁デイサービス【通所介護】佐賀県佐賀市巨勢町大字牛島４０２番地７", "url": "https://www.kaigokensaku.mhlw.go.jp/41/index.php?action_kouhyou_detail_004_kani=true&JigyosyoCd=4170102737-00&ServiceCd=150&Type=search", "url2": "www.kosai-g.com" }, "geometry": { "type": "Point", "coordinates": [ 130.319390950926106, 33.254069956554872 ] } },
{ "type": "Feature", "properties": { "内容": "デイサービス　きらめき新郷【通所介護】佐賀県佐賀市新郷本町23番地21号", "url": "https://www.kaigokensaku.mhlw.go.jp/41/index.php?action_kouhyou_detail_004_kani=true&JigyosyoCd=4170103123-00&ServiceCd=150&Type=search", "url2": "s-kirameki@villagehills.jp" }, "geometry": { "type": "Point", "coordinates": [ 130.3224215, 33.2330118 ] } },
{ "type": "Feature", "properties": { "内容": "デイサービス陽なたぼっこ【通所介護】佐賀県佐賀市高木瀬町長瀬1192-3", "url": "https://www.kaigokensaku.mhlw.go.jp/41/index.php?action_kouhyou_detail_004_kani=true&JigyosyoCd=4170103271-00&ServiceCd=150&Type=search", "url2": "https://www.c-pro.jp" }, "geometry": { "type": "Point", "coordinates": [ 130.2864995, 33.2939513 ] } },
{ "type": "Feature", "properties": { "内容": "デイサービスセンターはるの木南佐賀館【通所介護】佐賀県佐賀市南佐賀一丁目21-8", "url": "https://www.kaigokensaku.mhlw.go.jp/41/index.php?action_kouhyou_detail_004_kani=true&JigyosyoCd=4170103750-00&ServiceCd=150&Type=search", "url2": "https://lien-saga.com" }, "geometry": { "type": "Point", "coordinates": [ 130.3156818, 33.2400723 ] } },
{ "type": "Feature", "properties": { "内容": "デイサービス美楽【通所介護】鍋島町大字八戸3085番地1", "url": "https://www.kaigokensaku.mhlw.go.jp/41/index.php?action_kouhyou_detail_004_kani=true&JigyosyoCd=4170103792-00&ServiceCd=150&Type=search", "url2": "care-bank.co.jp" }, "geometry": { "type": "Point", "coordinates": [ 130.2633023, 33.2568729 ] } },
{ "type": "Feature", "properties": { "内容": "デイサービス　ひかりの里【通所介護】佐賀県佐賀市川副町鹿江865-7", "url": "https://www.kaigokensaku.mhlw.go.jp/41/index.php?action_kouhyou_detail_004_kani=true&JigyosyoCd=4171000245-00&ServiceCd=150&Type=search", "url2": null }, "geometry": { "type": "Point", "coordinates": [ 130.316168599999969, 33.1911506 ] } },
{ "type": "Feature", "properties": { "内容": "虹の松原百花苑【通所介護】佐賀県唐津市浜玉町浜崎1799-57", "url": "https://www.kaigokensaku.mhlw.go.jp/41/index.php?action_kouhyou_detail_004_kani=true&JigyosyoCd=4170201497-00&ServiceCd=150&Type=search", "url2": "https://kagayaki-care.co.jp/nijinomatsubara/" }, "geometry": { "type": "Point", "coordinates": [ 130.033073133031053, 33.449418251407323 ] } },
{ "type": "Feature", "properties": { "内容": "デイサービス　スマイル【通所介護】原82-1", "url": "https://www.kaigokensaku.mhlw.go.jp/41/index.php?action_kouhyou_detail_004_kani=true&JigyosyoCd=4170201109-00&ServiceCd=150&Type=search", "url2": null }, "geometry": { "type": "Point", "coordinates": [ 130.006852682178504, 33.418848495605125 ] } },
{ "type": "Feature", "properties": { "内容": "デイサービス山茶花【通所介護】佐賀県唐津市鏡新開98番地", "url": "https://www.kaigokensaku.mhlw.go.jp/41/index.php?action_kouhyou_detail_004_kani=true&JigyosyoCd=4170201117-00&ServiceCd=150&Type=search", "url2": null }, "geometry": { "type": "Point", "coordinates": [ 130.00067839999997, 33.436482 ] } },
{ "type": "Feature", "properties": { "内容": "デイサービスセンター　こはる園【通所介護】佐賀県唐津市町田1丁目2398-2", "url": "https://www.kaigokensaku.mhlw.go.jp/41/index.php?action_kouhyou_detail_004_kani=true&JigyosyoCd=4110212885-00&ServiceCd=150&Type=search", "url2": "https://genseikai.com" }, "geometry": { "type": "Point", "coordinates": [ 129.9654114, 33.4427272 ] } },
{ "type": "Feature", "properties": { "内容": "デイサービス　アイケア東唐津【通所介護】佐賀県唐津市松南町3番55号アイケア東唐津", "url": "https://www.kaigokensaku.mhlw.go.jp/41/index.php?action_kouhyou_detail_004_kani=true&JigyosyoCd=4170201463-00&ServiceCd=150&Type=search", "url2": "http://icare-grp.jp/" }, "geometry": { "type": "Point", "coordinates": [ 129.997720804374808, 33.438991264703326 ] } },
{ "type": "Feature", "properties": { "内容": "デイサービスわがや【通所介護】佐賀県唐津市浜玉町渕上1344-1", "url": "https://www.kaigokensaku.mhlw.go.jp/41/index.php?action_kouhyou_detail_004_kani=true&JigyosyoCd=4170201687-00&ServiceCd=150&Type=search", "url2": "https://www.keahouseminami.com" }, "geometry": { "type": "Point", "coordinates": [ 130.049606089338454, 33.453103924102592 ] } },
{ "type": "Feature", "properties": { "内容": "栄荘デイサービス【通所介護】唐津市栄町2588-19", "url": "https://www.kaigokensaku.mhlw.go.jp/41/index.php?action_kouhyou_detail_004_kani=true&JigyosyoCd=4170200028-00&ServiceCd=150&Type=search", "url2": "http//k-hukushikai.jp/sakae-gaiyou.html" }, "geometry": { "type": "Point", "coordinates": [ 129.976963500000011, 33.4493601 ] } },
{ "type": "Feature", "properties": { "内容": "ニチイケアセンター唐津【通所介護】鏡新開9", "url": "https://www.kaigokensaku.mhlw.go.jp/41/index.php?action_kouhyou_detail_004_kani=true&JigyosyoCd=4170200077-00&ServiceCd=150&Type=search", "url2": "http://www.nichiigakkan.co.jp" }, "geometry": { "type": "Point", "coordinates": [ 129.996628800000053, 33.4372317 ] } },
{ "type": "Feature", "properties": { "内容": "デイサービス　福寿草【通所介護】佐賀県唐津市呉服町１８００番地１", "url": "https://www.kaigokensaku.mhlw.go.jp/41/index.php?action_kouhyou_detail_004_kani=true&JigyosyoCd=4170200176-00&ServiceCd=150&Type=search", "url2": null }, "geometry": { "type": "Point", "coordinates": [ 129.968841800000064, 33.4477851 ] } },
{ "type": "Feature", "properties": { "内容": "済生会指定通所介護寿楽荘【通所介護】佐賀県唐津市西旗町7番1号", "url": "https://www.kaigokensaku.mhlw.go.jp/41/index.php?action_kouhyou_detail_004_kani=true&JigyosyoCd=4170200226-00&ServiceCd=150&Type=search", "url2": "http://www.jurakuso.com" }, "geometry": { "type": "Point", "coordinates": [ 129.962247700000034, 33.4552621 ] } },
{ "type": "Feature", "properties": { "内容": "デイサービスセンター　こころ【通所介護】佐賀県唐津市佐志101番地83", "url": "https://www.kaigokensaku.mhlw.go.jp/41/index.php?action_kouhyou_detail_004_kani=true&JigyosyoCd=4170200275-00&ServiceCd=150&Type=search", "url2": null }, "geometry": { "type": "Point", "coordinates": [ 129.941210100000035, 33.4536783 ] } },
{ "type": "Feature", "properties": { "内容": "デイサービス　あおば【通所介護】佐賀県唐津市和多田大土井６－５６", "url": "https://www.kaigokensaku.mhlw.go.jp/41/index.php?action_kouhyou_detail_004_kani=true&JigyosyoCd=4170200317-00&ServiceCd=150&Type=search", "url2": "http://www.day-aoba.com" }, "geometry": { "type": "Point", "coordinates": [ 129.9879545, 33.425602 ] } },
{ "type": "Feature", "properties": { "内容": "デイサービス　ひだまり　とうげ庵【通所介護】佐賀県唐津市山田4025-1", "url": "https://www.kaigokensaku.mhlw.go.jp/41/index.php?action_kouhyou_detail_004_kani=true&JigyosyoCd=4170200457-00&ServiceCd=150&Type=search", "url2": null }, "geometry": { "type": "Point", "coordinates": [ 129.945035800000028, 33.4084906 ] } },
{ "type": "Feature", "properties": { "内容": "デイサービス　はるか【通所介護】佐賀県唐津市竹木場字前田5012-1", "url": "https://www.kaigokensaku.mhlw.go.jp/41/index.php?action_kouhyou_detail_004_kani=true&JigyosyoCd=4170200564-00&ServiceCd=150&Type=search", "url2": "http://haruka-himawari.jp/" }, "geometry": { "type": "Point", "coordinates": [ 129.92105903566528, 33.41931073303185 ] } },
{ "type": "Feature", "properties": { "内容": "デイサービスウェルビー唐津【通所介護】唐津市浜玉町大字浜崎字長田297番地8", "url": "https://www.kaigokensaku.mhlw.go.jp/41/index.php?action_kouhyou_detail_004_kani=true&JigyosyoCd=4170200614-00&ServiceCd=150&Type=search", "url2": "http://www." }, "geometry": { "type": "Point", "coordinates": [ 129.968133500000022, 33.4501738 ] } },
{ "type": "Feature", "properties": { "内容": "デイサービス安寿【通所介護】佐賀県唐津市鎮西町高野534-2", "url": "https://www.kaigokensaku.mhlw.go.jp/41/index.php?action_kouhyou_detail_004_kani=true&JigyosyoCd=4170200721-00&ServiceCd=150&Type=search", "url2": "https://sites.google.com/view/heartfeel/home" }, "geometry": { "type": "Point", "coordinates": [ 129.917335900000012, 33.4902382 ] } },
{ "type": "Feature", "properties": { "内容": "デイサービスセンターきたはた【通所介護】唐津市北波多徳須恵1201-1", "url": "https://www.kaigokensaku.mhlw.go.jp/41/index.php?action_kouhyou_detail_004_kani=true&JigyosyoCd=4170200796-00&ServiceCd=150&Type=search", "url2": "http://otakaro.wixsite.com/takachihoen" }, "geometry": { "type": "Point", "coordinates": [ 129.9467998, 33.3735265 ] } },
{ "type": "Feature", "properties": { "内容": "デイサービス　ひまわり【通所介護】佐賀県唐津市竹木場字前田5012番地1", "url": "https://www.kaigokensaku.mhlw.go.jp/41/index.php?action_kouhyou_detail_004_kani=true&JigyosyoCd=4170200838-00&ServiceCd=150&Type=search", "url2": "http//haruka-himawari.jp/i/" }, "geometry": { "type": "Point", "coordinates": [ 129.919289700000036, 33.4223199 ] } },
{ "type": "Feature", "properties": { "内容": "指定通所介護施設　みらい【通所介護】浜玉町横田下931", "url": "https://www.kaigokensaku.mhlw.go.jp/41/index.php?action_kouhyou_detail_004_kani=true&JigyosyoCd=4170200846-00&ServiceCd=150&Type=search", "url2": null }, "geometry": { "type": "Point", "coordinates": [ 130.034428199999979, 33.4354032 ] } },
{ "type": "Feature", "properties": { "内容": "デイサービス運動しましょ運動しましょ神田【通所介護】佐賀県唐津市神田2075番地1", "url": "https://www.kaigokensaku.mhlw.go.jp/41/index.php?action_kouhyou_detail_004_kani=true&JigyosyoCd=4170200887-00&ServiceCd=150&Type=search", "url2": "http://www.osewa.co.jp" }, "geometry": { "type": "Point", "coordinates": [ 129.957842366270455, 33.439234494202914 ] } },
{ "type": "Feature", "properties": { "内容": "ぽっかぽかハートケア東唐津【通所介護】唐津市鏡新開９５番地", "url": "https://www.kaigokensaku.mhlw.go.jp/41/index.php?action_kouhyou_detail_004_kani=true&JigyosyoCd=4170200929-00&ServiceCd=150&Type=search", "url2": null }, "geometry": { "type": "Point", "coordinates": [ 130.000697899999977, 33.4369209 ] } },
{ "type": "Feature", "properties": { "内容": "デイサービスのどか【通所介護】佐賀県唐津市浜玉町南山２２６０番地１", "url": "https://www.kaigokensaku.mhlw.go.jp/41/index.php?action_kouhyou_detail_004_kani=true&JigyosyoCd=4170200978-00&ServiceCd=150&Type=search", "url2": null }, "geometry": { "type": "Point", "coordinates": [ 130.062442908598285, 33.439862070748937 ] } },
{ "type": "Feature", "properties": { "内容": "デイサービス　花いちもんめ【通所介護】佐賀県唐津市竹木場字前田5010-1", "url": "https://www.kaigokensaku.mhlw.go.jp/41/index.php?action_kouhyou_detail_004_kani=true&JigyosyoCd=4170200994-00&ServiceCd=150&Type=search", "url2": "http://haruka-himawari.jp/i/" }, "geometry": { "type": "Point", "coordinates": [ 129.919289700000036, 33.4223199 ] } },
{ "type": "Feature", "properties": { "内容": "ぽっかぽか・ハートケア唐津【通所介護】唐津市北波多竹有２６４０－１", "url": "https://www.kaigokensaku.mhlw.go.jp/41/index.php?action_kouhyou_detail_004_kani=true&JigyosyoCd=4170201059-00&ServiceCd=150&Type=search", "url2": null }, "geometry": { "type": "Point", "coordinates": [ 129.9448969, 33.3826948 ] } },
{ "type": "Feature", "properties": { "内容": "デイサービス果寿園【通所介護】佐賀県唐津市厳木町うつぼ木１５７番地６４", "url": "https://www.kaigokensaku.mhlw.go.jp/41/index.php?action_kouhyou_detail_004_kani=true&JigyosyoCd=4170201067-00&ServiceCd=150&Type=search", "url2": "ｋａｊｙｕｅｎ＠ｖｃ．ｐｅｏｐｌｅ－ｉ．ｎｅ．ｊｐ" }, "geometry": { "type": "Point", "coordinates": [ 130.050635100000022, 33.3215428 ] } },
{ "type": "Feature", "properties": { "内容": "デイサービスセンター　いこいの里唐津【通所介護】唐津市和多田南先石7番15号いこいの里唐津", "url": "https://www.kaigokensaku.mhlw.go.jp/41/index.php?action_kouhyou_detail_004_kani=true&JigyosyoCd=4170201083-00&ServiceCd=150&Type=search", "url2": "http://ikoino-sato.com" }, "geometry": { "type": "Point", "coordinates": [ 129.984417096381094, 33.432723053342265 ] } },
{ "type": "Feature", "properties": { "内容": "みどりやまひゃっかえん【通所介護】相知町相知字緑山533-32", "url": "https://www.kaigokensaku.mhlw.go.jp/41/index.php?action_kouhyou_detail_004_kani=true&JigyosyoCd=4170201208-00&ServiceCd=150&Type=search", "url2": "https://www.kagayaki-care.co.jp/midoriyama/" }, "geometry": { "type": "Point", "coordinates": [ 130.021447098286473, 33.343677696162906 ] } },
{ "type": "Feature", "properties": { "内容": "ほのぼのデイサービス【通所介護】佐賀県唐津市相知町中山3780番地6", "url": "https://www.kaigokensaku.mhlw.go.jp/41/index.php?action_kouhyou_detail_004_kani=true&JigyosyoCd=4170201307-00&ServiceCd=150&Type=search", "url2": "http://web.people-i₋ne.jp/~sakureisou/" }, "geometry": { "type": "Point", "coordinates": [ 130.021391793779003, 33.349988299557197 ] } },
{ "type": "Feature", "properties": { "内容": "デイサービスすずらん【通所介護】佐賀県唐津市竹木場字前田5012番地13", "url": "https://www.kaigokensaku.mhlw.go.jp/41/index.php?action_kouhyou_detail_004_kani=true&JigyosyoCd=4170201364-00&ServiceCd=150&Type=search", "url2": "http://haruka-himawari.jp" }, "geometry": { "type": "Point", "coordinates": [ 129.921087522367884, 33.419433101850551 ] } },
{ "type": "Feature", "properties": { "内容": "宝寿荘デイサービス【通所介護】佐賀県唐津市呼子町殿ノ浦797-23", "url": "https://www.kaigokensaku.mhlw.go.jp/41/index.php?action_kouhyou_detail_004_kani=true&JigyosyoCd=4170201406-00&ServiceCd=150&Type=search", "url2": "ｋ-fukushikai.jp" }, "geometry": { "type": "Point", "coordinates": [ 129.889237200000025, 33.531855 ] } },
{ "type": "Feature", "properties": { "内容": "まちなかデイサービス【通所介護】佐賀県唐津市相知町相知1464番地4", "url": "https://www.kaigokensaku.mhlw.go.jp/41/index.php?action_kouhyou_detail_004_kani=true&JigyosyoCd=4170201422-00&ServiceCd=150&Type=search", "url2": null }, "geometry": { "type": "Point", "coordinates": [ 130.015981300000021, 33.347662 ] } },
{ "type": "Feature", "properties": { "内容": "デイサービスお茶しましょ虹の松原【通所介護】佐賀県唐津市鏡3769-102", "url": "https://www.kaigokensaku.mhlw.go.jp/41/index.php?action_kouhyou_detail_004_kani=true&JigyosyoCd=4170201521-00&ServiceCd=150&Type=search", "url2": "http://www.osewa.co.jp" }, "geometry": { "type": "Point", "coordinates": [ 130.0172767, 33.4445779 ] } },
{ "type": "Feature", "properties": { "内容": "シルバーリゾートかべしまデイサービス【通所介護】佐賀県唐津市呼子町加部島字鉢ノソコ262番地3", "url": "https://www.kaigokensaku.mhlw.go.jp/41/index.php?action_kouhyou_detail_004_kani=true&JigyosyoCd=4170201539-00&ServiceCd=150&Type=search", "url2": null }, "geometry": { "type": "Point", "coordinates": [ 129.8836248, 33.5583217 ] } },
{ "type": "Feature", "properties": { "内容": "デイサービス桃の木【通所介護】佐賀県唐津市新興町48番レインボービル1階", "url": "https://www.kaigokensaku.mhlw.go.jp/41/index.php?action_kouhyou_detail_004_kani=true&JigyosyoCd=4170201562-00&ServiceCd=150&Type=search", "url2": "http://haruka-himawari.jp" }, "geometry": { "type": "Point", "coordinates": [ 129.9638115, 33.4447469 ] } },
{ "type": "Feature", "properties": { "内容": "デイサービス浜崎のたいよう【通所介護】浜玉町浜崎字小崎701-9", "url": "https://www.kaigokensaku.mhlw.go.jp/41/index.php?action_kouhyou_detail_004_kani=true&JigyosyoCd=4170201596-00&ServiceCd=150&Type=search", "url2": "http://www.taiyouhome.com/" }, "geometry": { "type": "Point", "coordinates": [ 130.034764599999988, 33.4449158 ] } },
{ "type": "Feature", "properties": { "内容": "からっとライフ【通所介護】和多田大土井3-35", "url": "https://www.kaigokensaku.mhlw.go.jp/41/index.php?action_kouhyou_detail_004_kani=true&JigyosyoCd=4170201620-00&ServiceCd=150&Type=search", "url2": "https://karat-life.com/" }, "geometry": { "type": "Point", "coordinates": [ 129.9906456, 33.4285773 ] } },
{ "type": "Feature", "properties": { "内容": "デイサービス呼子【通所介護】呼子町殿ノ浦1307", "url": "https://www.kaigokensaku.mhlw.go.jp/41/index.php?action_kouhyou_detail_004_kani=true&JigyosyoCd=4170201638-00&ServiceCd=150&Type=search", "url2": null }, "geometry": { "type": "Point", "coordinates": [ 129.886195500000014, 33.5361356 ] } },
{ "type": "Feature", "properties": { "内容": "はたしま百花苑【通所介護】佐賀県唐津市畑島5784-1", "url": "https://www.kaigokensaku.mhlw.go.jp/41/index.php?action_kouhyou_detail_004_kani=true&JigyosyoCd=4170201646-00&ServiceCd=150&Type=search", "url2": "https://www.kagayaki-care.co.jp/hatashima" }, "geometry": { "type": "Point", "coordinates": [ 129.953465316841118, 33.393489301047531 ] } },
{ "type": "Feature", "properties": { "内容": "浜玉荘デイサービス【通所介護】佐賀県唐津市浜玉町東山田2399番地", "url": "https://www.kaigokensaku.mhlw.go.jp/41/index.php?action_kouhyou_detail_004_kani=true&JigyosyoCd=4171400049-00&ServiceCd=150&Type=search", "url2": "http://k-fukusikai.jp/h_about_riyou.html" }, "geometry": { "type": "Point", "coordinates": [ 130.045613600000024, 33.4300291 ] } },
{ "type": "Feature", "properties": { "内容": "作礼荘デイサービス【通所介護】佐賀県唐津市相知町中山3544番地1", "url": "https://www.kaigokensaku.mhlw.go.jp/41/index.php?action_kouhyou_detail_004_kani=true&JigyosyoCd=4171400072-00&ServiceCd=150&Type=search", "url2": "http://www.k-fukushikai.jp/" }, "geometry": { "type": "Point", "coordinates": [ 130.015995100000026, 33.3509978 ] } },
{ "type": "Feature", "properties": { "内容": "社会福祉法人唐津福祉会潮荘デイサービスちんぜい【通所介護】佐賀県唐津市鎮西町打上3075番地1", "url": "https://www.kaigokensaku.mhlw.go.jp/41/index.php?action_kouhyou_detail_004_kani=true&JigyosyoCd=4171400106-00&ServiceCd=150&Type=search", "url2": "http://www.k-fukushikai.jp/" }, "geometry": { "type": "Point", "coordinates": [ 129.901211200000034, 33.5166544 ] } },
{ "type": "Feature", "properties": { "内容": "岬荘デイサービス【通所介護】佐賀県唐津市肥前町鶴牧106番地11", "url": "https://www.kaigokensaku.mhlw.go.jp/41/index.php?action_kouhyou_detail_004_kani=true&JigyosyoCd=4171400171-00&ServiceCd=150&Type=search", "url2": "ｗｗｗ.k-ｆｕｋｕｓｈｉｋａｉ.ｊｐ/" }, "geometry": { "type": "Point", "coordinates": [ 129.835607399999958, 33.4485187 ] } },
{ "type": "Feature", "properties": { "内容": "やよいがおかデイサービスセンター【通所介護】佐賀県鳥栖市弥生が丘2丁目1番光寿　やよいがおかビル3階", "url": "https://www.kaigokensaku.mhlw.go.jp/41/index.php?action_kouhyou_detail_004_kani=true&JigyosyoCd=4170300679-00&ServiceCd=150&Type=search", "url2": "totalcarelife@koju.jp" }, "geometry": { "type": "Point", "coordinates": [ 130.525083399999971, 33.4033028 ] } },
{ "type": "Feature", "properties": { "内容": "プロジェクトエースきらめき【通所介護】鳥栖市弥生が丘7丁目14番地", "url": "https://www.kaigokensaku.mhlw.go.jp/41/index.php?action_kouhyou_detail_004_kani=true&JigyosyoCd=4170300836-00&ServiceCd=150&Type=search", "url2": "http://kirameki-tosu.wix.com/hpsite" }, "geometry": { "type": "Point", "coordinates": [ 130.514242200000012, 33.4077603 ] } },
{ "type": "Feature", "properties": { "内容": "今村病院デイサービスセンター【通所介護】佐賀県鳥栖市轟木町1572番地", "url": "https://www.kaigokensaku.mhlw.go.jp/41/index.php?action_kouhyou_detail_004_kani=true&JigyosyoCd=4110311331-00&ServiceCd=150&Type=search", "url2": "http://www.josuikai.or.jp" }, "geometry": { "type": "Point", "coordinates": [ 130.506394299999982, 33.367132300000016 ] } },
{ "type": "Feature", "properties": { "内容": "鳥栖市中央デイサービスセンター【通所介護】鳥栖市本町3丁目1494番地10", "url": "https://www.kaigokensaku.mhlw.go.jp/41/index.php?action_kouhyou_detail_004_kani=true&JigyosyoCd=4170300026-00&ServiceCd=150&Type=search", "url2": "http://www.magokoro.or.jp/" }, "geometry": { "type": "Point", "coordinates": [ 130.508344, 33.3787436 ] } },
{ "type": "Feature", "properties": { "内容": "真心の園デイサービスセンター【通所介護】佐賀県鳥栖市村田町1250-1", "url": "https://www.kaigokensaku.mhlw.go.jp/41/index.php?action_kouhyou_detail_004_kani=true&JigyosyoCd=4170300034-00&ServiceCd=150&Type=search", "url2": "http://www.magokoro.or/jp" }, "geometry": { "type": "Point", "coordinates": [ 130.478143874235599, 33.365163097218101 ] } },
{ "type": "Feature", "properties": { "内容": "ひまわりの園デイサービスセンター【通所介護】佐賀県鳥栖市田代本町924-1", "url": "https://www.kaigokensaku.mhlw.go.jp/41/index.php?action_kouhyou_detail_004_kani=true&JigyosyoCd=4170300042-00&ServiceCd=150&Type=search", "url2": "http://www.kensyoukai.or.jp" }, "geometry": { "type": "Point", "coordinates": [ 130.518192799999952, 33.3944258 ] } },
{ "type": "Feature", "properties": { "内容": "ぽっかぽか・ハートケア鳥栖【通所介護】鳥栖市儀徳町2603-1", "url": "https://www.kaigokensaku.mhlw.go.jp/41/index.php?action_kouhyou_detail_004_kani=true&JigyosyoCd=4170300703-00&ServiceCd=150&Type=search", "url2": null }, "geometry": { "type": "Point", "coordinates": [ 130.491855644844037, 33.352361714444285 ] } },
{ "type": "Feature", "properties": { "内容": "デイサービス楽笑倶楽部鳥栖本通【通所介護】鳥栖市本通町２丁目８７８－７", "url": "https://www.kaigokensaku.mhlw.go.jp/41/index.php?action_kouhyou_detail_004_kani=true&JigyosyoCd=4170300737-00&ServiceCd=150&Type=search", "url2": null }, "geometry": { "type": "Point", "coordinates": [ 130.514699699999937, 33.3723138 ] } },
{ "type": "Feature", "properties": { "内容": "デイサービスセンター元気【通所介護】轟木町１４７３", "url": "https://www.kaigokensaku.mhlw.go.jp/41/index.php?action_kouhyou_detail_004_kani=true&JigyosyoCd=4170300828-00&ServiceCd=150&Type=search", "url2": "https://jintokukai.jp/介護施設情報/デイサービス/デイサービス元気/" }, "geometry": { "type": "Point", "coordinates": [ 130.507238899999948, 33.3686722 ] } },
{ "type": "Feature", "properties": { "内容": "デイサービスセンター寿楽園弐号館【通所介護】鳥栖市弥生が丘一丁目１８番地弥生が丘地域福祉センター", "url": "https://www.kaigokensaku.mhlw.go.jp/41/index.php?action_kouhyou_detail_004_kani=true&JigyosyoCd=4170300844-00&ServiceCd=150&Type=search", "url2": "http://www.jurakuen.jp/" }, "geometry": { "type": "Point", "coordinates": [ 130.526377700000012, 33.4020168 ] } },
{ "type": "Feature", "properties": { "内容": "デイサービスセンター花ノ木Ⅱ番館【通所介護】佐賀県鳥栖市古賀町大字花ノ木５５４番地", "url": "https://www.kaigokensaku.mhlw.go.jp/41/index.php?action_kouhyou_detail_004_kani=true&JigyosyoCd=4170300851-00&ServiceCd=150&Type=search", "url2": null }, "geometry": { "type": "Point", "coordinates": [ 130.498031606082151, 33.386296653852447 ] } },
{ "type": "Feature", "properties": { "内容": "デイサービスセンター南風田代【通所介護】佐賀県鳥栖市田代外町６９９番地４", "url": "https://www.kaigokensaku.mhlw.go.jp/41/index.php?action_kouhyou_detail_004_kani=true&JigyosyoCd=4170300935-00&ServiceCd=150&Type=search", "url2": "http://minamikaze-g.jp/" }, "geometry": { "type": "Point", "coordinates": [ 130.515793300000041, 33.3875624 ] } },
{ "type": "Feature", "properties": { "内容": "デイサービスセンター　ろしゅう【通所介護】佐賀県鳥栖市儀徳町2907番地1", "url": "https://www.kaigokensaku.mhlw.go.jp/41/index.php?action_kouhyou_detail_004_kani=true&JigyosyoCd=4170300968-00&ServiceCd=150&Type=search", "url2": "https://roshuu.rukkusu.com" }, "geometry": { "type": "Point", "coordinates": [ 130.4938813, 33.3524061 ] } },
{ "type": "Feature", "properties": { "内容": "ＪＡ福祉デイサービスセンター【通所介護】佐賀県鳥栖市田代昌町24番地", "url": "https://www.kaigokensaku.mhlw.go.jp/41/index.php?action_kouhyou_detail_004_kani=true&JigyosyoCd=4170301115-00&ServiceCd=150&Type=search", "url2": "https://www.ja-ceremonysaga.jp/care/" }, "geometry": { "type": "Point", "coordinates": [ 130.527221056632584, 33.391566110704062 ] } },
{ "type": "Feature", "properties": { "内容": "デイサービス楽笑倶楽部鳥栖中央【通所介護】佐賀県鳥栖市本通町２丁目878-7　２F", "url": "https://www.kaigokensaku.mhlw.go.jp/41/index.php?action_kouhyou_detail_004_kani=true&JigyosyoCd=4170301149-00&ServiceCd=150&Type=search", "url2": null }, "geometry": { "type": "Point", "coordinates": [ 130.514721300000019, 33.3723106 ] } },
{ "type": "Feature", "properties": { "内容": "デイサービスきたえるーむ鳥栖中央【通所介護】佐賀県鳥栖市藤木町2番地１", "url": "https://www.kaigokensaku.mhlw.go.jp/41/index.php?action_kouhyou_detail_004_kani=true&JigyosyoCd=4170301164-00&ServiceCd=150&Type=search", "url2": "https://kitaeroom-tosuchuou@sakaguchigumi.com" }, "geometry": { "type": "Point", "coordinates": [ 130.527182900000014, 33.3711634 ] } },
{ "type": "Feature", "properties": { "内容": "デイサービスセンターお元気広場【通所介護】佐賀県鳥栖市立石町2157-1", "url": "https://www.kaigokensaku.mhlw.go.jp/41/index.php?action_kouhyou_detail_004_kani=true&JigyosyoCd=4170301354-00&ServiceCd=150&Type=search", "url2": "http//www5fbiglobe.ne.jp" }, "geometry": { "type": "Point", "coordinates": [ 130.506243399999988, 33.3778796 ] } },
{ "type": "Feature", "properties": { "内容": "有限会社プラス【通所介護】佐賀県鳥栖市蔵上町６６３－１", "url": "https://www.kaigokensaku.mhlw.go.jp/41/index.php?action_kouhyou_detail_004_kani=true&JigyosyoCd=4170300091-00&ServiceCd=150&Type=search", "url2": "ｈｔｔｐｓ：//ｃａｒｅｈｏｍｅ－ｓｕｋｏｙａｋａ．ｃｏｍ/" }, "geometry": { "type": "Point", "coordinates": [ 130.498189, 33.3755352 ] } },
{ "type": "Feature", "properties": { "内容": "デイサービスたしろの大地【通所介護】佐賀県鳥栖市田代本町９９８番地１", "url": "https://www.kaigokensaku.mhlw.go.jp/41/index.php?action_kouhyou_detail_004_kani=true&JigyosyoCd=4170300646-00&ServiceCd=150&Type=search", "url2": "https;//totalcaresupports.com" }, "geometry": { "type": "Point", "coordinates": [ 130.521960375734238, 33.391563592320459 ] } },
{ "type": "Feature", "properties": { "内容": "デイサービスセンター花ノ木【通所介護】古賀町大字花の木554番地", "url": "https://www.kaigokensaku.mhlw.go.jp/41/index.php?action_kouhyou_detail_004_kani=true&JigyosyoCd=4170300794-00&ServiceCd=150&Type=search", "url2": null }, "geometry": { "type": "Point", "coordinates": [ 130.498364199999969, 33.3864803 ] } },
{ "type": "Feature", "properties": { "内容": "デイサービスセンター未来【通所介護】鳥栖市神辺町池田1477番地", "url": "https://www.kaigokensaku.mhlw.go.jp/41/index.php?action_kouhyou_detail_004_kani=true&JigyosyoCd=4170300810-00&ServiceCd=150&Type=search", "url2": "day-mirai.jp" }, "geometry": { "type": "Point", "coordinates": [ 130.509524199999987, 33.384818 ] } },
{ "type": "Feature", "properties": { "内容": "デイサービスセンター　セントポーリア・セカンドステージ【通所介護】佐賀県鳥栖市真木町1990番地", "url": "https://www.kaigokensaku.mhlw.go.jp/41/index.php?action_kouhyou_detail_004_kani=true&JigyosyoCd=4170301016-00&ServiceCd=150&Type=search", "url2": "http://www.setojima-clinic.com/seto6.html" }, "geometry": { "type": "Point", "coordinates": [ 130.506349107656916, 33.360705343819617 ] } },
{ "type": "Feature", "properties": { "内容": "デイサービスいやし【通所介護】佐賀県鳥栖市萱方町160-1", "url": "https://www.kaigokensaku.mhlw.go.jp/41/index.php?action_kouhyou_detail_004_kani=true&JigyosyoCd=4170301107-00&ServiceCd=150&Type=search", "url2": "http://www.oozono.co.jp/" }, "geometry": { "type": "Point", "coordinates": [ 130.507641369074719, 33.384953967468832 ] } },
{ "type": "Feature", "properties": { "内容": "デイサービスセンターセントポーリア【通所介護】今泉町2434番地1", "url": "https://www.kaigokensaku.mhlw.go.jp/41/index.php?action_kouhyou_detail_004_kani=true&JigyosyoCd=4170301339-00&ServiceCd=150&Type=search", "url2": "https://setojima-clinic.com/" }, "geometry": { "type": "Point", "coordinates": [ 130.5137078, 33.3626497 ] } },
{ "type": "Feature", "properties": { "内容": "ケアホーム　のんびり家【通所介護】多久市南多久町大字長尾3886番地2", "url": "https://www.kaigokensaku.mhlw.go.jp/41/index.php?action_kouhyou_detail_004_kani=true&JigyosyoCd=4170400248-00&ServiceCd=150&Type=search", "url2": "nonbiri@po.taku.ne.jp" }, "geometry": { "type": "Point", "coordinates": [ 130.115116100000023, 33.2788246 ] } },
{ "type": "Feature", "properties": { "内容": "のんびり苑【通所介護】佐賀県多久市東多久町大字別府2949-1128", "url": "https://www.kaigokensaku.mhlw.go.jp/41/index.php?action_kouhyou_detail_004_kani=true&JigyosyoCd=4170400289-00&ServiceCd=150&Type=search", "url2": null }, "geometry": { "type": "Point", "coordinates": [ 130.15772620000007, 33.285485 ] } },
{ "type": "Feature", "properties": { "内容": "地域共生ホーム愛あい　愛あいデイサービス【通所介護】佐賀県多久市北多久町大字多久原1652番地", "url": "https://www.kaigokensaku.mhlw.go.jp/41/index.php?action_kouhyou_detail_004_kani=true&JigyosyoCd=4170400073-00&ServiceCd=150&Type=search", "url2": null }, "geometry": { "type": "Point", "coordinates": [ 130.125342400000022, 33.2871043 ] } },
{ "type": "Feature", "properties": { "内容": "通所介護　悠愛別荘【通所介護】佐賀県多久市東多久町大字別府4647番地1", "url": "https://www.kaigokensaku.mhlw.go.jp/41/index.php?action_kouhyou_detail_004_kani=true&JigyosyoCd=4170400362-00&ServiceCd=150&Type=search", "url2": "yuai-bessou@a-lifesupport.co.jp" }, "geometry": { "type": "Point", "coordinates": [ 130.1416165, 33.2824043 ] } },
{ "type": "Feature", "properties": { "内容": "ブライトネスしもづる【通所介護】多久市多久町589-1", "url": "https://www.kaigokensaku.mhlw.go.jp/41/index.php?action_kouhyou_detail_004_kani=true&JigyosyoCd=4170400214-00&ServiceCd=150&Type=search", "url2": null }, "geometry": { "type": "Point", "coordinates": [ 130.100390100000027, 33.266409 ] } },
{ "type": "Feature", "properties": { "内容": "介護ホーム　まきしま【通所介護】佐賀県伊万里市瀬戸町1359番地", "url": "https://www.kaigokensaku.mhlw.go.jp/41/index.php?action_kouhyou_detail_004_kani=true&JigyosyoCd=4170500740-00&ServiceCd=150&Type=search", "url2": "http://hp.kaipoke.biz.ws7/" }, "geometry": { "type": "Point", "coordinates": [ 129.85151614789649, 33.303696883899605 ] } },
{ "type": "Feature", "properties": { "内容": "高齢者支援施設　楽歳【通所介護】山代町久原2994番地4", "url": "https://www.kaigokensaku.mhlw.go.jp/41/index.php?action_kouhyou_detail_004_kani=true&JigyosyoCd=4170500799-00&ServiceCd=150&Type=search", "url2": null }, "geometry": { "type": "Point", "coordinates": [ 129.8109518, 33.316145 ] } },
{ "type": "Feature", "properties": { "内容": "デイサービスえにしあ【通所介護】佐賀県伊万里市二里町中里甲3316-3", "url": "https://www.kaigokensaku.mhlw.go.jp/41/index.php?action_kouhyou_detail_004_kani=true&JigyosyoCd=4170500989-00&ServiceCd=150&Type=search", "url2": null }, "geometry": { "type": "Point", "coordinates": [ 129.851853500000033, 33.2441059 ] } },
{ "type": "Feature", "properties": { "内容": "デイサービス　えん家・サテライト　みず穂【通所介護】佐賀県伊万里市木須町4931-1（えん家）・佐賀県伊万里市二里町大里甲2516-7（みず穂）", "url": "https://www.kaigokensaku.mhlw.go.jp/41/index.php?action_kouhyou_detail_004_kani=true&JigyosyoCd=4170500534-00&ServiceCd=150&Type=search", "url2": "https://emuemu-imari.co.jp/" }, "geometry": { "type": "Point", "coordinates": [ 129.863378900000043, 33.2885628 ] } },
{ "type": "Feature", "properties": { "内容": "株式会社はれいゆ【通所介護】佐賀県伊万里市伊万里町甲629", "url": "https://www.kaigokensaku.mhlw.go.jp/41/index.php?action_kouhyou_detail_004_kani=true&JigyosyoCd=4170501011-00&ServiceCd=150&Type=search", "url2": null }, "geometry": { "type": "Point", "coordinates": [ 129.8750483, 33.275002600000015 ] } },
{ "type": "Feature", "properties": { "内容": "山口病院デイサービスセンターこしだけ【通所介護】佐賀県伊万里市新天町305番地山口病院", "url": "https://www.kaigokensaku.mhlw.go.jp/41/index.php?action_kouhyou_detail_004_kani=true&JigyosyoCd=4110511369-00&ServiceCd=150&Type=search", "url2": "http://www.yamaguchi-hp-imari.jp/" }, "geometry": { "type": "Point", "coordinates": [ 129.874819500000058, 33.2686405 ] } },
{ "type": "Feature", "properties": { "内容": "伊万里市東部デイサービスセンター　ユートピア【通所介護】佐賀県伊万里市大川町大川野字赤坂1647番地", "url": "https://www.kaigokensaku.mhlw.go.jp/41/index.php?action_kouhyou_detail_004_kani=true&JigyosyoCd=4170500021-00&ServiceCd=150&Type=search", "url2": "http://www.kenjin-kai.com/utopia/" }, "geometry": { "type": "Point", "coordinates": [ 129.971941862951695, 33.294960587648426 ] } },
{ "type": "Feature", "properties": { "内容": "デイサービスセンター敬愛園【通所介護】佐賀県伊万里市黒川町大黒川2201番地", "url": "https://www.kaigokensaku.mhlw.go.jp/41/index.php?action_kouhyou_detail_004_kani=true&JigyosyoCd=4170500039-00&ServiceCd=150&Type=search", "url2": "http://imari-keiaikai.com" }, "geometry": { "type": "Point", "coordinates": [ 129.865575900000067, 33.335224900000014 ] } },
{ "type": "Feature", "properties": { "内容": "デイサービス　エスペランス【通所介護】佐賀県伊万里市大坪町乙1579番地2", "url": "https://www.kaigokensaku.mhlw.go.jp/41/index.php?action_kouhyou_detail_004_kani=true&JigyosyoCd=4170500286-00&ServiceCd=150&Type=search", "url2": "http://kashinkai.or.jp" }, "geometry": { "type": "Point", "coordinates": [ 129.896309200000019, 33.2745712 ] } },
{ "type": "Feature", "properties": { "内容": "デイサービスわきた【通所介護】佐賀県伊万里市脇田町1327番地1", "url": "https://www.kaigokensaku.mhlw.go.jp/41/index.php?action_kouhyou_detail_004_kani=true&JigyosyoCd=4170500385-00&ServiceCd=150&Type=search", "url2": "http://www." }, "geometry": { "type": "Point", "coordinates": [ 129.883613714641541, 33.283429141310705 ] } },
{ "type": "Feature", "properties": { "内容": "デイサービスこころ【通所介護】佐賀県伊万里市二里町中里甲80", "url": "https://www.kaigokensaku.mhlw.go.jp/41/index.php?action_kouhyou_detail_004_kani=true&JigyosyoCd=4170500419-00&ServiceCd=150&Type=search", "url2": null }, "geometry": { "type": "Point", "coordinates": [ 129.84964679999996, 33.2512669 ] } },
{ "type": "Feature", "properties": { "内容": "通所介護　ほのぼの【通所介護】佐賀県伊万里市黒川町塩屋５０９番地１", "url": "https://www.kaigokensaku.mhlw.go.jp/41/index.php?action_kouhyou_detail_004_kani=true&JigyosyoCd=4170500468-00&ServiceCd=150&Type=search", "url2": null }, "geometry": { "type": "Point", "coordinates": [ 129.853749099999959, 33.3314887 ] } },
{ "type": "Feature", "properties": { "内容": "デイサービス　ウェルネス伊万里【通所介護】二里町大里甲1714-1", "url": "https://www.kaigokensaku.mhlw.go.jp/41/index.php?action_kouhyou_detail_004_kani=true&JigyosyoCd=4170500484-00&ServiceCd=150&Type=search", "url2": "http://www.shofu-kai.jp/wellness/index.html" }, "geometry": { "type": "Point", "coordinates": [ 129.870576457949824, 33.263782221580882 ] } },
{ "type": "Feature", "properties": { "内容": "ぽっかぽかハートケア・伊万里【通所介護】佐賀県伊万里市立花町2405-17", "url": "https://www.kaigokensaku.mhlw.go.jp/41/index.php?action_kouhyou_detail_004_kani=true&JigyosyoCd=4170500518-00&ServiceCd=150&Type=search", "url2": "http://www.poka2.co.jp" }, "geometry": { "type": "Point", "coordinates": [ 129.888787699999966, 33.2608391 ] } },
{ "type": "Feature", "properties": { "内容": "介護ホーム　もものかわ【通所介護】佐賀県伊万里市松浦町桃川5997番地", "url": "https://www.kaigokensaku.mhlw.go.jp/41/index.php?action_kouhyou_detail_004_kani=true&JigyosyoCd=4170500526-00&ServiceCd=150&Type=search", "url2": "http://hp.kaipoke.biz/ws7/" }, "geometry": { "type": "Point", "coordinates": [ 129.95817213729552, 33.272781264532298 ] } },
{ "type": "Feature", "properties": { "内容": "デイサービス　明星【通所介護】佐賀県伊万里市東山代町里1336番地1", "url": "https://www.kaigokensaku.mhlw.go.jp/41/index.php?action_kouhyou_detail_004_kani=true&JigyosyoCd=4170500658-00&ServiceCd=150&Type=search", "url2": "http://care-net.biz/test/41/myojo-kaigo/" }, "geometry": { "type": "Point", "coordinates": [ 129.827321378171519, 33.281715374588515 ] } },
{ "type": "Feature", "properties": { "内容": "デイサービスセンター　いこいの里伊万里【通所介護】伊万里市立花町2394番1", "url": "https://www.kaigokensaku.mhlw.go.jp/41/index.php?action_kouhyou_detail_004_kani=true&JigyosyoCd=4170500674-00&ServiceCd=150&Type=search", "url2": "https://ikoino-sato.com" }, "geometry": { "type": "Point", "coordinates": [ 129.888591229499752, 33.259669031629862 ] } },
{ "type": "Feature", "properties": { "内容": "デイサービス・リアン【通所介護】佐賀県伊万里市二里町八谷搦１１８８番地", "url": "https://www.kaigokensaku.mhlw.go.jp/41/index.php?action_kouhyou_detail_004_kani=true&JigyosyoCd=4170500732-00&ServiceCd=150&Type=search", "url2": "http://lien-kizuna.com" }, "geometry": { "type": "Point", "coordinates": [ 129.867888421395833, 33.278884852398001 ] } },
{ "type": "Feature", "properties": { "内容": "デイサービス　アイケア【通所介護】佐賀県伊万里市二里町八谷搦1120", "url": "https://www.kaigokensaku.mhlw.go.jp/41/index.php?action_kouhyou_detail_004_kani=true&JigyosyoCd=4170500807-00&ServiceCd=150&Type=search", "url2": "http://icare-grp.jp" }, "geometry": { "type": "Point", "coordinates": [ 129.870809657455453, 33.277853914645746 ] } },
{ "type": "Feature", "properties": { "内容": "ふくふくの里なごみデイサービス・宅老所【通所介護】佐賀県伊万里市大川内丙927", "url": "https://www.kaigokensaku.mhlw.go.jp/41/index.php?action_kouhyou_detail_004_kani=true&JigyosyoCd=4170500856-00&ServiceCd=150&Type=search", "url2": "https://www.fukufukunosato.net/" }, "geometry": { "type": "Point", "coordinates": [ 129.887347569528202, 33.246980903445419 ] } },
{ "type": "Feature", "properties": { "内容": "デイサービス紅葉【通所介護】佐賀県伊万里市立花町小敷山2404―123", "url": "https://www.kaigokensaku.mhlw.go.jp/41/index.php?action_kouhyou_detail_004_kani=true&JigyosyoCd=4170500864-00&ServiceCd=150&Type=search", "url2": null }, "geometry": { "type": "Point", "coordinates": [ 129.879391, 33.269363 ] } },
{ "type": "Feature", "properties": { "内容": "温泉デイ　フォレスト　イン　伊万里【通所介護】佐賀県伊万里市二里町大里甲1704-1", "url": "https://www.kaigokensaku.mhlw.go.jp/41/index.php?action_kouhyou_detail_004_kani=true&JigyosyoCd=4170501003-00&ServiceCd=150&Type=search", "url2": null }, "geometry": { "type": "Point", "coordinates": [ 129.8690822, 33.2637276 ] } },
{ "type": "Feature", "properties": { "内容": "長生園デイサービスセンター【通所介護】佐賀県伊万里市立花町２７０３番地２", "url": "https://www.kaigokensaku.mhlw.go.jp/41/index.php?action_kouhyou_detail_004_kani=true&JigyosyoCd=4170500013-00&ServiceCd=150&Type=search", "url2": "http://chousei-imari.jp" }, "geometry": { "type": "Point", "coordinates": [ 129.880269, 33.2645856 ] } },
{ "type": "Feature", "properties": { "内容": "デイサービスながやまスズラン【通所介護】佐賀県伊万里市大坪町甲732", "url": "https://www.kaigokensaku.mhlw.go.jp/41/index.php?action_kouhyou_detail_004_kani=true&JigyosyoCd=4170500450-00&ServiceCd=150&Type=search", "url2": null }, "geometry": { "type": "Point", "coordinates": [ 129.897220100000027, 33.295516 ] } },
{ "type": "Feature", "properties": { "内容": "デイサービスあさひ【通所介護】佐賀県伊万里市立花町1462-2", "url": "https://www.kaigokensaku.mhlw.go.jp/41/index.php?action_kouhyou_detail_004_kani=true&JigyosyoCd=4170500492-00&ServiceCd=150&Type=search", "url2": null }, "geometry": { "type": "Point", "coordinates": [ 129.878936607712603, 33.262913578422271 ] } },
{ "type": "Feature", "properties": { "内容": "デイサービス　かりん【通所介護】佐賀県伊万里市立花町1465番地有料老人ホーム　かりん", "url": "https://www.kaigokensaku.mhlw.go.jp/41/index.php?action_kouhyou_detail_004_kani=true&JigyosyoCd=4170500914-00&ServiceCd=150&Type=search", "url2": null }, "geometry": { "type": "Point", "coordinates": [ 129.879038241247628, 33.262954413164245 ] } },
{ "type": "Feature", "properties": { "内容": "有料老人ホームれんげそう【通所介護】佐賀県伊万里市立花町２１８１番地77", "url": "https://www.kaigokensaku.mhlw.go.jp/41/index.php?action_kouhyou_detail_004_kani=true&JigyosyoCd=4170501037-00&ServiceCd=150&Type=search", "url2": "https://care-net.biz/41/renngesou/" }, "geometry": { "type": "Point", "coordinates": [ 129.886261255680836, 33.255962853334992 ] } },
{ "type": "Feature", "properties": { "内容": "デイサービス　ほほえみ【通所介護】佐賀県武雄市北方町大字大﨑４０７０番地１", "url": "https://www.kaigokensaku.mhlw.go.jp/41/index.php?action_kouhyou_detail_004_kani=true&JigyosyoCd=4170600326-00&ServiceCd=150&Type=search", "url2": null }, "geometry": { "type": "Point", "coordinates": [ 130.045900795356687, 33.228744961232685 ] } },
{ "type": "Feature", "properties": { "内容": "ディサービス　白岩の里【通所介護】武雄町大字永島15027-1", "url": "https://www.kaigokensaku.mhlw.go.jp/41/index.php?action_kouhyou_detail_004_kani=true&JigyosyoCd=4170600383-00&ServiceCd=150&Type=search", "url2": null }, "geometry": { "type": "Point", "coordinates": [ 130.032402199999979, 33.1900243 ] } },
{ "type": "Feature", "properties": { "内容": "デイサ-ビスセンタ-　道の家【通所介護】佐賀県武雄市武雄町大字富岡11083番地1", "url": "https://www.kaigokensaku.mhlw.go.jp/41/index.php?action_kouhyou_detail_004_kani=true&JigyosyoCd=4170600474-00&ServiceCd=150&Type=search", "url2": "http://npo-yutori.jp/" }, "geometry": { "type": "Point", "coordinates": [ 130.022543993778982, 33.207419653622125 ] } },
{ "type": "Feature", "properties": { "内容": "持田病院デイサービスセンター【通所介護】佐賀県武雄市武雄町大字武雄５８５８番地１", "url": "https://www.kaigokensaku.mhlw.go.jp/41/index.php?action_kouhyou_detail_004_kani=true&JigyosyoCd=4110610633-00&ServiceCd=150&Type=search", "url2": "http://www2.saganet.ne.jp/mochida3/" }, "geometry": { "type": "Point", "coordinates": [ 130.00931921534422, 33.189510392924525 ] } },
{ "type": "Feature", "properties": { "内容": "医療法人東雲会　小野医院デイサービスセンター【通所介護】佐賀県武雄市東川登町永野5752番地2", "url": "https://www.kaigokensaku.mhlw.go.jp/41/index.php?action_kouhyou_detail_004_kani=true&JigyosyoCd=4110610864-00&ServiceCd=150&Type=search", "url2": "www.shinonome-kai.net" }, "geometry": { "type": "Point", "coordinates": [ 130.0009053, 33.1620761 ] } },
{ "type": "Feature", "properties": { "内容": "医療法人　清哲会　藤瀬医院デイサービスセンター【通所介護】佐賀県武雄市山内町大字鳥海9784番地", "url": "https://www.kaigokensaku.mhlw.go.jp/41/index.php?action_kouhyou_detail_004_kani=true&JigyosyoCd=4111611408-00&ServiceCd=150&Type=search", "url2": null }, "geometry": { "type": "Point", "coordinates": [ 129.962583099999961, 33.1955274 ] } },
{ "type": "Feature", "properties": { "内容": "デイサービスセンター御船荘【通所介護】佐賀県武雄市東川登町大字永野３４９４番地１", "url": "https://www.kaigokensaku.mhlw.go.jp/41/index.php?action_kouhyou_detail_004_kani=true&JigyosyoCd=4170600029-00&ServiceCd=150&Type=search", "url2": "https://takeo-seiwafukushikai.jp/" }, "geometry": { "type": "Point", "coordinates": [ 130.016791318524184, 33.164768833599183 ] } },
{ "type": "Feature", "properties": { "内容": "デイサービスふれあい【通所介護】佐賀県武雄市武雄町大字武雄5542番地186", "url": "https://www.kaigokensaku.mhlw.go.jp/41/index.php?action_kouhyou_detail_004_kani=true&JigyosyoCd=4170600169-00&ServiceCd=150&Type=search", "url2": "http://takeo-fureai/co.jp" }, "geometry": { "type": "Point", "coordinates": [ 130.014019713044746, 33.189536474492471 ] } },
{ "type": "Feature", "properties": { "内容": "医療法人　清哲会　上西山デイサービスセンター【通所介護】佐賀県武雄市武雄町大字武雄2132-2", "url": "https://www.kaigokensaku.mhlw.go.jp/41/index.php?action_kouhyou_detail_004_kani=true&JigyosyoCd=4170600250-00&ServiceCd=150&Type=search", "url2": "http://fujise-clinic.net/index.html" }, "geometry": { "type": "Point", "coordinates": [ 129.99463030000004, 33.1837739 ] } },
{ "type": "Feature", "properties": { "内容": "デイサービスセンター　シニアケアたけお【通所介護】佐賀県武雄市朝日町大字甘久4269番地28", "url": "https://www.kaigokensaku.mhlw.go.jp/41/index.php?action_kouhyou_detail_004_kani=true&JigyosyoCd=4170600284-00&ServiceCd=150&Type=search", "url2": "keiaikai.takeo．senior@ae.auone-net.jp" }, "geometry": { "type": "Point", "coordinates": [ 130.0404231, 33.2187353 ] } },
{ "type": "Feature", "properties": { "内容": "ぽっかぽか・ハートケア武雄【通所介護】佐賀県武雄市北方町大字大﨑2005-9", "url": "https://www.kaigokensaku.mhlw.go.jp/41/index.php?action_kouhyou_detail_004_kani=true&JigyosyoCd=4170600425-00&ServiceCd=150&Type=search", "url2": null }, "geometry": { "type": "Point", "coordinates": [ 130.056949600000053, 33.2264515 ] } },
{ "type": "Feature", "properties": { "内容": "杏の丘　武雄【通所介護】佐賀県武雄市北方町大字大﨑5025-49杏の丘　武雄", "url": "https://www.kaigokensaku.mhlw.go.jp/41/index.php?action_kouhyou_detail_004_kani=true&JigyosyoCd=4170600516-00&ServiceCd=150&Type=search", "url2": "http://www.ufokai.com" }, "geometry": { "type": "Point", "coordinates": [ 130.043455187696878, 33.22907689193817 ] } },
{ "type": "Feature", "properties": { "内容": "デイサービスセンター眺望の杜【通所介護】武雄町大字永島16243番地", "url": "https://www.kaigokensaku.mhlw.go.jp/41/index.php?action_kouhyou_detail_004_kani=true&JigyosyoCd=4170600540-00&ServiceCd=150&Type=search", "url2": null }, "geometry": { "type": "Point", "coordinates": [ 130.031024800000068, 33.1825611 ] } },
{ "type": "Feature", "properties": { "内容": "デイサービス　風の音【通所介護】佐賀県武雄市西川登町大字小田志16859番地1", "url": "https://www.kaigokensaku.mhlw.go.jp/41/index.php?action_kouhyou_detail_004_kani=true&JigyosyoCd=4170600573-00&ServiceCd=150&Type=search", "url2": "https://yasaka-takeo.com/" }, "geometry": { "type": "Point", "coordinates": [ 129.986607899999967, 33.1330617 ] } },
{ "type": "Feature", "properties": { "内容": "デイサービス　永しまの里【通所介護】武雄町大字永島14916-1", "url": "https://www.kaigokensaku.mhlw.go.jp/41/index.php?action_kouhyou_detail_004_kani=true&JigyosyoCd=4170600581-00&ServiceCd=150&Type=search", "url2": "https://www.carecompany-care.com/" }, "geometry": { "type": "Point", "coordinates": [ 130.035315800000035, 33.1902993 ] } },
{ "type": "Feature", "properties": { "内容": "スリヨンラソ【通所介護】佐賀県武雄市武雄町永島15882番地3", "url": "https://www.kaigokensaku.mhlw.go.jp/41/index.php?action_kouhyou_detail_004_kani=true&JigyosyoCd=4170600656-00&ServiceCd=150&Type=search", "url2": "http://raso.hp.peraichi.com/top" }, "geometry": { "type": "Point", "coordinates": [ 130.033804072588254, 33.186281488407019 ] } },
{ "type": "Feature", "properties": { "内容": "デイサービス　えるむの杜【通所介護】佐賀県武雄市西川登町大字小田志16799番地1", "url": "https://www.kaigokensaku.mhlw.go.jp/41/index.php?action_kouhyou_detail_004_kani=true&JigyosyoCd=4170600664-00&ServiceCd=150&Type=search", "url2": "https://yasaka-takeo.com/" }, "geometry": { "type": "Point", "coordinates": [ 129.987257799999952, 33.1358753 ] } },
{ "type": "Feature", "properties": { "内容": "デイサービスみふね山【通所介護】佐賀県武雄市武雄町大字武雄104番地１", "url": "https://www.kaigokensaku.mhlw.go.jp/41/index.php?action_kouhyou_detail_004_kani=true&JigyosyoCd=4170600755-00&ServiceCd=150&Type=search", "url2": null }, "geometry": { "type": "Point", "coordinates": [ 130.0068953, 33.1902532 ] } },
{ "type": "Feature", "properties": { "内容": "デイサービスセンター　そよかぜの杜【通所介護】佐賀県武雄市山内町大字大野7045番地", "url": "https://www.kaigokensaku.mhlw.go.jp/41/index.php?action_kouhyou_detail_004_kani=true&JigyosyoCd=4171600069-00&ServiceCd=150&Type=search", "url2": "https://www.seiwafukushikai.net/" }, "geometry": { "type": "Point", "coordinates": [ 129.9350154, 33.2058735 ] } },
{ "type": "Feature", "properties": { "内容": "デイサービスセンター杏花苑【通所介護】佐賀県武雄市北方町大字志久4641-26", "url": "https://www.kaigokensaku.mhlw.go.jp/41/index.php?action_kouhyou_detail_004_kani=true&JigyosyoCd=4171600085-00&ServiceCd=150&Type=search", "url2": "https://kyokaen.wixsite.com/nicelandkitagata" }, "geometry": { "type": "Point", "coordinates": [ 130.084943414421502, 33.221490231817718 ] } },
{ "type": "Feature", "properties": { "内容": "竜門堂デイサービスセンターげんき。【通所介護】武雄市山内町大野６６０４－１", "url": "https://www.kaigokensaku.mhlw.go.jp/41/index.php?action_kouhyou_detail_004_kani=true&JigyosyoCd=4171600192-00&ServiceCd=150&Type=search", "url2": "http://www.ryumondo.or.jp" }, "geometry": { "type": "Point", "coordinates": [ 129.937770600000022, 33.2109786 ] } },
{ "type": "Feature", "properties": { "内容": "デイサービスセンター道の家【通所介護】佐賀県武雄市武雄町大字富岡11083番地1", "url": "https://www.kaigokensaku.mhlw.go.jp/41/index.php?action_kouhyou_detail_004_kani=true&JigyosyoCd=4170600813-00&ServiceCd=150&Type=search", "url2": "https://www.akinokai.jp/" }, "geometry": { "type": "Point", "coordinates": [ 130.022411299999987, 33.2073921 ] } },
{ "type": "Feature", "properties": { "内容": "デイサービスセンター　ひいらぎ【通所介護】佐賀県武雄市武内町大字真手野２６３４６番地", "url": "https://www.kaigokensaku.mhlw.go.jp/41/index.php?action_kouhyou_detail_004_kani=true&JigyosyoCd=4170600128-00&ServiceCd=150&Type=search", "url2": "http://www.tokurou.com" }, "geometry": { "type": "Point", "coordinates": [ 129.970431800000028, 33.2454259 ] } },
{ "type": "Feature", "properties": { "内容": "竜門堂デイサービスセンター爽風館【通所介護】武雄市山内町大字三間坂甲１４０４３番地", "url": "https://www.kaigokensaku.mhlw.go.jp/41/index.php?action_kouhyou_detail_004_kani=true&JigyosyoCd=4170600342-00&ServiceCd=150&Type=search", "url2": null }, "geometry": { "type": "Point", "coordinates": [ 129.954969799999958, 33.1915748 ] } },
{ "type": "Feature", "properties": { "内容": "デイサービス　おとなり【通所介護】佐賀県鹿島市大字音成甲5069番地5", "url": "https://www.kaigokensaku.mhlw.go.jp/41/index.php?action_kouhyou_detail_004_kani=true&JigyosyoCd=4170700464-00&ServiceCd=150&Type=search", "url2": null }, "geometry": { "type": "Point", "coordinates": [ 130.142978470034933, 33.077899559095577 ] } },
{ "type": "Feature", "properties": { "内容": "好日の園　デイサービスセンター　サンテ【通所介護】鹿島市大字高津原６６７番地１", "url": "https://www.kaigokensaku.mhlw.go.jp/41/index.php?action_kouhyou_detail_004_kani=true&JigyosyoCd=4170700209-00&ServiceCd=150&Type=search", "url2": "https://www.koujitu.or.jp/" }, "geometry": { "type": "Point", "coordinates": [ 130.095302700000047, 33.1088343 ] } },
{ "type": "Feature", "properties": { "内容": "デイサービス　花水木【通所介護】佐賀県鹿島市大字中村2187番地1", "url": "https://www.kaigokensaku.mhlw.go.jp/41/index.php?action_kouhyou_detail_004_kani=true&JigyosyoCd=4170700258-00&ServiceCd=150&Type=search", "url2": "https://shidahp.com/" }, "geometry": { "type": "Point", "coordinates": [ 130.096774800000048, 33.1188637 ] } },
{ "type": "Feature", "properties": { "内容": "デイサービス夢の丘【通所介護】佐賀県鹿島市大字山浦字二俟甲2085-8", "url": "https://www.kaigokensaku.mhlw.go.jp/41/index.php?action_kouhyou_detail_004_kani=true&JigyosyoCd=4170700282-00&ServiceCd=150&Type=search", "url2": null }, "geometry": { "type": "Point", "coordinates": [ 130.098769, 33.1037238 ] } },
{ "type": "Feature", "properties": { "内容": "デイサービス　ほっとすまいる・かしま【通所介護】佐賀県鹿島市大字山浦168番1デイサービス　ほっとすまいる・かしま", "url": "https://www.kaigokensaku.mhlw.go.jp/41/index.php?action_kouhyou_detail_004_kani=true&JigyosyoCd=4170700399-00&ServiceCd=150&Type=search", "url2": "https://bso16354.bsj.jp/" }, "geometry": { "type": "Point", "coordinates": [ 130.096980515727978, 33.093763182405112 ] } },
{ "type": "Feature", "properties": { "内容": "デイサービス　結の舟【通所介護】佐賀県鹿島市浜町８９２番地１", "url": "https://www.kaigokensaku.mhlw.go.jp/41/index.php?action_kouhyou_detail_004_kani=true&JigyosyoCd=4170700449-00&ServiceCd=150&Type=search", "url2": null }, "geometry": { "type": "Point", "coordinates": [ 130.118170700000064, 33.0923779 ] } },
{ "type": "Feature", "properties": { "内容": "デイサービスてとて【通所介護】佐賀県鹿島市大字三河内甲９６１－４", "url": "https://www.kaigokensaku.mhlw.go.jp/41/index.php?action_kouhyou_detail_004_kani=true&JigyosyoCd=4170700472-00&ServiceCd=150&Type=search", "url2": null }, "geometry": { "type": "Point", "coordinates": [ 130.077553200000011, 33.0984665 ] } },
{ "type": "Feature", "properties": { "内容": "デイサービスセンターひらまつ【通所介護】佐賀県小城市小城町803住宅型有料老人ホーム　ラ・サンテひらまつ", "url": "https://www.kaigokensaku.mhlw.go.jp/41/index.php?action_kouhyou_detail_004_kani=true&JigyosyoCd=4171300538-00&ServiceCd=150&Type=search", "url2": null }, "geometry": { "type": "Point", "coordinates": [ 130.207229699999971, 33.3005569 ] } },
{ "type": "Feature", "properties": { "内容": "通所介護事業　鳳寿苑【通所介護】佐賀県小城市三日月町甲柳原68-1", "url": "https://www.kaigokensaku.mhlw.go.jp/41/index.php?action_kouhyou_detail_004_kani=true&JigyosyoCd=4171300025-00&ServiceCd=150&Type=search", "url2": "http://care-net.biz/41/houjuen-hp/company.php" }, "geometry": { "type": "Point", "coordinates": [ 130.209889400000066, 33.2726452 ] } },
{ "type": "Feature", "properties": { "内容": "村岡内科デイサービスセンター【通所介護】佐賀県小城市牛津町牛津６３０－９", "url": "https://www.kaigokensaku.mhlw.go.jp/41/index.php?action_kouhyou_detail_004_kani=true&JigyosyoCd=4171300165-00&ServiceCd=150&Type=search", "url2": null }, "geometry": { "type": "Point", "coordinates": [ 130.203354799999943, 33.2471282 ] } },
{ "type": "Feature", "properties": { "内容": "ケアサポートしらたき【通所介護】佐賀県小城市小城町松尾1804番地1", "url": "https://www.kaigokensaku.mhlw.go.jp/41/index.php?action_kouhyou_detail_004_kani=true&JigyosyoCd=4171300389-00&ServiceCd=150&Type=search", "url2": "http://www.cs-shirataki.jp/" }, "geometry": { "type": "Point", "coordinates": [ 130.216154988428002, 33.315755078561658 ] } },
{ "type": "Feature", "properties": { "内容": "デイサービスセンター　まつおざん【通所介護】佐賀県小城市小城町松尾4417番地デイサービスセンター　まつおざん", "url": "https://www.kaigokensaku.mhlw.go.jp/41/index.php?action_kouhyou_detail_004_kani=true&JigyosyoCd=4171300462-00&ServiceCd=150&Type=search", "url2": "http://park18.wakwak.com/~taiseien/" }, "geometry": { "type": "Point", "coordinates": [ 130.194575100000066, 33.3023866 ] } },
{ "type": "Feature", "properties": { "内容": "ひなたデイサービスセンター【通所介護】佐賀県小城市芦刈町芦溝840－12ひなたデイサービスセンター", "url": "https://www.kaigokensaku.mhlw.go.jp/41/index.php?action_kouhyou_detail_004_kani=true&JigyosyoCd=4171300587-00&ServiceCd=150&Type=search", "url2": null }, "geometry": { "type": "Point", "coordinates": [ 130.209389459524573, 33.238996164425131 ] } },
{ "type": "Feature", "properties": { "内容": "ツクイ小城【通所介護】佐賀県小城市小城町松尾1024-1", "url": "https://www.kaigokensaku.mhlw.go.jp/41/index.php?action_kouhyou_detail_004_kani=true&JigyosyoCd=4171300629-00&ServiceCd=150&Type=search", "url2": "http//www.tsukui.net/" }, "geometry": { "type": "Point", "coordinates": [ 130.19977990000001, 33.2977261 ] } },
{ "type": "Feature", "properties": { "内容": "デイサービスさくら【通所介護】佐賀県小城市三日月町久米899", "url": "https://www.kaigokensaku.mhlw.go.jp/41/index.php?action_kouhyou_detail_004_kani=true&JigyosyoCd=4171300637-00&ServiceCd=150&Type=search", "url2": "https://senyuukai.com/" }, "geometry": { "type": "Point", "coordinates": [ 130.203885799999966, 33.2909238 ] } },
{ "type": "Feature", "properties": { "内容": "デイサービスよろず庵【通所介護】三日月町金田1071-1", "url": "https://www.kaigokensaku.mhlw.go.jp/41/index.php?action_kouhyou_detail_004_kani=true&JigyosyoCd=4171300645-00&ServiceCd=150&Type=search", "url2": "https://www.associe-group.jp/" }, "geometry": { "type": "Point", "coordinates": [ 130.229968397808818, 33.259725433793257 ] } },
{ "type": "Feature", "properties": { "内容": "デイサービスよしはら【通所介護】三日月町久米字吉原320番地１", "url": "https://www.kaigokensaku.mhlw.go.jp/41/index.php?action_kouhyou_detail_004_kani=true&JigyosyoCd=4171300314-00&ServiceCd=150&Type=search", "url2": null }, "geometry": { "type": "Point", "coordinates": [ 130.2107436, 33.2946853 ] } },
{ "type": "Feature", "properties": { "内容": "デイサービス　光【通所介護】佐賀県小城市三日月町織島３１８３", "url": "https://www.kaigokensaku.mhlw.go.jp/41/index.php?action_kouhyou_detail_004_kani=true&JigyosyoCd=4171300306-00&ServiceCd=150&Type=search", "url2": null }, "geometry": { "type": "Point", "coordinates": [ 130.23234709999997, 33.301047 ] } },
{ "type": "Feature", "properties": { "内容": "デイサービス光　２号館【通所介護】小城市三日月町織島３１９７番地９", "url": "https://www.kaigokensaku.mhlw.go.jp/41/index.php?action_kouhyou_detail_004_kani=true&JigyosyoCd=4171300363-00&ServiceCd=150&Type=search", "url2": null }, "geometry": { "type": "Point", "coordinates": [ 130.2332053, 33.3016414 ] } },
{ "type": "Feature", "properties": { "内容": "デイサービス光芦刈館【通所介護】芦刈館三王崎390－6", "url": "https://www.kaigokensaku.mhlw.go.jp/41/index.php?action_kouhyou_detail_004_kani=true&JigyosyoCd=4171300439-00&ServiceCd=150&Type=search", "url2": null }, "geometry": { "type": "Point", "coordinates": [ 130.207031700000016, 33.2195165 ] } },
{ "type": "Feature", "properties": { "内容": "あっとホーム柔【通所介護】嬉野市嬉野町大字下野甲2255", "url": "https://www.kaigokensaku.mhlw.go.jp/41/index.php?action_kouhyou_detail_004_kani=true&JigyosyoCd=4170900171-00&ServiceCd=150&Type=search", "url2": null }, "geometry": { "type": "Point", "coordinates": [ 130.005240400000048, 33.0930143 ] } },
{ "type": "Feature", "properties": { "内容": "あっとホーム寿【通所介護】佐賀県嬉野市嬉野町大字吉田丁3618", "url": "https://www.kaigokensaku.mhlw.go.jp/41/index.php?action_kouhyou_detail_004_kani=true&JigyosyoCd=4170900288-00&ServiceCd=150&Type=search", "url2": "https://nmc-athome.com/" }, "geometry": { "type": "Point", "coordinates": [ 130.015497800000048, 33.0832852 ] } },
{ "type": "Feature", "properties": { "内容": "デイサービスセンターうれしの【通所介護】佐賀県嬉野市嬉野町大字下宿甲2088", "url": "https://www.kaigokensaku.mhlw.go.jp/41/index.php?action_kouhyou_detail_004_kani=true&JigyosyoCd=4171700059-00&ServiceCd=150&Type=search", "url2": "http：//tokuyou-ureshino.jp/" }, "geometry": { "type": "Point", "coordinates": [ 129.992402500000026, 33.111745 ] } },
{ "type": "Feature", "properties": { "内容": "ともなが介護院【通所介護】佐賀県嬉野市嬉野町大字下宿字楓ノ木乙９００番地", "url": "https://www.kaigokensaku.mhlw.go.jp/41/index.php?action_kouhyou_detail_004_kani=true&JigyosyoCd=4111710663-00&ServiceCd=150&Type=search", "url2": "https://www,tomonaga-kaigoin,com" }, "geometry": { "type": "Point", "coordinates": [ 129.984084698008672, 33.096511564914927 ] } },
{ "type": "Feature", "properties": { "内容": "デイサービス花みらい【通所介護】佐賀県嬉野市大字馬場下甲64-1", "url": "https://www.kaigokensaku.mhlw.go.jp/41/index.php?action_kouhyou_detail_004_kani=true&JigyosyoCd=4170700373-00&ServiceCd=150&Type=search", "url2": null }, "geometry": { "type": "Point", "coordinates": [ 130.060114399999946, 33.1280839 ] } },
{ "type": "Feature", "properties": { "内容": "デイサービスふるさと館【通所介護】佐賀県嬉野市嬉野町大字下宿乙2351-33", "url": "https://www.kaigokensaku.mhlw.go.jp/41/index.php?action_kouhyou_detail_004_kani=true&JigyosyoCd=4170900049-00&ServiceCd=150&Type=search", "url2": null }, "geometry": { "type": "Point", "coordinates": [ 129.991325604029214, 33.10071487982183 ] } },
{ "type": "Feature", "properties": { "内容": "デイサービスセンター済昭園【通所介護】佐賀県嬉野市塩田町大字五町田甲３４３２番地１", "url": "https://www.kaigokensaku.mhlw.go.jp/41/index.php?action_kouhyou_detail_004_kani=true&JigyosyoCd=4170900080-00&ServiceCd=150&Type=search", "url2": "http://www.saisyouen.jp/" }, "geometry": { "type": "Point", "coordinates": [ 130.062403099999983, 33.1253621 ] } },
{ "type": "Feature", "properties": { "内容": "デイサービスひなた【通所介護】佐賀県嬉野市嬉野町下宿丁195番地８ディサービス・宅老所・住宅型有料老人ホームひなた", "url": "https://www.kaigokensaku.mhlw.go.jp/41/index.php?action_kouhyou_detail_004_kani=true&JigyosyoCd=4170900205-00&ServiceCd=150&Type=search", "url2": "hotaru-ureshino.jp/" }, "geometry": { "type": "Point", "coordinates": [ 129.965740800000049, 33.1125797 ] } },
{ "type": "Feature", "properties": { "内容": "デイサービスセンンター美笑庵２号館【通所介護】佐賀県嬉野市塩田町大字久間甲996番地", "url": "https://www.kaigokensaku.mhlw.go.jp/41/index.php?action_kouhyou_detail_004_kani=true&JigyosyoCd=4170900239-00&ServiceCd=150&Type=search", "url2": "misyouan2@po.hagakure.ne.jp" }, "geometry": { "type": "Point", "coordinates": [ 130.06531080000002, 33.1472042 ] } },
{ "type": "Feature", "properties": { "内容": "デイサービス宅老所　芽吹き【通所介護】佐賀県嬉野市嬉野町大字下野乙1912番地1", "url": "https://www.kaigokensaku.mhlw.go.jp/41/index.php?action_kouhyou_detail_004_kani=true&JigyosyoCd=4170900247-00&ServiceCd=150&Type=search", "url2": "http://happy-mebuki.com" }, "geometry": { "type": "Point", "coordinates": [ 130.020610362396297, 33.093837693529551 ] } },
{ "type": "Feature", "properties": { "内容": "あっとホームはなまる【通所介護】佐賀県嬉野市嬉野町大字吉田丁３４１７", "url": "https://www.kaigokensaku.mhlw.go.jp/41/index.php?action_kouhyou_detail_004_kani=true&JigyosyoCd=4170900254-00&ServiceCd=150&Type=search", "url2": "http://www.ktknet.ne.jp/hanamaru/" }, "geometry": { "type": "Point", "coordinates": [ 130.011823173649645, 33.088970846897695 ] } },
{ "type": "Feature", "properties": { "内容": "リハプライド嬉野【通所介護】佐賀県嬉野市嬉野町大字吉田丁4535番地2", "url": "https://www.kaigokensaku.mhlw.go.jp/41/index.php?action_kouhyou_detail_004_kani=true&JigyosyoCd=4170900312-00&ServiceCd=150&Type=search", "url2": "https://www.rehapride.co.jp/ureshino/" }, "geometry": { "type": "Point", "coordinates": [ 130.016351093254116, 33.082776053684235 ] } },
{ "type": "Feature", "properties": { "内容": "デイサービスセンター　さいかい【通所介護】佐賀県嬉野市嬉野町大字岩屋川内甲111", "url": "https://www.kaigokensaku.mhlw.go.jp/41/index.php?action_kouhyou_detail_004_kani=true&JigyosyoCd=4170900072-00&ServiceCd=150&Type=search", "url2": null }, "geometry": { "type": "Point", "coordinates": [ 129.985432318389485, 33.09406988022193 ] } },
{ "type": "Feature", "properties": { "内容": "嬉野デイサービスセンター「春風荘」【通所介護】佐賀県嬉野市嬉野町大字下野甲１０５５", "url": "https://www.kaigokensaku.mhlw.go.jp/41/index.php?action_kouhyou_detail_004_kani=true&JigyosyoCd=4171700075-00&ServiceCd=150&Type=search", "url2": "http://tokuyou-ureshino.jp/" }, "geometry": { "type": "Point", "coordinates": [ 129.999432500000012, 33.1015769 ] } },
{ "type": "Feature", "properties": { "内容": "デイサービスセンター　すずらん【通所介護】佐賀県神埼市神埼町永歌２０１５－１", "url": "https://www.kaigokensaku.mhlw.go.jp/41/index.php?action_kouhyou_detail_004_kani=true&JigyosyoCd=4171100136-00&ServiceCd=150&Type=search", "url2": "suzuran-harmony.5@a011.broada.jp" }, "geometry": { "type": "Point", "coordinates": [ 130.3760188, 33.3001443 ] } },
{ "type": "Feature", "properties": { "内容": "こすもす苑　デイサービスセンター【通所介護】佐賀県神埼市千代田町用作２０９９－３", "url": "https://www.kaigokensaku.mhlw.go.jp/41/index.php?action_kouhyou_detail_004_kani=true&JigyosyoCd=4171100011-00&ServiceCd=150&Type=search", "url2": "cosmosen.com" }, "geometry": { "type": "Point", "coordinates": [ 130.379071400000015, 33.2667647 ] } },
{ "type": "Feature", "properties": { "内容": "デイサービスセンター　かんざき清流苑【通所介護】佐賀県神埼市神埼町鶴2927番地2在宅サポートセンターかんざき清流苑", "url": "https://www.kaigokensaku.mhlw.go.jp/41/index.php?action_kouhyou_detail_004_kani=true&JigyosyoCd=4171100037-00&ServiceCd=150&Type=search", "url2": "http://www.saganet.ne.jp/saseishi/top.html" }, "geometry": { "type": "Point", "coordinates": [ 130.3700351, 33.3221697 ] } },
{ "type": "Feature", "properties": { "内容": "デイサービス翠晃【通所介護】佐賀県神埼市神埼町鶴2935番地2", "url": "https://www.kaigokensaku.mhlw.go.jp/41/index.php?action_kouhyou_detail_004_kani=true&JigyosyoCd=4171100110-00&ServiceCd=150&Type=search", "url2": "http://www.shofukai-saga.com" }, "geometry": { "type": "Point", "coordinates": [ 130.3696185, 33.321367 ] } },
{ "type": "Feature", "properties": { "内容": "愛夢かんざきデイサービス【通所介護】佐賀県神埼市神埼町田道ヶ里2220-1", "url": "https://www.kaigokensaku.mhlw.go.jp/41/index.php?action_kouhyou_detail_004_kani=true&JigyosyoCd=4172000152-00&ServiceCd=150&Type=search", "url2": "http://www.aim-kanzaki.jp/column/post-1/" }, "geometry": { "type": "Point", "coordinates": [ 130.375932299999931, 33.3119459 ] } },
{ "type": "Feature", "properties": { "内容": "デイサービス　シニアライフ神埼【通所介護】佐賀県神埼市神埼町鶴3625-1住宅型有料老人ホームシニアライフ神埼", "url": "https://www.kaigokensaku.mhlw.go.jp/41/index.php?action_kouhyou_detail_004_kani=true&JigyosyoCd=4172000285-00&ServiceCd=150&Type=search", "url2": "http://sagakita.com" }, "geometry": { "type": "Point", "coordinates": [ 130.370934764931832, 33.311345502542743 ] } },
{ "type": "Feature", "properties": { "内容": "社会福祉法人久栄会　デイサービスセンターさざんか園【通所介護】佐賀県神埼郡吉野ヶ里町大曲３４７４番地１", "url": "https://www.kaigokensaku.mhlw.go.jp/41/index.php?action_kouhyou_detail_004_kani=true&JigyosyoCd=4171100078-00&ServiceCd=150&Type=search", "url2": "http://kyueikai.com/" }, "geometry": { "type": "Point", "coordinates": [ 130.396674299999972, 33.3429849 ] } },
{ "type": "Feature", "properties": { "内容": "社会福祉法人　吉野ヶ里町社会福祉協議会【通所介護】佐賀県神埼郡吉野ヶ里町豆田１７９０番地三田川健康福祉センター内", "url": "https://www.kaigokensaku.mhlw.go.jp/41/index.php?action_kouhyou_detail_004_kani=true&JigyosyoCd=4171100060-00&ServiceCd=150&Type=search", "url2": "http://www.yoshinogari-shakyo.or.jp" }, "geometry": { "type": "Point", "coordinates": [ 130.398965347221434, 33.314286168456405 ] } },
{ "type": "Feature", "properties": { "内容": "デイサービスセンター寿楽園【通所介護】佐賀県三養基郡基山町大字園部2307番地", "url": "https://www.kaigokensaku.mhlw.go.jp/41/index.php?action_kouhyou_detail_004_kani=true&JigyosyoCd=4171200043-00&ServiceCd=150&Type=search", "url2": "http://www.jurakuen.jp/" }, "geometry": { "type": "Point", "coordinates": [ 130.500796309123217, 33.417783608561649 ] } },
{ "type": "Feature", "properties": { "内容": "デイサービスさくら【通所介護】佐賀県三養基郡基山町大字小倉457-2セカンドライフさくら", "url": "https://www.kaigokensaku.mhlw.go.jp/41/index.php?action_kouhyou_detail_004_kani=true&JigyosyoCd=4171200746-00&ServiceCd=150&Type=search", "url2": null }, "geometry": { "type": "Point", "coordinates": [ 130.520344799999947, 33.4351756 ] } },
{ "type": "Feature", "properties": { "内容": "デイサービスおはな【通所介護】佐賀県三養基郡上峰町大字坊所2553-2", "url": "https://www.kaigokensaku.mhlw.go.jp/41/index.php?action_kouhyou_detail_004_kani=true&JigyosyoCd=4171200662-00&ServiceCd=150&Type=search", "url2": null }, "geometry": { "type": "Point", "coordinates": [ 130.4224428, 33.3370592 ] } },
{ "type": "Feature", "properties": { "内容": "さがケアセンターそよ風【通所介護】佐賀県三養基郡上峰町大字坊所1523－53さがケアセンターそよ風", "url": "https://www.kaigokensaku.mhlw.go.jp/41/index.php?action_kouhyou_detail_004_kani=true&JigyosyoCd=4171200373-00&ServiceCd=150&Type=search", "url2": "http://www.unimat-rc.co.jp/" }, "geometry": { "type": "Point", "coordinates": [ 130.4149926, 33.3309582 ] } },
{ "type": "Feature", "properties": { "内容": "かみみねデイサービスセンター【通所介護】佐賀県三養基郡上峰町大字前牟田１０７番地２", "url": "https://www.kaigokensaku.mhlw.go.jp/41/index.php?action_kouhyou_detail_004_kani=true&JigyosyoCd=4171200563-00&ServiceCd=150&Type=search", "url2": "http://www.miki-hosp.gr.jp" }, "geometry": { "type": "Point", "coordinates": [ 130.423740400000042, 33.3101295 ] } },
{ "type": "Feature", "properties": { "内容": "デイサービスみやき【通所介護】三養基郡みやき町大字中津隈624番地ケアハウスみやき", "url": "https://www.kaigokensaku.mhlw.go.jp/41/index.php?action_kouhyou_detail_004_kani=true&JigyosyoCd=4171200506-00&ServiceCd=150&Type=search", "url2": "https://www.c-pro.jp" }, "geometry": { "type": "Point", "coordinates": [ 130.42841678351445, 33.323440777577481 ] } },
{ "type": "Feature", "properties": { "内容": "デイサービスゆうゆう【通所介護】佐賀県三養基郡みやき町大字天健寺1492番地1", "url": "https://www.kaigokensaku.mhlw.go.jp/41/index.php?action_kouhyou_detail_004_kani=true&JigyosyoCd=4171200712-00&ServiceCd=150&Type=search", "url2": null }, "geometry": { "type": "Point", "coordinates": [ 130.446608883992013, 33.290118226983672 ] } },
{ "type": "Feature", "properties": { "内容": "デイサービスセンターゆうあい【通所介護】佐賀県三養基郡みやき町大字白壁４３０５－３６", "url": "https://www.kaigokensaku.mhlw.go.jp/41/index.php?action_kouhyou_detail_004_kani=true&JigyosyoCd=4111210441-00&ServiceCd=150&Type=search", "url2": null }, "geometry": { "type": "Point", "coordinates": [ 130.460277090212998, 33.345890943687543 ] } },
{ "type": "Feature", "properties": { "内容": "デイサービスセンターひまわり【通所介護】佐賀県三養基郡みやき町大字寄人1924-1", "url": "https://www.kaigokensaku.mhlw.go.jp/41/index.php?action_kouhyou_detail_004_kani=true&JigyosyoCd=4171200167-00&ServiceCd=150&Type=search", "url2": null }, "geometry": { "type": "Point", "coordinates": [ 130.426831219573984, 33.286136514967176 ] } },
{ "type": "Feature", "properties": { "内容": "デイサービス　　なかばる紀水苑【通所介護】佐賀県三養基郡みやき町大字簑原４２６０番地", "url": "https://www.kaigokensaku.mhlw.go.jp/41/index.php?action_kouhyou_detail_004_kani=true&JigyosyoCd=4171200191-00&ServiceCd=150&Type=search", "url2": "http://kisuikai.net/" }, "geometry": { "type": "Point", "coordinates": [ 130.450653628805526, 33.36383508166724 ] } },
{ "type": "Feature", "properties": { "内容": "花のみねデイサービスセンター【通所介護】佐賀県三養基郡みやき町大字西島２７３０番地１", "url": "https://www.kaigokensaku.mhlw.go.jp/41/index.php?action_kouhyou_detail_004_kani=true&JigyosyoCd=4171200209-00&ServiceCd=150&Type=search", "url2": "https://peraichi.com/landing_pages/view/mirai-hananomine1" }, "geometry": { "type": "Point", "coordinates": [ 130.450996600000053, 33.3044642 ] } },
{ "type": "Feature", "properties": { "内容": "玄海町社協デイサービスセンター【通所介護】佐賀県東松浦郡玄海町大字平尾３８０番地１玄海町社協デイサービスセンター", "url": "https://www.kaigokensaku.mhlw.go.jp/41/index.php?action_kouhyou_detail_004_kani=true&JigyosyoCd=4171400023-00&ServiceCd=150&Type=search", "url2": null }, "geometry": { "type": "Point", "coordinates": [ 129.850163946973908, 33.493979050063395 ] } },
{ "type": "Feature", "properties": { "内容": "デイサービスセンター「やすらぎ」【通所介護】佐賀県西松浦郡有田町南原甲６６４番地４", "url": "https://www.kaigokensaku.mhlw.go.jp/41/index.php?action_kouhyou_detail_004_kani=true&JigyosyoCd=4171500012-00&ServiceCd=150&Type=search", "url2": "http://arita-shakyo.com/" }, "geometry": { "type": "Point", "coordinates": [ 129.863893072074916, 33.192892301301917 ] } },
{ "type": "Feature", "properties": { "内容": "通所介護　それいゆホームズ【通所介護】佐賀県西松浦郡有田町二ノ瀬甲1250-1", "url": "https://www.kaigokensaku.mhlw.go.jp/41/index.php?action_kouhyou_detail_004_kani=true&JigyosyoCd=4171500053-00&ServiceCd=150&Type=search", "url2": "http://www.jikou-kai.net/" }, "geometry": { "type": "Point", "coordinates": [ 129.85731, 33.2353217 ] } },
{ "type": "Feature", "properties": { "内容": "社会福祉法人　慈光会　特別養護老人施設　りんでんホームズ【通所介護】佐賀県西松浦郡有田町戸矢乙614-1", "url": "https://www.kaigokensaku.mhlw.go.jp/41/index.php?action_kouhyou_detail_004_kani=true&JigyosyoCd=4171500087-00&ServiceCd=150&Type=search", "url2": "http://www.jikou-kai.net/ｒinden/index.html" }, "geometry": { "type": "Point", "coordinates": [ 129.899439, 33.1622573 ] } },
{ "type": "Feature", "properties": { "内容": "デイサービスセンターさくら苑【通所介護】佐賀県西松浦郡有田町仏ノ原甲1235番地2", "url": "https://www.kaigokensaku.mhlw.go.jp/41/index.php?action_kouhyou_detail_004_kani=true&JigyosyoCd=4171500103-00&ServiceCd=150&Type=search", "url2": null }, "geometry": { "type": "Point", "coordinates": [ 129.855796557672079, 33.198258192673734 ] } },
{ "type": "Feature", "properties": { "内容": "デイサービストリムぬくもいホーム【通所介護】佐賀県西松浦郡有田町立部乙２２３６番地１", "url": "https://www.kaigokensaku.mhlw.go.jp/41/index.php?action_kouhyou_detail_004_kani=true&JigyosyoCd=4171500111-00&ServiceCd=150&Type=search", "url2": "www.nihon-trim.jp" }, "geometry": { "type": "Point", "coordinates": [ 129.849055899999939, 33.2123326 ] } },
{ "type": "Feature", "properties": { "内容": "デイサービス　癒赤坂【通所介護】佐賀県西松浦郡有田町赤坂丙2843-12デイサービス　癒赤坂", "url": "https://www.kaigokensaku.mhlw.go.jp/41/index.php?action_kouhyou_detail_004_kani=true&JigyosyoCd=4171500129-00&ServiceCd=150&Type=search", "url2": "http://yuakasaka.co.jp/" }, "geometry": { "type": "Point", "coordinates": [ 129.871679399999948, 33.1963293 ] } },
{ "type": "Feature", "properties": { "内容": "介護付複合福祉施設　パークハウス・有田【通所介護】佐賀県西松浦郡有田町原明乙114番地1", "url": "https://www.kaigokensaku.mhlw.go.jp/41/index.php?action_kouhyou_detail_004_kani=true&JigyosyoCd=4171500160-00&ServiceCd=150&Type=search", "url2": "http://jikou-kai.net/park/index.html" }, "geometry": { "type": "Point", "coordinates": [ 129.85158099391785, 33.183862100256725 ] } },
{ "type": "Feature", "properties": { "内容": "ケアホーム　笑楽【通所介護】佐賀県杵島郡大町町大字大町4564番地3", "url": "https://www.kaigokensaku.mhlw.go.jp/41/index.php?action_kouhyou_detail_004_kani=true&JigyosyoCd=4171600531-00&ServiceCd=150&Type=search", "url2": null }, "geometry": { "type": "Point", "coordinates": [ 130.114316899999949, 33.222980400000012 ] } },
{ "type": "Feature", "properties": { "内容": "でいさーびす　きぼうのひかり【通所介護】佐賀県杵島郡大町町大字福母1150-1住宅型　有料老人ホーム　七彩のそら", "url": "https://www.kaigokensaku.mhlw.go.jp/41/index.php?action_kouhyou_detail_004_kani=true&JigyosyoCd=4171600648-00&ServiceCd=150&Type=search", "url2": null }, "geometry": { "type": "Point", "coordinates": [ 130.107017600000063, 33.2190946 ] } },
{ "type": "Feature", "properties": { "内容": "老人デイサービスセンター　すみれ園【通所介護】佐賀県杵島郡大町町大字福母3031-1", "url": "https://www.kaigokensaku.mhlw.go.jp/41/index.php?action_kouhyou_detail_004_kani=true&JigyosyoCd=4171600010-00&ServiceCd=150&Type=search", "url2": "http://www.tokuyou-sumire.or.jp/" }, "geometry": { "type": "Point", "coordinates": [ 130.101293, 33.2193 ] } },
{ "type": "Feature", "properties": { "内容": "デイサービス　とっとっと【通所介護】佐賀県杵島郡大町町大字大町8732番地10", "url": "https://www.kaigokensaku.mhlw.go.jp/41/index.php?action_kouhyou_detail_004_kani=true&JigyosyoCd=4171600465-00&ServiceCd=150&Type=search", "url2": null }, "geometry": { "type": "Point", "coordinates": [ 130.11587540000005, 33.2118954 ] } },
{ "type": "Feature", "properties": { "内容": "(株)優和会いこいの家【通所介護】佐賀県杵島郡江北町惣領分3691-10", "url": "https://www.kaigokensaku.mhlw.go.jp/41/index.php?action_kouhyou_detail_004_kani=true&JigyosyoCd=4171600432-00&ServiceCd=150&Type=search", "url2": "https://ikoinoie.jimdo.com/" }, "geometry": { "type": "Point", "coordinates": [ 130.1821562, 33.217868099999983 ] } },
{ "type": "Feature", "properties": { "内容": "江北町社会福祉協議会デイサービスセンター【通所介護】佐賀県杵島郡江北町大字山口2637番地7江北町老人福祉センター", "url": "https://www.kaigokensaku.mhlw.go.jp/41/index.php?action_kouhyou_detail_004_kani=true&JigyosyoCd=4171600051-00&ServiceCd=150&Type=search", "url2": null }, "geometry": { "type": "Point", "coordinates": [ 130.149592200000029, 33.2167122 ] } },
{ "type": "Feature", "properties": { "内容": "げんき村弐号館【通所介護】佐賀県杵島郡江北町大字下小田985-2", "url": "https://www.kaigokensaku.mhlw.go.jp/41/index.php?action_kouhyou_detail_004_kani=true&JigyosyoCd=4170600805-00&ServiceCd=150&Type=search", "url2": null }, "geometry": { "type": "Point", "coordinates": [ 130.141988, 33.2101016 ] } },
{ "type": "Feature", "properties": { "内容": "寄り合い所「すいれん」【通所介護】佐賀県杵島郡江北町大字山口３３９９番１寄り合い所「すいれん」", "url": "https://www.kaigokensaku.mhlw.go.jp/41/index.php?action_kouhyou_detail_004_kani=true&JigyosyoCd=4171600408-00&ServiceCd=150&Type=search", "url2": null }, "geometry": { "type": "Point", "coordinates": [ 130.15766659999997, 33.2211395 ] } },
{ "type": "Feature", "properties": { "内容": "デイサービスセンターげんき村【通所介護】大字上小田1089番地1", "url": "https://www.kaigokensaku.mhlw.go.jp/41/index.php?action_kouhyou_detail_004_kani=true&JigyosyoCd=4171600705-00&ServiceCd=150&Type=search", "url2": null }, "geometry": { "type": "Point", "coordinates": [ 130.1377575, 33.2180202 ] } },
{ "type": "Feature", "properties": { "内容": "デイサービスそいよかね白石【通所介護】佐賀県杵島郡白石町福田1268-１", "url": "https://www.kaigokensaku.mhlw.go.jp/41/index.php?action_kouhyou_detail_004_kani=true&JigyosyoCd=4171600622-00&ServiceCd=150&Type=search", "url2": "http://www.miz-pharmacy.co.jp" }, "geometry": { "type": "Point", "coordinates": [ 130.138243500000044, 33.1827683 ] } },
{ "type": "Feature", "properties": { "内容": "デイサービスセンター桜の園【通所介護】佐賀県杵島郡白石町大字福富下分2387番地3", "url": "https://www.kaigokensaku.mhlw.go.jp/41/index.php?action_kouhyou_detail_004_kani=true&JigyosyoCd=4171600028-00&ServiceCd=150&Type=search", "url2": "http://www.sakuranosono.biz" }, "geometry": { "type": "Point", "coordinates": [ 130.198964, 33.1923049 ] } },
{ "type": "Feature", "properties": { "内容": "デイサービスセンターうたがきの里【通所介護】佐賀県杵島郡白石町大字築切264-2", "url": "https://www.kaigokensaku.mhlw.go.jp/41/index.php?action_kouhyou_detail_004_kani=true&JigyosyoCd=4171600093-00&ServiceCd=150&Type=search", "url2": "https://www.cableone.ne.jp/~utagaki-sato/" }, "geometry": { "type": "Point", "coordinates": [ 130.1459294, 33.16707 ] } },
{ "type": "Feature", "properties": { "内容": "デイサービスいこい【通所介護】大字築切1146-1住宅型有料老人ホーム・デイサービスいこい", "url": "https://www.kaigokensaku.mhlw.go.jp/41/index.php?action_kouhyou_detail_004_kani=true&JigyosyoCd=4171600481-00&ServiceCd=150&Type=search", "url2": null }, "geometry": { "type": "Point", "coordinates": [ 130.14770980000003, 33.1654285 ] } },
{ "type": "Feature", "properties": { "内容": "デイサービス白石の杜【通所介護】佐賀県杵島郡白石町大字東郷１３０７番地３有料老人ホーム白石の杜", "url": "https://www.kaigokensaku.mhlw.go.jp/41/index.php?action_kouhyou_detail_004_kani=true&JigyosyoCd=4171600507-00&ServiceCd=150&Type=search", "url2": null }, "geometry": { "type": "Point", "coordinates": [ 130.140009969252105, 33.191427342418585 ] } },
{ "type": "Feature", "properties": { "内容": "デイサービス小葉音【通所介護】大字福富下分2852", "url": "https://www.kaigokensaku.mhlw.go.jp/41/index.php?action_kouhyou_detail_004_kani=true&JigyosyoCd=4171600556-00&ServiceCd=150&Type=search", "url2": null }, "geometry": { "type": "Point", "coordinates": [ 130.194817100000023, 33.1979182 ] } },
{ "type": "Feature", "properties": { "内容": "デイサービスよろこび【通所介護】佐賀県杵島郡白石町大字田野上25番1", "url": "https://www.kaigokensaku.mhlw.go.jp/41/index.php?action_kouhyou_detail_004_kani=true&JigyosyoCd=4171600689-00&ServiceCd=150&Type=search", "url2": null }, "geometry": { "type": "Point", "coordinates": [ 130.1158264, 33.1560829 ] } },
{ "type": "Feature", "properties": { "内容": "デイサービス　季楽里【通所介護】佐賀県杵島郡白石町大字福田１６１９番地８", "url": "https://www.kaigokensaku.mhlw.go.jp/41/index.php?action_kouhyou_detail_004_kani=true&JigyosyoCd=4171600515-00&ServiceCd=150&Type=search", "url2": "t-art-kirari02@ceres.ocn.ne.jp" }, "geometry": { "type": "Point", "coordinates": [ 130.138240799999949, 33.18276 ] } },
{ "type": "Feature", "properties": { "内容": "光風荘デイサービスセンター【通所介護】佐賀県藤津郡太良町大字多良1849番地9", "url": "https://www.kaigokensaku.mhlw.go.jp/41/index.php?action_kouhyou_detail_004_kani=true&JigyosyoCd=4171700026-00&ServiceCd=150&Type=search", "url2": null }, "geometry": { "type": "Point", "coordinates": [ 130.178892799999971, 33.0280597 ] } },
{ "type": "Feature", "properties": { "内容": "ぬくもいホームたら【通所介護】佐賀県藤津郡太良町大字多良2052番地", "url": "https://www.kaigokensaku.mhlw.go.jp/41/index.php?action_kouhyou_detail_004_kani=true&JigyosyoCd=4171700216-00&ServiceCd=150&Type=search", "url2": "hrrp://yutatari.org" }, "geometry": { "type": "Point", "coordinates": [ 130.1729153, 33.0282568 ] } }
]
}
