{
"type": "FeatureCollection",
"name": "geo_41_認知症対応型共同生活介護",
"crs": { "type": "name", "properties": { "name": "urn:ogc:def:crs:OGC:1.3:CRS84" } },
"features": [
{ "type": "Feature", "properties": { "内容": "グループホーム福寿荘【認知症対応型共同生活介護】佐賀県佐賀市西与賀町大字厘外1236番地7", "url": "https://www.kaigokensaku.mhlw.go.jp/41/index.php?action_kouhyou_detail_004_kani=true&JigyosyoCd=4190100372-00&ServiceCd=320&Type=search", "url2": "http://www.sagareha.or.jp/main/379.html" }, "geometry": { "type": "Point", "coordinates": [ 130.276840167389651, 33.236011482450699 ] } },
{ "type": "Feature", "properties": { "内容": "グループホームさつき苑西与賀【認知症対応型共同生活介護】佐賀市西与賀町大字厘外849番5号", "url": "https://www.kaigokensaku.mhlw.go.jp/41/index.php?action_kouhyou_detail_004_kani=true&JigyosyoCd=4170100574-00&ServiceCd=320&Type=search", "url2": null }, "geometry": { "type": "Point", "coordinates": [ 130.2806213, 33.2386142 ] } },
{ "type": "Feature", "properties": { "内容": "グループホームさつき苑高木瀬【認知症対応型共同生活介護】佐賀市高木瀬町大字長瀬299-1", "url": "https://www.kaigokensaku.mhlw.go.jp/41/index.php?action_kouhyou_detail_004_kani=true&JigyosyoCd=4190100034-00&ServiceCd=320&Type=search", "url2": null }, "geometry": { "type": "Point", "coordinates": [ 130.298507, 33.2909934 ] } },
{ "type": "Feature", "properties": { "内容": "ニチイケアセンター鍋島【認知症対応型共同生活介護】佐賀市鍋島３丁目１４－２１", "url": "https://www.kaigokensaku.mhlw.go.jp/41/index.php?action_kouhyou_detail_004_kani=true&JigyosyoCd=4190100158-00&ServiceCd=320&Type=search", "url2": "http://www.nichiigakkan.co.jp" }, "geometry": { "type": "Point", "coordinates": [ 130.264898499999958, 33.2801713 ] } },
{ "type": "Feature", "properties": { "内容": "グループホーム　ホットライフ【認知症対応型共同生活介護】佐賀県佐賀市鍋島町大字森田８２番地10グループホーム　ホットライフ", "url": "https://www.kaigokensaku.mhlw.go.jp/41/index.php?action_kouhyou_detail_004_kani=true&JigyosyoCd=4170100657-00&ServiceCd=320&Type=search", "url2": "http://4970.net/home/" }, "geometry": { "type": "Point", "coordinates": [ 130.270387300000039, 33.2709027 ] } },
{ "type": "Feature", "properties": { "内容": "有限会社　介援隊【認知症対応型共同生活介護】佐賀市蓮池町大字小松843番地2", "url": "https://www.kaigokensaku.mhlw.go.jp/41/index.php?action_kouhyou_detail_004_kani=true&JigyosyoCd=4170101036-00&ServiceCd=320&Type=search", "url2": "http://www.grouphome-ailand.com/group.php" }, "geometry": { "type": "Point", "coordinates": [ 130.366954299999946, 33.2453904 ] } },
{ "type": "Feature", "properties": { "内容": "グループホーム　青空【認知症対応型共同生活介護】佐賀県佐賀市神野西4丁目12番12号", "url": "https://www.kaigokensaku.mhlw.go.jp/41/index.php?action_kouhyou_detail_004_kani=true&JigyosyoCd=4190100018-00&ServiceCd=320&Type=search", "url2": null }, "geometry": { "type": "Point", "coordinates": [ 130.2862781, 33.2691478 ] } },
{ "type": "Feature", "properties": { "内容": "グループホーム　楠の木園【認知症対応型共同生活介護】佐賀市川副町大字鹿江869-1", "url": "https://www.kaigokensaku.mhlw.go.jp/41/index.php?action_kouhyou_detail_004_kani=true&JigyosyoCd=4171000187-00&ServiceCd=320&Type=search", "url2": null }, "geometry": { "type": "Point", "coordinates": [ 130.316742435780185, 33.191086969725518 ] } },
{ "type": "Feature", "properties": { "内容": "グループホーム　ふじおか【認知症対応型共同生活介護】佐賀市大和町大字尼寺2679番地1", "url": "https://www.kaigokensaku.mhlw.go.jp/41/index.php?action_kouhyou_detail_004_kani=true&JigyosyoCd=4190100265-00&ServiceCd=320&Type=search", "url2": "https://www.fjok-hsp.com/group-home-fjok" }, "geometry": { "type": "Point", "coordinates": [ 130.283905798564092, 33.307481147128215 ] } },
{ "type": "Feature", "properties": { "内容": "ケアホームどんぐり【認知症対応型共同生活介護】佐賀市嘉瀬町中原1676番地3", "url": "https://www.kaigokensaku.mhlw.go.jp/41/index.php?action_kouhyou_detail_004_kani=true&JigyosyoCd=4110115799-00&ServiceCd=320&Type=search", "url2": "http://www.shimada.or.jp" }, "geometry": { "type": "Point", "coordinates": [ 130.259415656562169, 33.23894409976068 ] } },
{ "type": "Feature", "properties": { "内容": "グループホーム　和泉【認知症対応型共同生活介護】佐賀市久保泉町大字川久保５４５７", "url": "https://www.kaigokensaku.mhlw.go.jp/41/index.php?action_kouhyou_detail_004_kani=true&JigyosyoCd=4150180018-00&ServiceCd=320&Type=search", "url2": "http://seiyukai.org/" }, "geometry": { "type": "Point", "coordinates": [ 130.3256493, 33.3398647 ] } },
{ "type": "Feature", "properties": { "内容": "グループホーム　きりん【認知症対応型共同生活介護】佐賀市金立町薬師丸1274-1グループホーム　きりん", "url": "https://www.kaigokensaku.mhlw.go.jp/41/index.php?action_kouhyou_detail_004_kani=true&JigyosyoCd=4150180042-00&ServiceCd=320&Type=search", "url2": "http://www.kirin-saga.or.jp" }, "geometry": { "type": "Point", "coordinates": [ 130.314688499999988, 33.3023567 ] } },
{ "type": "Feature", "properties": { "内容": "グループホーム　かえで【認知症対応型共同生活介護】佐賀県佐賀市川副町大字早津江263", "url": "https://www.kaigokensaku.mhlw.go.jp/41/index.php?action_kouhyou_detail_004_kani=true&JigyosyoCd=4151080043-00&ServiceCd=320&Type=search", "url2": null }, "geometry": { "type": "Point", "coordinates": [ 130.335735800000066, 33.2054549 ] } },
{ "type": "Feature", "properties": { "内容": "グループホーム　シオンの園　くつろ樹【認知症対応型共同生活介護】佐賀県佐賀市大和町大字久留間3865-1", "url": "https://www.kaigokensaku.mhlw.go.jp/41/index.php?action_kouhyou_detail_004_kani=true&JigyosyoCd=4161090032-00&ServiceCd=320&Type=search", "url2": "http://www2saganet.ne.jp/zion" }, "geometry": { "type": "Point", "coordinates": [ 130.2433294, 33.3123104 ] } },
{ "type": "Feature", "properties": { "内容": "嘉瀬紀水苑【認知症対応型共同生活介護】佐賀県佐賀市嘉瀬町大字荻野６９８番地嘉瀬紀水苑", "url": "https://www.kaigokensaku.mhlw.go.jp/41/index.php?action_kouhyou_detail_004_kani=true&JigyosyoCd=4170100459-00&ServiceCd=320&Type=search", "url2": null }, "geometry": { "type": "Point", "coordinates": [ 130.249608257780437, 33.247258537468618 ] } },
{ "type": "Feature", "properties": { "内容": "グループホーム明日葉【認知症対応型共同生活介護】佐賀県佐賀市金立町大字金立1844-3", "url": "https://www.kaigokensaku.mhlw.go.jp/41/index.php?action_kouhyou_detail_004_kani=true&JigyosyoCd=4170100509-00&ServiceCd=320&Type=search", "url2": "http://hyu-mu.jp/" }, "geometry": { "type": "Point", "coordinates": [ 130.302994399999989, 33.3192937 ] } },
{ "type": "Feature", "properties": { "内容": "グループホーム　佑紀苑佐賀【認知症対応型共同生活介護】佐賀県佐賀市兵庫町大字若宮字野中2125番地1", "url": "https://www.kaigokensaku.mhlw.go.jp/41/index.php?action_kouhyou_detail_004_kani=true&JigyosyoCd=4170100632-00&ServiceCd=320&Type=search", "url2": null }, "geometry": { "type": "Point", "coordinates": [ 130.322919899999988, 33.2857154 ] } },
{ "type": "Feature", "properties": { "内容": "グループホーム　長寿の里【認知症対応型共同生活介護】佐賀市北川副町大字光法1593-1", "url": "https://www.kaigokensaku.mhlw.go.jp/41/index.php?action_kouhyou_detail_004_kani=true&JigyosyoCd=4170100665-00&ServiceCd=320&Type=search", "url2": "senjuen@fine.ocn.ne.jp" }, "geometry": { "type": "Point", "coordinates": [ 130.32925309999996, 33.2332938 ] } },
{ "type": "Feature", "properties": { "内容": "グループホームシオンの園末広【認知症対応型共同生活介護】佐賀県佐賀市末広1丁目９－２８", "url": "https://www.kaigokensaku.mhlw.go.jp/41/index.php?action_kouhyou_detail_004_kani=true&JigyosyoCd=4170100699-00&ServiceCd=320&Type=search", "url2": "http://www2.saganet.ne.jp/zion" }, "geometry": { "type": "Point", "coordinates": [ 130.278726706115748, 33.245438147666327 ] } },
{ "type": "Feature", "properties": { "内容": "銀子堂【認知症対応型共同生活介護】佐賀市中の小路４－１６", "url": "https://www.kaigokensaku.mhlw.go.jp/41/index.php?action_kouhyou_detail_004_kani=true&JigyosyoCd=4170100731-00&ServiceCd=320&Type=search", "url2": null }, "geometry": { "type": "Point", "coordinates": [ 130.298322977909834, 33.252813860452299 ] } },
{ "type": "Feature", "properties": { "内容": "鍋島紀水苑　さくら【認知症対応型共同生活介護】佐賀県佐賀市鍋島町蛎久１９９２番地１", "url": "https://www.kaigokensaku.mhlw.go.jp/41/index.php?action_kouhyou_detail_004_kani=true&JigyosyoCd=4170100814-00&ServiceCd=320&Type=search", "url2": "http://www.grouphome-sakura.com" }, "geometry": { "type": "Point", "coordinates": [ 130.277080699999942, 33.2938372 ] } },
{ "type": "Feature", "properties": { "内容": "グループホームなごみ【認知症対応型共同生活介護】佐賀市富士町大字小副川562", "url": "https://www.kaigokensaku.mhlw.go.jp/41/index.php?action_kouhyou_detail_004_kani=true&JigyosyoCd=4171000047-00&ServiceCd=320&Type=search", "url2": "https://www.kenjyu-nagomi.jp" }, "geometry": { "type": "Point", "coordinates": [ 130.24371769933623, 33.365710841922443 ] } },
{ "type": "Feature", "properties": { "内容": "グループホーム　やどりぎ【認知症対応型共同生活介護】佐賀市大和町大字久池井1635番地", "url": "https://www.kaigokensaku.mhlw.go.jp/41/index.php?action_kouhyou_detail_004_kani=true&JigyosyoCd=4171000161-00&ServiceCd=320&Type=search", "url2": "http://seiyuukai.org/" }, "geometry": { "type": "Point", "coordinates": [ 130.288762600000041, 33.3172796 ] } },
{ "type": "Feature", "properties": { "内容": "グループホーム　ももえん【認知症対応型共同生活介護】佐賀県佐賀市川副町大字小々森1260番地1", "url": "https://www.kaigokensaku.mhlw.go.jp/41/index.php?action_kouhyou_detail_004_kani=true&JigyosyoCd=4171000252-00&ServiceCd=320&Type=search", "url2": null }, "geometry": { "type": "Point", "coordinates": [ 130.302298364361604, 33.195973826218925 ] } },
{ "type": "Feature", "properties": { "内容": "グループホーム　シオンの園　川上【認知症対応型共同生活介護】佐賀県佐賀市大和町大字川上587-1", "url": "https://www.kaigokensaku.mhlw.go.jp/41/index.php?action_kouhyou_detail_004_kani=true&JigyosyoCd=4171000310-00&ServiceCd=320&Type=search", "url2": "https://www.zion.or.jp" }, "geometry": { "type": "Point", "coordinates": [ 130.266708200000039, 33.3221375 ] } },
{ "type": "Feature", "properties": { "内容": "有限会社　風　グループホーム　たんぽぽ【認知症対応型共同生活介護】佐賀県佐賀市久保田町新田3475の5", "url": "https://www.kaigokensaku.mhlw.go.jp/41/index.php?action_kouhyou_detail_004_kani=true&JigyosyoCd=4171000336-00&ServiceCd=320&Type=search", "url2": null }, "geometry": { "type": "Point", "coordinates": [ 130.248902, 33.2253815 ] } },
{ "type": "Feature", "properties": { "内容": "医療法人至誠会　グループホームあかり【認知症対応型共同生活介護】本庄町大字本庄264番地1", "url": "https://www.kaigokensaku.mhlw.go.jp/41/index.php?action_kouhyou_detail_004_kani=true&JigyosyoCd=4190100166-00&ServiceCd=320&Type=search", "url2": "http://www.shiseikai-g.or.jp/" }, "geometry": { "type": "Point", "coordinates": [ 130.292778951159676, 33.238167446805875 ] } },
{ "type": "Feature", "properties": { "内容": "グループホーム　シオンの園　片田江【認知症対応型共同生活介護】佐賀県佐賀市水ヶ江二丁目９番２０号", "url": "https://www.kaigokensaku.mhlw.go.jp/41/index.php?action_kouhyou_detail_004_kani=true&JigyosyoCd=4190100190-00&ServiceCd=320&Type=search", "url2": "https://www.zion.or.jp/" }, "geometry": { "type": "Point", "coordinates": [ 130.309365599999978, 33.2489392 ] } },
{ "type": "Feature", "properties": { "内容": "グループホーム　ふろふき【認知症対応型共同生活介護】佐賀市諸富町大字大堂１０４９－３", "url": "https://www.kaigokensaku.mhlw.go.jp/41/index.php?action_kouhyou_detail_004_kani=true&JigyosyoCd=4190100208-00&ServiceCd=320&Type=search", "url2": "http://moriyama-clinic.com/" }, "geometry": { "type": "Point", "coordinates": [ 130.354986899999972, 33.2356436 ] } },
{ "type": "Feature", "properties": { "内容": "グループホーム三瀬【認知症対応型共同生活介護】佐賀県佐賀市三瀬村三瀬38番地1", "url": "https://www.kaigokensaku.mhlw.go.jp/41/index.php?action_kouhyou_detail_004_kani=true&JigyosyoCd=4190100216-00&ServiceCd=320&Type=search", "url2": "http://www.saganet.ne.jp/KEIAIKAI/" }, "geometry": { "type": "Point", "coordinates": [ 130.270774, 33.4378265 ] } },
{ "type": "Feature", "properties": { "内容": "医療法人　春陽会　グループホームうえむら【認知症対応型共同生活介護】佐賀県佐賀市兵庫町大字渕1872番地1", "url": "https://www.kaigokensaku.mhlw.go.jp/41/index.php?action_kouhyou_detail_004_kani=true&JigyosyoCd=4190100224-00&ServiceCd=320&Type=search", "url2": "shunyoukai.jp" }, "geometry": { "type": "Point", "coordinates": [ 130.315934067983989, 33.280284122418344 ] } },
{ "type": "Feature", "properties": { "内容": "ケアホームひょうたん島【認知症対応型共同生活介護】佐賀市久保田町大字久富2852番地", "url": "https://www.kaigokensaku.mhlw.go.jp/41/index.php?action_kouhyou_detail_004_kani=true&JigyosyoCd=4190100240-00&ServiceCd=320&Type=search", "url2": "http://www.shimada.or.jp/" }, "geometry": { "type": "Point", "coordinates": [ 130.230891200663791, 33.246706400000015 ] } },
{ "type": "Feature", "properties": { "内容": "医療法人　春陽会　グループホームうえむら弐番館【認知症対応型共同生活介護】佐賀県佐賀市兵庫町大字渕1872番地1", "url": "https://www.kaigokensaku.mhlw.go.jp/41/index.php?action_kouhyou_detail_004_kani=true&JigyosyoCd=4190100257-00&ServiceCd=320&Type=search", "url2": "shunyoukai.jp" }, "geometry": { "type": "Point", "coordinates": [ 130.315965890212965, 33.280332684447288 ] } },
{ "type": "Feature", "properties": { "内容": "グル－プホ－ム　寿【認知症対応型共同生活介護】佐賀市嘉瀬町大字扇町２３３７-２", "url": "https://www.kaigokensaku.mhlw.go.jp/41/index.php?action_kouhyou_detail_004_kani=true&JigyosyoCd=4190100273-00&ServiceCd=320&Type=search", "url2": null }, "geometry": { "type": "Point", "coordinates": [ 130.265174867105912, 33.244804369702976 ] } },
{ "type": "Feature", "properties": { "内容": "グループホーム吉原【認知症対応型共同生活介護】北川副町大字新郷654-1医療法人智仁会　夢館", "url": "https://www.kaigokensaku.mhlw.go.jp/41/index.php?action_kouhyou_detail_004_kani=true&JigyosyoCd=4190100307-00&ServiceCd=320&Type=search", "url2": "https://www.yumekan.jp/main/1.html" }, "geometry": { "type": "Point", "coordinates": [ 130.312018500000022, 33.2369709 ] } },
{ "type": "Feature", "properties": { "内容": "グループホーム　シオンの園　くつろ樹２号館【認知症対応型共同生活介護】佐賀県佐賀市大和町大字久留間３８６５番地１", "url": "https://www.kaigokensaku.mhlw.go.jp/41/index.php?action_kouhyou_detail_004_kani=true&JigyosyoCd=4190100422-00&ServiceCd=320&Type=search", "url2": "http://www2saganet.ne.jp/zion" }, "geometry": { "type": "Point", "coordinates": [ 130.2433294, 33.3123104 ] } },
{ "type": "Feature", "properties": { "内容": "グループホーム　シニアライフ本庄【認知症対応型共同生活介護】佐賀県佐賀市本庄町鹿子9-3グループホーム　シニアライフ本庄", "url": "https://www.kaigokensaku.mhlw.go.jp/41/index.php?action_kouhyou_detail_004_kani=true&JigyosyoCd=4190100448-00&ServiceCd=320&Type=search", "url2": null }, "geometry": { "type": "Point", "coordinates": [ 130.293582850926214, 33.230163610451577 ] } },
{ "type": "Feature", "properties": { "内容": "グループホーム　ふろふき　2号館【認知症対応型共同生活介護】佐賀県佐賀市諸富町大字大堂　1049-3", "url": "https://www.kaigokensaku.mhlw.go.jp/41/index.php?action_kouhyou_detail_004_kani=true&JigyosyoCd=4190100497-00&ServiceCd=320&Type=search", "url2": "http://moriyama-clinic.com" }, "geometry": { "type": "Point", "coordinates": [ 130.354986899999972, 33.2356436 ] } },
{ "type": "Feature", "properties": { "内容": "グループホーム　ディーフェスタ東与賀【認知症対応型共同生活介護】佐賀市東与賀町飯盛224-1グループホーム　ディーフェスタ東与賀", "url": "https://www.kaigokensaku.mhlw.go.jp/41/index.php?action_kouhyou_detail_004_kani=true&JigyosyoCd=4190100547-00&ServiceCd=320&Type=search", "url2": "https://www.daiwaliving-care.co.jp/" }, "geometry": { "type": "Point", "coordinates": [ 130.285093499999988, 33.2137778 ] } },
{ "type": "Feature", "properties": { "内容": "グループホームほうむ川上【認知症対応型共同生活介護】佐賀県佐賀市大和町大字川上760", "url": "https://www.kaigokensaku.mhlw.go.jp/41/index.php?action_kouhyou_detail_004_kani=true&JigyosyoCd=4190100570-00&ServiceCd=320&Type=search", "url2": null }, "geometry": { "type": "Point", "coordinates": [ 130.2552345, 33.3180907 ] } },
{ "type": "Feature", "properties": { "内容": "グループホームシニアライフ佐賀3号館【認知症対応型共同生活介護】佐賀市高木瀬町長瀬1294-1シニアライフ佐賀3号館", "url": "https://www.kaigokensaku.mhlw.go.jp/41/index.php?action_kouhyou_detail_004_kani=true&JigyosyoCd=4190100661-00&ServiceCd=320&Type=search", "url2": "http://sagakita.com" }, "geometry": { "type": "Point", "coordinates": [ 130.281278666934185, 33.292282816101526 ] } },
{ "type": "Feature", "properties": { "内容": "グループホーム　ふろふき３号館【認知症対応型共同生活介護】佐賀県佐賀市諸富町大字大堂　1003番地1", "url": "https://www.kaigokensaku.mhlw.go.jp/41/index.php?action_kouhyou_detail_004_kani=true&JigyosyoCd=4190100729-00&ServiceCd=320&Type=search", "url2": "moriyama-clinic.com" }, "geometry": { "type": "Point", "coordinates": [ 130.355468500000029, 33.235073100000022 ] } },
{ "type": "Feature", "properties": { "内容": "愛の家グループホーム佐賀川副【認知症対応型共同生活介護】佐賀県佐賀市川副町大字鹿江1413-8", "url": "https://www.kaigokensaku.mhlw.go.jp/41/index.php?action_kouhyou_detail_004_kani=true&JigyosyoCd=4190100828-00&ServiceCd=320&Type=search", "url2": "https://mcs-ainoie.com/search/saga/sagashi/gh325" }, "geometry": { "type": "Point", "coordinates": [ 130.3093704, 33.1971129 ] } },
{ "type": "Feature", "properties": { "内容": "グループホームこでまり【認知症対応型共同生活介護】佐賀県佐賀市川副町大字福富828－1", "url": "https://www.kaigokensaku.mhlw.go.jp/41/index.php?action_kouhyou_detail_004_kani=true&JigyosyoCd=4191000019-00&ServiceCd=320&Type=search", "url2": "http://www.keyakisou.or.jp/" }, "geometry": { "type": "Point", "coordinates": [ 130.321751, 33.2113929 ] } },
{ "type": "Feature", "properties": { "内容": "下古賀紀水苑【認知症対応型共同生活介護】佐賀市東与賀町下古賀69-25", "url": "https://www.kaigokensaku.mhlw.go.jp/41/index.php?action_kouhyou_detail_004_kani=true&JigyosyoCd=4170100368-00&ServiceCd=320&Type=search", "url2": "http://toki-kisuien.com/" }, "geometry": { "type": "Point", "coordinates": [ 130.30204470000001, 33.2216028 ] } },
{ "type": "Feature", "properties": { "内容": "西与賀紀水苑【認知症対応型共同生活介護】西与賀町大字高太郎１８３番地１", "url": "https://www.kaigokensaku.mhlw.go.jp/41/index.php?action_kouhyou_detail_004_kani=true&JigyosyoCd=4170100442-00&ServiceCd=320&Type=search", "url2": "http://toki-kisuien.com/" }, "geometry": { "type": "Point", "coordinates": [ 130.268655449459828, 33.224979211042921 ] } },
{ "type": "Feature", "properties": { "内容": "グループホームしのぶ園【認知症対応型共同生活介護】佐賀県佐賀市本庄町大字袋326-20", "url": "https://www.kaigokensaku.mhlw.go.jp/41/index.php?action_kouhyou_detail_004_kani=true&JigyosyoCd=4170100582-00&ServiceCd=320&Type=search", "url2": null }, "geometry": { "type": "Point", "coordinates": [ 130.298955699999965, 33.2406701 ] } },
{ "type": "Feature", "properties": { "内容": "グループホーム　さくら【認知症対応型共同生活介護】佐賀県佐賀市諸富町大字諸富津２０９番地３", "url": "https://www.kaigokensaku.mhlw.go.jp/41/index.php?action_kouhyou_detail_004_kani=true&JigyosyoCd=4171000096-00&ServiceCd=320&Type=search", "url2": "http://fukujukaisaga.com" }, "geometry": { "type": "Point", "coordinates": [ 130.360997099999963, 33.2197317 ] } },
{ "type": "Feature", "properties": { "内容": "立野紀水苑【認知症対応型共同生活介護】佐賀市東与賀町下古賀60-1", "url": "https://www.kaigokensaku.mhlw.go.jp/41/index.php?action_kouhyou_detail_004_kani=true&JigyosyoCd=4171000211-00&ServiceCd=320&Type=search", "url2": "http://toki-kisuien.com/" }, "geometry": { "type": "Point", "coordinates": [ 130.3020947, 33.2218972 ] } },
{ "type": "Feature", "properties": { "内容": "グループホームみんなのいえ【認知症対応型共同生活介護】佐賀市久保泉町川久保８７５番地１", "url": "https://www.kaigokensaku.mhlw.go.jp/41/index.php?action_kouhyou_detail_004_kani=true&JigyosyoCd=4190100059-00&ServiceCd=320&Type=search", "url2": "http://saga.life.coocan.jp/" }, "geometry": { "type": "Point", "coordinates": [ 130.325625100000025, 33.3241523 ] } },
{ "type": "Feature", "properties": { "内容": "医療法人　正和会　グループホーム　夢咲【認知症対応型共同生活介護】佐賀市兵庫北六丁目５番５７号", "url": "https://www.kaigokensaku.mhlw.go.jp/41/index.php?action_kouhyou_detail_004_kani=true&JigyosyoCd=4190100182-00&ServiceCd=320&Type=search", "url2": "http://www.gh-yumesaki.com/" }, "geometry": { "type": "Point", "coordinates": [ 130.312025179831721, 33.27362849224469 ] } },
{ "type": "Feature", "properties": { "内容": "グループホームお茶ばたけ神田【認知症対応型共同生活介護】唐津市神田1209番地10", "url": "https://www.kaigokensaku.mhlw.go.jp/41/index.php?action_kouhyou_detail_004_kani=true&JigyosyoCd=4190200347-00&ServiceCd=320&Type=search", "url2": "http://www.osewa.co.jp" }, "geometry": { "type": "Point", "coordinates": [ 129.955351812303206, 33.437711846005065 ] } },
{ "type": "Feature", "properties": { "内容": "つくしんぼのグループホーム　唐津【認知症対応型共同生活介護】佐賀県唐津市和多田大土井2-35", "url": "https://www.kaigokensaku.mhlw.go.jp/41/index.php?action_kouhyou_detail_004_kani=true&JigyosyoCd=4170200473-00&ServiceCd=320&Type=search", "url2": "http://www.kaigoservice.jp" }, "geometry": { "type": "Point", "coordinates": [ 129.991457173560008, 33.430281469951794 ] } },
{ "type": "Feature", "properties": { "内容": "グループホーム　長寿の里　佐志【認知症対応型共同生活介護】唐津市浦5470番地1", "url": "https://www.kaigokensaku.mhlw.go.jp/41/index.php?action_kouhyou_detail_004_kani=true&JigyosyoCd=4190200321-00&ServiceCd=320&Type=search", "url2": null }, "geometry": { "type": "Point", "coordinates": [ 129.935557099999983, 33.489683 ] } },
{ "type": "Feature", "properties": { "内容": "グループホーム長寿の里相知【認知症対応型共同生活介護】佐賀県唐津市相知町黒岩５１８－２", "url": "https://www.kaigokensaku.mhlw.go.jp/41/index.php?action_kouhyou_detail_004_kani=true&JigyosyoCd=4170200531-00&ServiceCd=320&Type=search", "url2": null }, "geometry": { "type": "Point", "coordinates": [ 130.0035064, 33.3712307 ] } },
{ "type": "Feature", "properties": { "内容": "グループホーム和【認知症対応型共同生活介護】双水２６２６", "url": "https://www.kaigokensaku.mhlw.go.jp/41/index.php?action_kouhyou_detail_004_kani=true&JigyosyoCd=4170200234-00&ServiceCd=320&Type=search", "url2": null }, "geometry": { "type": "Point", "coordinates": [ 129.990007200000036, 33.3972137 ] } },
{ "type": "Feature", "properties": { "内容": "グループホーム西唐津駅前【認知症対応型共同生活介護】佐賀県唐津市西唐津1丁目6167番地", "url": "https://www.kaigokensaku.mhlw.go.jp/41/index.php?action_kouhyou_detail_004_kani=true&JigyosyoCd=4150280024-00&ServiceCd=320&Type=search", "url2": "http://karatsu-kaigo.com/karatsu-first-hospital/" }, "geometry": { "type": "Point", "coordinates": [ 129.956175900000062, 33.462753 ] } },
{ "type": "Feature", "properties": { "内容": "グループホームひだまり【認知症対応型共同生活介護】佐賀県唐津市佐志1146番地11", "url": "https://www.kaigokensaku.mhlw.go.jp/41/index.php?action_kouhyou_detail_004_kani=true&JigyosyoCd=4170200267-00&ServiceCd=320&Type=search", "url2": null }, "geometry": { "type": "Point", "coordinates": [ 129.930610699999988, 33.4656242 ] } },
{ "type": "Feature", "properties": { "内容": "グループホーム　安庵【認知症対応型共同生活介護】佐賀県唐津市佐志１１５６－２６グループホーム　安庵", "url": "https://www.kaigokensaku.mhlw.go.jp/41/index.php?action_kouhyou_detail_004_kani=true&JigyosyoCd=4170200291-00&ServiceCd=320&Type=search", "url2": "https://sites.google.com/view/heartfeel/home" }, "geometry": { "type": "Point", "coordinates": [ 129.9304191, 33.4663324 ] } },
{ "type": "Feature", "properties": { "内容": "グループホーム伸＆茉衣【認知症対応型共同生活介護】唐津市佐志２１１９番地２", "url": "https://www.kaigokensaku.mhlw.go.jp/41/index.php?action_kouhyou_detail_004_kani=true&JigyosyoCd=4170200382-00&ServiceCd=320&Type=search", "url2": "ghnobuandmai@aroma.ocn.ne.jp" }, "geometry": { "type": "Point", "coordinates": [ 129.928580300000021, 33.46831 ] } },
{ "type": "Feature", "properties": { "内容": "グループホームひだまりとうげ庵【認知症対応型共同生活介護】佐賀県唐津市山田4025番地1", "url": "https://www.kaigokensaku.mhlw.go.jp/41/index.php?action_kouhyou_detail_004_kani=true&JigyosyoCd=4170200465-00&ServiceCd=320&Type=search", "url2": null }, "geometry": { "type": "Point", "coordinates": [ 129.944688, 33.4086722 ] } },
{ "type": "Feature", "properties": { "内容": "グループホームみかんの里【認知症対応型共同生活介護】唐津市浜玉町南山1938番地1", "url": "https://www.kaigokensaku.mhlw.go.jp/41/index.php?action_kouhyou_detail_004_kani=true&JigyosyoCd=4170200481-00&ServiceCd=320&Type=search", "url2": null }, "geometry": { "type": "Point", "coordinates": [ 130.074741499999959, 33.4320681 ] } },
{ "type": "Feature", "properties": { "内容": "浜玉荘グループホーム【認知症対応型共同生活介護】佐賀県唐津市浜玉町東山田2399番地", "url": "https://www.kaigokensaku.mhlw.go.jp/41/index.php?action_kouhyou_detail_004_kani=true&JigyosyoCd=4171400049-00&ServiceCd=320&Type=search", "url2": "http://k-fukushikai.jp/h_about_riyou.html" }, "geometry": { "type": "Point", "coordinates": [ 130.045613600000024, 33.4300291 ] } },
{ "type": "Feature", "properties": { "内容": "すこやかほ～む　七山【認知症対応型共同生活介護】佐賀県唐津市七山滝川１００１", "url": "https://www.kaigokensaku.mhlw.go.jp/41/index.php?action_kouhyou_detail_004_kani=true&JigyosyoCd=4190200057-00&ServiceCd=320&Type=search", "url2": null }, "geometry": { "type": "Point", "coordinates": [ 130.120619300000044, 33.443533700000017 ] } },
{ "type": "Feature", "properties": { "内容": "ニチイケアセンターこうだ【認知症対応型共同生活介護】佐賀県唐津市神田２１９２番地", "url": "https://www.kaigokensaku.mhlw.go.jp/41/index.php?action_kouhyou_detail_004_kani=true&JigyosyoCd=4190200149-00&ServiceCd=320&Type=search", "url2": "http://www.nichiigakkan.co.jp" }, "geometry": { "type": "Point", "coordinates": [ 129.957584099999963, 33.4452296 ] } },
{ "type": "Feature", "properties": { "内容": "グループホームきたはた１号館【認知症対応型共同生活介護】唐津市北波多岸山４９４－３７", "url": "https://www.kaigokensaku.mhlw.go.jp/41/index.php?action_kouhyou_detail_004_kani=true&JigyosyoCd=4190200206-00&ServiceCd=320&Type=search", "url2": null }, "geometry": { "type": "Point", "coordinates": [ 129.966068274868832, 33.370245959932923 ] } },
{ "type": "Feature", "properties": { "内容": "グループホーム安里【認知症対応型共同生活介護】佐賀県唐津市佐志1156番地34", "url": "https://www.kaigokensaku.mhlw.go.jp/41/index.php?action_kouhyou_detail_004_kani=true&JigyosyoCd=4190200248-00&ServiceCd=320&Type=search", "url2": "https://sites.google.com/view/heartfeel/home" }, "geometry": { "type": "Point", "coordinates": [ 129.9297719, 33.4665074 ] } },
{ "type": "Feature", "properties": { "内容": "グループホームでこぽん【認知症対応型共同生活介護】唐津市浜玉町南山１７９３番地１", "url": "https://www.kaigokensaku.mhlw.go.jp/41/index.php?action_kouhyou_detail_004_kani=true&JigyosyoCd=4190200255-00&ServiceCd=320&Type=search", "url2": null }, "geometry": { "type": "Point", "coordinates": [ 130.062958799999933, 33.4400227 ] } },
{ "type": "Feature", "properties": { "内容": "グループホームきたはた２号館【認知症対応型共同生活介護】佐賀県唐津市北波多岸山４９４－４３", "url": "https://www.kaigokensaku.mhlw.go.jp/41/index.php?action_kouhyou_detail_004_kani=true&JigyosyoCd=4190200271-00&ServiceCd=320&Type=search", "url2": null }, "geometry": { "type": "Point", "coordinates": [ 129.965128523803742, 33.370265540312211 ] } },
{ "type": "Feature", "properties": { "内容": "株式会社　三栄　グループホームすぎの子石志【認知症対応型共同生活介護】唐津市石志3310番地1", "url": "https://www.kaigokensaku.mhlw.go.jp/41/index.php?action_kouhyou_detail_004_kani=true&JigyosyoCd=4190200305-00&ServiceCd=320&Type=search", "url2": "http://www.sun-ei.co.jp" }, "geometry": { "type": "Point", "coordinates": [ 129.96579204275281, 33.392824065924763 ] } },
{ "type": "Feature", "properties": { "内容": "グループホーム　安寿【認知症対応型共同生活介護】唐津市鎮西町高野534－2", "url": "https://www.kaigokensaku.mhlw.go.jp/41/index.php?action_kouhyou_detail_004_kani=true&JigyosyoCd=4190200313-00&ServiceCd=320&Type=search", "url2": "http://heart-feel.com/" }, "geometry": { "type": "Point", "coordinates": [ 129.917335900000012, 33.4902382 ] } },
{ "type": "Feature", "properties": { "内容": "グループホームお茶ばたけ町田【認知症対応型共同生活介護】佐賀県唐津市町田1872-11", "url": "https://www.kaigokensaku.mhlw.go.jp/41/index.php?action_kouhyou_detail_004_kani=true&JigyosyoCd=4190200339-00&ServiceCd=320&Type=search", "url2": "http://www.osewa.co.jp/" }, "geometry": { "type": "Point", "coordinates": [ 129.972252450184669, 33.436485606728283 ] } },
{ "type": "Feature", "properties": { "内容": "グループホーム風【認知症対応型共同生活介護】唐津市呼子町殿ノ浦９２番地１", "url": "https://www.kaigokensaku.mhlw.go.jp/41/index.php?action_kouhyou_detail_004_kani=true&JigyosyoCd=4190200354-00&ServiceCd=320&Type=search", "url2": null }, "geometry": { "type": "Point", "coordinates": [ 129.8931007, 33.5312941 ] } },
{ "type": "Feature", "properties": { "内容": "岬荘グループホーム【認知症対応型共同生活介護】佐賀県唐津市肥前町鶴牧106番地１１", "url": "https://www.kaigokensaku.mhlw.go.jp/41/index.php?action_kouhyou_detail_004_kani=true&JigyosyoCd=4190200362-00&ServiceCd=320&Type=search", "url2": "www.ｋ-fukushikai.jp/" }, "geometry": { "type": "Point", "coordinates": [ 129.835607399999958, 33.4485187 ] } },
{ "type": "Feature", "properties": { "内容": "グループホーム　清華の森【認知症対応型共同生活介護】佐賀県唐津市見借４７４９番地１", "url": "https://www.kaigokensaku.mhlw.go.jp/41/index.php?action_kouhyou_detail_004_kani=true&JigyosyoCd=4190200412-00&ServiceCd=320&Type=search", "url2": null }, "geometry": { "type": "Point", "coordinates": [ 129.93910470000003, 33.4419127 ] } },
{ "type": "Feature", "properties": { "内容": "グループホームひだまり　蓮花【認知症対応型共同生活介護】佐賀県唐津市養母田545番地1", "url": "https://www.kaigokensaku.mhlw.go.jp/41/index.php?action_kouhyou_detail_004_kani=true&JigyosyoCd=4190200438-00&ServiceCd=320&Type=search", "url2": null }, "geometry": { "type": "Point", "coordinates": [ 129.983929799999942, 33.4131423 ] } },
{ "type": "Feature", "properties": { "内容": "唐津市社会福祉協議会認知症対応型共同生活介護事業所おうか【認知症対応型共同生活介護】佐賀県唐津市相賀5134番地2", "url": "https://www.kaigokensaku.mhlw.go.jp/41/index.php?action_kouhyou_detail_004_kani=true&JigyosyoCd=4190200446-00&ServiceCd=320&Type=search", "url2": "http://karatsu-shakyo.or.jp/" }, "geometry": { "type": "Point", "coordinates": [ 129.956382500000018, 33.5140585 ] } },
{ "type": "Feature", "properties": { "内容": "社会福祉法人　唐津福祉会　潮荘グループホーム【認知症対応型共同生活介護】佐賀県唐津市鎮西町打上3075番地1", "url": "https://www.kaigokensaku.mhlw.go.jp/41/index.php?action_kouhyou_detail_004_kani=true&JigyosyoCd=4190200214-00&ServiceCd=320&Type=search", "url2": "http://www.k-fukusikai.jp/" }, "geometry": { "type": "Point", "coordinates": [ 129.901211200000034, 33.5166544 ] } },
{ "type": "Feature", "properties": { "内容": "株式会社　三栄　グループホームすぎの子成和【認知症対応型共同生活介護】佐賀県唐津市和多田西山10番49号", "url": "https://www.kaigokensaku.mhlw.go.jp/41/index.php?action_kouhyou_detail_004_kani=true&JigyosyoCd=4190200495-00&ServiceCd=320&Type=search", "url2": "http://www.sun-ei.co.jp/" }, "geometry": { "type": "Point", "coordinates": [ 129.978483734085103, 33.429023062913288 ] } },
{ "type": "Feature", "properties": { "内容": "唐津市社会福祉協議会認知症対応型共同生活介護事業所きりご【認知症対応型共同生活介護】佐賀県唐津市肥前町切木乙548番地1", "url": "https://www.kaigokensaku.mhlw.go.jp/41/index.php?action_kouhyou_detail_004_kani=true&JigyosyoCd=4190200529-00&ServiceCd=320&Type=search", "url2": null }, "geometry": { "type": "Point", "coordinates": [ 129.883826099999965, 33.4264137 ] } },
{ "type": "Feature", "properties": { "内容": "ゆったりグループホーム【認知症対応型共同生活介護】唐津市北波多岸山３７３－１９", "url": "https://www.kaigokensaku.mhlw.go.jp/41/index.php?action_kouhyou_detail_004_kani=true&JigyosyoCd=4190200545-00&ServiceCd=320&Type=search", "url2": "https://kurino-sato.com/small" }, "geometry": { "type": "Point", "coordinates": [ 129.968520099999978, 33.3737379 ] } },
{ "type": "Feature", "properties": { "内容": "シェアハウス百花【認知症対応型共同生活介護】佐賀県唐津市町田5丁目6番28-2号", "url": "https://www.kaigokensaku.mhlw.go.jp/41/index.php?action_kouhyou_detail_004_kani=true&JigyosyoCd=4190200552-00&ServiceCd=320&Type=search", "url2": "http://www.smile-social-workers.com/" }, "geometry": { "type": "Point", "coordinates": [ 129.972919300000058, 33.4434968 ] } },
{ "type": "Feature", "properties": { "内容": "グループホーム　みどりの森【認知症対応型共同生活介護】佐賀県唐津市見借４７４９番地１", "url": "https://www.kaigokensaku.mhlw.go.jp/41/index.php?action_kouhyou_detail_004_kani=true&JigyosyoCd=4190200628-00&ServiceCd=320&Type=search", "url2": null }, "geometry": { "type": "Point", "coordinates": [ 129.93643, 33.44369 ] } },
{ "type": "Feature", "properties": { "内容": "グループホームお茶ばたけ【認知症対応型共同生活介護】佐賀県唐津市東山801-280", "url": "https://www.kaigokensaku.mhlw.go.jp/41/index.php?action_kouhyou_detail_004_kani=true&JigyosyoCd=4170200150-00&ServiceCd=320&Type=search", "url2": "http://www.osewa.co.jp" }, "geometry": { "type": "Point", "coordinates": [ 129.903638300000011, 33.4257584 ] } },
{ "type": "Feature", "properties": { "内容": "グループホーム　にこやか【認知症対応型共同生活介護】佐賀県唐津市鎮西町名護屋４１９８番地", "url": "https://www.kaigokensaku.mhlw.go.jp/41/index.php?action_kouhyou_detail_004_kani=true&JigyosyoCd=4170200390-00&ServiceCd=320&Type=search", "url2": null }, "geometry": { "type": "Point", "coordinates": [ 129.8691718, 33.5324771 ] } },
{ "type": "Feature", "properties": { "内容": "グループホーム　久里の郷【認知症対応型共同生活介護】佐賀県　唐津市　久里　1130-8", "url": "https://www.kaigokensaku.mhlw.go.jp/41/index.php?action_kouhyou_detail_004_kani=true&JigyosyoCd=4170200507-00&ServiceCd=320&Type=search", "url2": "kurinosato@vc.people-i.ne.jp" }, "geometry": { "type": "Point", "coordinates": [ 129.977108, 33.4051181 ] } },
{ "type": "Feature", "properties": { "内容": "グループホーム　だんらん【認知症対応型共同生活介護】唐津市湊町1133番地3", "url": "https://www.kaigokensaku.mhlw.go.jp/41/index.php?action_kouhyou_detail_004_kani=true&JigyosyoCd=4170200515-00&ServiceCd=320&Type=search", "url2": "http://www.danran.info" }, "geometry": { "type": "Point", "coordinates": [ 129.947052, 33.5231519 ] } },
{ "type": "Feature", "properties": { "内容": "株式会社　三栄　グループホーム　すぎの子【認知症対応型共同生活介護】佐賀県唐津市厳木町岩屋1373番地1", "url": "https://www.kaigokensaku.mhlw.go.jp/41/index.php?action_kouhyou_detail_004_kani=true&JigyosyoCd=4171400197-00&ServiceCd=320&Type=search", "url2": "http.//www.sun‐ei.co.jp/" }, "geometry": { "type": "Point", "coordinates": [ 130.03521939999996, 33.3238064 ] } },
{ "type": "Feature", "properties": { "内容": "グループホームおうち【認知症対応型共同生活介護】唐津市相知町平山上乙1196-1グループホームおうち", "url": "https://www.kaigokensaku.mhlw.go.jp/41/index.php?action_kouhyou_detail_004_kani=true&JigyosyoCd=4171400205-00&ServiceCd=320&Type=search", "url2": null }, "geometry": { "type": "Point", "coordinates": [ 130.015437118771359, 33.313740619179136 ] } },
{ "type": "Feature", "properties": { "内容": "グループホームおうち・緑山【認知症対応型共同生活介護】相知町相知533-28", "url": "https://www.kaigokensaku.mhlw.go.jp/41/index.php?action_kouhyou_detail_004_kani=true&JigyosyoCd=4190200263-00&ServiceCd=320&Type=search", "url2": "https://.care-supprt+ksn.com" }, "geometry": { "type": "Point", "coordinates": [ 130.020937478573643, 33.344170645863855 ] } },
{ "type": "Feature", "properties": { "内容": "栄荘グループホーム【認知症対応型共同生活介護】佐賀県唐津市東唐津2丁目6番22-2", "url": "https://www.kaigokensaku.mhlw.go.jp/41/index.php?action_kouhyou_detail_004_kani=true&JigyosyoCd=4190200453-00&ServiceCd=320&Type=search", "url2": "http://k-hukusikai.jp/" }, "geometry": { "type": "Point", "coordinates": [ 129.9842301, 33.4514765 ] } },
{ "type": "Feature", "properties": { "内容": "グループホームくらのうえ【認知症対応型共同生活介護】鳥栖市蔵上3丁目304", "url": "https://www.kaigokensaku.mhlw.go.jp/41/index.php?action_kouhyou_detail_004_kani=true&JigyosyoCd=4170300257-00&ServiceCd=320&Type=search", "url2": "lsneo@com.jp" }, "geometry": { "type": "Point", "coordinates": [ 130.491017014202839, 33.377000806376849 ] } },
{ "type": "Feature", "properties": { "内容": "グループホームきぼう原古賀センター【認知症対応型共同生活介護】佐賀県鳥栖市原古賀町854番地", "url": "https://www.kaigokensaku.mhlw.go.jp/41/index.php?action_kouhyou_detail_004_kani=true&JigyosyoCd=4170300521-00&ServiceCd=320&Type=search", "url2": "http://www.lsneo.com" }, "geometry": { "type": "Point", "coordinates": [ 130.48361460000001, 33.3738044 ] } },
{ "type": "Feature", "properties": { "内容": "グループホームお元気ハウス【認知症対応型共同生活介護】鳥栖市宿町門戸口1399-1", "url": "https://www.kaigokensaku.mhlw.go.jp/41/index.php?action_kouhyou_detail_004_kani=true&JigyosyoCd=4170300174-00&ServiceCd=320&Type=search", "url2": "http://www5f.biglobe.ne.jp/~ogenki/" }, "geometry": { "type": "Point", "coordinates": [ 130.503312950787404, 33.377499791202688 ] } },
{ "type": "Feature", "properties": { "内容": "グループホームけいしん【認知症対応型共同生活介護】佐賀県鳥栖市原町688-1", "url": "https://www.kaigokensaku.mhlw.go.jp/41/index.php?action_kouhyou_detail_004_kani=true&JigyosyoCd=4170300232-00&ServiceCd=320&Type=search", "url2": "http://www.keisinkai.jp/" }, "geometry": { "type": "Point", "coordinates": [ 130.533072635410548, 33.379196666025159 ] } },
{ "type": "Feature", "properties": { "内容": "グループホームきらく【認知症対応型共同生活介護】佐賀県鳥栖市柚比町１３７番地２", "url": "https://www.kaigokensaku.mhlw.go.jp/41/index.php?action_kouhyou_detail_004_kani=true&JigyosyoCd=4170300380-00&ServiceCd=320&Type=search", "url2": null }, "geometry": { "type": "Point", "coordinates": [ 130.519832179982473, 33.398647053741506 ] } },
{ "type": "Feature", "properties": { "内容": "グループホーム　さくらの樹【認知症対応型共同生活介護】佐賀県鳥栖市柚比町2263-1グループホーム　さくらの樹", "url": "https://www.kaigokensaku.mhlw.go.jp/41/index.php?action_kouhyou_detail_004_kani=true&JigyosyoCd=4170300406-00&ServiceCd=320&Type=search", "url2": null }, "geometry": { "type": "Point", "coordinates": [ 130.513058990139598, 33.396741504790334 ] } },
{ "type": "Feature", "properties": { "内容": "星の丘リビングなの花【認知症対応型共同生活介護】佐賀県鳥栖市桜町1424-7", "url": "https://www.kaigokensaku.mhlw.go.jp/41/index.php?action_kouhyou_detail_004_kani=true&JigyosyoCd=4170300448-00&ServiceCd=320&Type=search", "url2": "https://skymedical.jp/service/hospitalitycarehome/" }, "geometry": { "type": "Point", "coordinates": [ 130.523918, 33.3837213 ] } },
{ "type": "Feature", "properties": { "内容": "グループホーム　どうあん【認知症対応型共同生活介護】鳥栖市山浦町２９７５－５", "url": "https://www.kaigokensaku.mhlw.go.jp/41/index.php?action_kouhyou_detail_004_kani=true&JigyosyoCd=4170300455-00&ServiceCd=320&Type=search", "url2": "http://www.douan.or.jp/" }, "geometry": { "type": "Point", "coordinates": [ 130.485897499999965, 33.3837647 ] } },
{ "type": "Feature", "properties": { "内容": "グループホーム　めぐみ【認知症対応型共同生活介護】鳥栖市儀徳町２９０７番地ー１", "url": "https://www.kaigokensaku.mhlw.go.jp/41/index.php?action_kouhyou_detail_004_kani=true&JigyosyoCd=4170300489-00&ServiceCd=320&Type=search", "url2": null }, "geometry": { "type": "Point", "coordinates": [ 130.4942096, 33.3522119 ] } },
{ "type": "Feature", "properties": { "内容": "グループホーム　みどりヶ丘【認知症対応型共同生活介護】佐賀県鳥栖市山浦町２６２１番地１", "url": "https://www.kaigokensaku.mhlw.go.jp/41/index.php?action_kouhyou_detail_004_kani=true&JigyosyoCd=4190300097-00&ServiceCd=320&Type=search", "url2": "midorigaoka@magokoro.or.jp" }, "geometry": { "type": "Point", "coordinates": [ 130.490553, 33.3784903 ] } },
{ "type": "Feature", "properties": { "内容": "ニチイケアセンター鳥栖【認知症対応型共同生活介護】佐賀県鳥栖市大正町７０３番地－１", "url": "https://www.kaigokensaku.mhlw.go.jp/41/index.php?action_kouhyou_detail_004_kani=true&JigyosyoCd=4190300121-00&ServiceCd=320&Type=search", "url2": "http://www.nichiigakkan.co.jp" }, "geometry": { "type": "Point", "coordinates": [ 130.515307727792589, 33.377393039517457 ] } },
{ "type": "Feature", "properties": { "内容": "グループホーム安心とどろき【認知症対応型共同生活介護】鳥栖市轟木町1473番地3", "url": "https://www.kaigokensaku.mhlw.go.jp/41/index.php?action_kouhyou_detail_004_kani=true&JigyosyoCd=4190300147-00&ServiceCd=320&Type=search", "url2": "https://jintokukai.jp/介護施設情報/グループホーム/グループホームとどろき/" }, "geometry": { "type": "Point", "coordinates": [ 130.50696389999996, 33.3686444 ] } },
{ "type": "Feature", "properties": { "内容": "グループホーム安心とどろきⅡ【認知症対応型共同生活介護】佐賀県鳥栖市轟木町１４７４番地２", "url": "https://www.kaigokensaku.mhlw.go.jp/41/index.php?action_kouhyou_detail_004_kani=true&JigyosyoCd=4190300238-00&ServiceCd=320&Type=search", "url2": "https://jintokukai.jp/介護施設情報/グループホーム/グループホームとどろきⅡ/" }, "geometry": { "type": "Point", "coordinates": [ 130.50728860000001, 33.3688885 ] } },
{ "type": "Feature", "properties": { "内容": "グループホームフィオーレかがやき【認知症対応型共同生活介護】佐賀県鳥栖市轟木町1574", "url": "https://www.kaigokensaku.mhlw.go.jp/41/index.php?action_kouhyou_detail_004_kani=true&JigyosyoCd=4190300287-00&ServiceCd=320&Type=search", "url2": "https://www.gajumaru.or.jp" }, "geometry": { "type": "Point", "coordinates": [ 130.5066467, 33.3670677 ] } },
{ "type": "Feature", "properties": { "内容": "グループホーム　こもれび【認知症対応型共同生活介護】佐賀県鳥栖市田代昌町４６２番地１", "url": "https://www.kaigokensaku.mhlw.go.jp/41/index.php?action_kouhyou_detail_004_kani=true&JigyosyoCd=4170300299-00&ServiceCd=320&Type=search", "url2": "kaigo.lsneo.co.jp/komorebi/index.html" }, "geometry": { "type": "Point", "coordinates": [ 130.52635859999998, 33.3961117 ] } },
{ "type": "Feature", "properties": { "内容": "グループホーム大地【認知症対応型共同生活介護】佐賀県多久市北多久町大字小侍１３２－６", "url": "https://www.kaigokensaku.mhlw.go.jp/41/index.php?action_kouhyou_detail_004_kani=true&JigyosyoCd=4170400016-00&ServiceCd=320&Type=search", "url2": "http://www.tenjyukai.com" }, "geometry": { "type": "Point", "coordinates": [ 130.111271100000067, 33.2976814 ] } },
{ "type": "Feature", "properties": { "内容": "グループホーム　けいこう園【認知症対応型共同生活介護】佐賀県多久市東多久町大字別府５２２２番２", "url": "https://www.kaigokensaku.mhlw.go.jp/41/index.php?action_kouhyou_detail_004_kani=true&JigyosyoCd=4190400012-00&ServiceCd=320&Type=search", "url2": "kekoen＠kind.ocn.ne.jp" }, "geometry": { "type": "Point", "coordinates": [ 130.141688499999987, 33.2848101 ] } },
{ "type": "Feature", "properties": { "内容": "グループホーム　『悠々』【認知症対応型共同生活介護】佐賀県多久市北多久町多久原２５１２－２４", "url": "https://www.kaigokensaku.mhlw.go.jp/41/index.php?action_kouhyou_detail_004_kani=true&JigyosyoCd=4150480020-00&ServiceCd=320&Type=search", "url2": "http://www.koujinkai.net/" }, "geometry": { "type": "Point", "coordinates": [ 130.1130743, 33.2848158 ] } },
{ "type": "Feature", "properties": { "内容": "グループホーム　やすらぎの丘【認知症対応型共同生活介護】佐賀県伊万里市大坪町甲２２６９番地６", "url": "https://www.kaigokensaku.mhlw.go.jp/41/index.php?action_kouhyou_detail_004_kani=true&JigyosyoCd=4170500237-00&ServiceCd=320&Type=search", "url2": null }, "geometry": { "type": "Point", "coordinates": [ 129.892187400000012, 33.2804119 ] } },
{ "type": "Feature", "properties": { "内容": "グループホーム・ユートピア【認知症対応型共同生活介護】佐賀県伊万里市大川町大川野字赤坂１６４７番地", "url": "https://www.kaigokensaku.mhlw.go.jp/41/index.php?action_kouhyou_detail_004_kani=true&JigyosyoCd=4170500021-00&ServiceCd=320&Type=search", "url2": "http://www.kenjin-kai.com/utopia/" }, "geometry": { "type": "Point", "coordinates": [ 129.972181541525288, 33.294842539937044 ] } },
{ "type": "Feature", "properties": { "内容": "グループホーム　椎の木の家【認知症対応型共同生活介護】佐賀県伊万里市黒川町塩屋173番地1", "url": "https://www.kaigokensaku.mhlw.go.jp/41/index.php?action_kouhyou_detail_004_kani=true&JigyosyoCd=4170500039-00&ServiceCd=320&Type=search", "url2": "http://imari-keiai.com" }, "geometry": { "type": "Point", "coordinates": [ 129.850588136909437, 33.330303401462807 ] } },
{ "type": "Feature", "properties": { "内容": "グループホーム　ひなたぼっこ【認知症対応型共同生活介護】佐賀県伊万里市黒川町大黒川1393-16", "url": "https://www.kaigokensaku.mhlw.go.jp/41/index.php?action_kouhyou_detail_004_kani=true&JigyosyoCd=4170500146-00&ServiceCd=320&Type=search", "url2": "http://www.team-imari.com" }, "geometry": { "type": "Point", "coordinates": [ 129.863024279065939, 33.332130332155238 ] } },
{ "type": "Feature", "properties": { "内容": "グループホーム　うらら【認知症対応型共同生活介護】佐賀県伊万里市黒川町大黒川1390-1", "url": "https://www.kaigokensaku.mhlw.go.jp/41/index.php?action_kouhyou_detail_004_kani=true&JigyosyoCd=4170500161-00&ServiceCd=320&Type=search", "url2": "http://www.team-imari.com" }, "geometry": { "type": "Point", "coordinates": [ 129.862578306356909, 33.332006941013695 ] } },
{ "type": "Feature", "properties": { "内容": "グループホーム伊万里【認知症対応型共同生活介護】佐賀県伊万里市二里町八谷搦７８１番地１", "url": "https://www.kaigokensaku.mhlw.go.jp/41/index.php?action_kouhyou_detail_004_kani=true&JigyosyoCd=4170500195-00&ServiceCd=320&Type=search", "url2": "http//gh-imari.com" }, "geometry": { "type": "Point", "coordinates": [ 129.870856, 33.2756784 ] } },
{ "type": "Feature", "properties": { "内容": "グループホーム　こころ【認知症対応型共同生活介護】佐賀県伊万里市二里町中里甲97", "url": "https://www.kaigokensaku.mhlw.go.jp/41/index.php?action_kouhyou_detail_004_kani=true&JigyosyoCd=4170500252-00&ServiceCd=320&Type=search", "url2": null }, "geometry": { "type": "Point", "coordinates": [ 129.849599600000033, 33.2515863 ] } },
{ "type": "Feature", "properties": { "内容": "グループホームふるさと伊万里【認知症対応型共同生活介護】佐賀県伊万里市南波多町大川原4224番地1", "url": "https://www.kaigokensaku.mhlw.go.jp/41/index.php?action_kouhyou_detail_004_kani=true&JigyosyoCd=4170500328-00&ServiceCd=320&Type=search", "url2": "http://gh-imari.com" }, "geometry": { "type": "Point", "coordinates": [ 129.934138399999938, 33.3115523 ] } },
{ "type": "Feature", "properties": { "内容": "グループホームみどりの丘【認知症対応型共同生活介護】佐賀県武雄市武雄町大字昭和２２９番地", "url": "https://www.kaigokensaku.mhlw.go.jp/41/index.php?action_kouhyou_detail_004_kani=true&JigyosyoCd=4170600136-00&ServiceCd=320&Type=search", "url2": null }, "geometry": { "type": "Point", "coordinates": [ 130.0269803, 33.194085 ] } },
{ "type": "Feature", "properties": { "内容": "株式会社　サンライズ　グループホーム　ゆっつら～と【認知症対応型共同生活介護】佐賀県武雄市武雄町大字富岡10101番地3", "url": "https://www.kaigokensaku.mhlw.go.jp/41/index.php?action_kouhyou_detail_004_kani=true&JigyosyoCd=4190600108-00&ServiceCd=320&Type=search", "url2": "http://3rise-group.com/" }, "geometry": { "type": "Point", "coordinates": [ 130.016222699999958, 33.2046476 ] } },
{ "type": "Feature", "properties": { "内容": "グループホーム　ゆかい【認知症対応型共同生活介護】佐賀県武雄市武雄町大字富岡12245番地6グループホームゆかい", "url": "https://www.kaigokensaku.mhlw.go.jp/41/index.php?action_kouhyou_detail_004_kani=true&JigyosyoCd=4170600102-00&ServiceCd=320&Type=search", "url2": null }, "geometry": { "type": "Point", "coordinates": [ 130.0307798, 33.2012649 ] } },
{ "type": "Feature", "properties": { "内容": "グループホームみふね庵【認知症対応型共同生活介護】佐賀県武雄市東川登町大字永野4058番地5", "url": "https://www.kaigokensaku.mhlw.go.jp/41/index.php?action_kouhyou_detail_004_kani=true&JigyosyoCd=4170600029-00&ServiceCd=320&Type=search", "url2": "https://takeo-seiwafukushikai.jp/" }, "geometry": { "type": "Point", "coordinates": [ 130.016040299999986, 33.1624876 ] } },
{ "type": "Feature", "properties": { "内容": "グループホームきたがた【認知症対応型共同生活介護】佐賀県武雄市北方町大字志久4531-18", "url": "https://www.kaigokensaku.mhlw.go.jp/41/index.php?action_kouhyou_detail_004_kani=true&JigyosyoCd=4171600085-00&ServiceCd=320&Type=search", "url2": "https://kyokaen.wixsite.com/nicelandkitagata" }, "geometry": { "type": "Point", "coordinates": [ 130.082922199999985, 33.22193 ] } },
{ "type": "Feature", "properties": { "内容": "竜門堂グループホームあったか荘【認知症対応型共同生活介護】佐賀県武雄市山内町三間坂甲１３８４２番地１２", "url": "https://www.kaigokensaku.mhlw.go.jp/41/index.php?action_kouhyou_detail_004_kani=true&JigyosyoCd=4171600168-00&ServiceCd=320&Type=search", "url2": "https://www.ryumondo.or.jp" }, "geometry": { "type": "Point", "coordinates": [ 129.954969799999958, 33.1915748 ] } },
{ "type": "Feature", "properties": { "内容": "グループホームきたがた湖山亭【認知症対応型共同生活介護】佐賀県武雄市北方町大字志久4531番地18", "url": "https://www.kaigokensaku.mhlw.go.jp/41/index.php?action_kouhyou_detail_004_kani=true&JigyosyoCd=4190600116-00&ServiceCd=320&Type=search", "url2": "https://kyokaen.wixsite.com/nicelandkitagata" }, "geometry": { "type": "Point", "coordinates": [ 130.082922199999985, 33.22193 ] } },
{ "type": "Feature", "properties": { "内容": "グループホームシルバーケア武雄【認知症対応型共同生活介護】佐賀県武雄市朝日町大字甘久4269-28", "url": "https://www.kaigokensaku.mhlw.go.jp/41/index.php?action_kouhyou_detail_004_kani=true&JigyosyoCd=4190600132-00&ServiceCd=320&Type=search", "url2": null }, "geometry": { "type": "Point", "coordinates": [ 130.040337799999946, 33.2188439 ] } },
{ "type": "Feature", "properties": { "内容": "株式会社サンライズ　グループホームゆっつらーと北方【認知症対応型共同生活介護】佐賀県武雄市北方町大字大崎2367番地3", "url": "https://www.kaigokensaku.mhlw.go.jp/41/index.php?action_kouhyou_detail_004_kani=true&JigyosyoCd=4190600173-00&ServiceCd=320&Type=search", "url2": "http://3rise-group.com/" }, "geometry": { "type": "Point", "coordinates": [ 130.06405190000001, 33.2347338 ] } },
{ "type": "Feature", "properties": { "内容": "ふれあいの里たちばな【認知症対応型共同生活介護】佐賀県武雄市橘町大字片白425番地1", "url": "https://www.kaigokensaku.mhlw.go.jp/41/index.php?action_kouhyou_detail_004_kani=true&JigyosyoCd=4190600215-00&ServiceCd=320&Type=search", "url2": null }, "geometry": { "type": "Point", "coordinates": [ 130.060746900000026, 33.1907651 ] } },
{ "type": "Feature", "properties": { "内容": "グループホーム小葉音【認知症対応型共同生活介護】佐賀県鹿島市大字納富分２１２６－１", "url": "https://www.kaigokensaku.mhlw.go.jp/41/index.php?action_kouhyou_detail_004_kani=true&JigyosyoCd=4190700130-00&ServiceCd=320&Type=search", "url2": null }, "geometry": { "type": "Point", "coordinates": [ 130.099008, 33.097339 ] } },
{ "type": "Feature", "properties": { "内容": "グループホームゆうあい【認知症対応型共同生活介護】佐賀県鹿島市大字高津原2962-1", "url": "https://www.kaigokensaku.mhlw.go.jp/41/index.php?action_kouhyou_detail_004_kani=true&JigyosyoCd=4150780015-00&ServiceCd=320&Type=search", "url2": "http://www.yuaivillage.com" }, "geometry": { "type": "Point", "coordinates": [ 130.084520500000053, 33.1049319 ] } },
{ "type": "Feature", "properties": { "内容": "グループホーム　さくら荘【認知症対応型共同生活介護】佐賀県鹿島市大字中村２１９１番地２", "url": "https://www.kaigokensaku.mhlw.go.jp/41/index.php?action_kouhyou_detail_004_kani=true&JigyosyoCd=4170700175-00&ServiceCd=320&Type=search", "url2": "https://shidahp.com/care/sakurasou/index.html" }, "geometry": { "type": "Point", "coordinates": [ 130.0971942, 33.1194164 ] } },
{ "type": "Feature", "properties": { "内容": "グループホームゆうあい3丁目【認知症対応型共同生活介護】佐賀県鹿島市大字高津原2962番地1", "url": "https://www.kaigokensaku.mhlw.go.jp/41/index.php?action_kouhyou_detail_004_kani=true&JigyosyoCd=4190700163-00&ServiceCd=320&Type=search", "url2": "http://yuaivillage.com" }, "geometry": { "type": "Point", "coordinates": [ 130.084027851451083, 33.10377072825262 ] } },
{ "type": "Feature", "properties": { "内容": "グループホーム門前【認知症対応型共同生活介護】佐賀県鹿島市古枝１６５０番地", "url": "https://www.kaigokensaku.mhlw.go.jp/41/index.php?action_kouhyou_detail_004_kani=true&JigyosyoCd=4170700167-00&ServiceCd=320&Type=search", "url2": "http://care-net.biz/41/monzenhama/" }, "geometry": { "type": "Point", "coordinates": [ 130.10895030000006, 33.0758074 ] } },
{ "type": "Feature", "properties": { "内容": "グループホーム浜【認知症対応型共同生活介護】佐賀県鹿島市浜町乙２５９１番地１", "url": "https://www.kaigokensaku.mhlw.go.jp/41/index.php?action_kouhyou_detail_004_kani=true&JigyosyoCd=4190700031-00&ServiceCd=320&Type=search", "url2": "http://care-net.biz/41/monzenhama/" }, "geometry": { "type": "Point", "coordinates": [ 130.115143200000034, 33.0927556 ] } },
{ "type": "Feature", "properties": { "内容": "グループホーム小葉音橙季【認知症対応型共同生活介護】佐賀県鹿島市納富分2126番地2", "url": "https://www.kaigokensaku.mhlw.go.jp/41/index.php?action_kouhyou_detail_004_kani=true&JigyosyoCd=4190700171-00&ServiceCd=320&Type=search", "url2": null }, "geometry": { "type": "Point", "coordinates": [ 130.099190599999929, 33.0973963 ] } },
{ "type": "Feature", "properties": { "内容": "ケアホームあしみぞ【認知症対応型共同生活介護】佐賀県小城市芦刈町芦溝字松瀬615番地１", "url": "https://www.kaigokensaku.mhlw.go.jp/41/index.php?action_kouhyou_detail_004_kani=true&JigyosyoCd=4191300088-00&ServiceCd=320&Type=search", "url2": "http:/wwwkiyonet@star.saganet.ne.jp" }, "geometry": { "type": "Point", "coordinates": [ 130.21434249999993, 33.2398282 ] } },
{ "type": "Feature", "properties": { "内容": "グループホーム　たんぽぽ【認知症対応型共同生活介護】佐賀県小城市小城町821番地4", "url": "https://www.kaigokensaku.mhlw.go.jp/41/index.php?action_kouhyou_detail_004_kani=true&JigyosyoCd=4171300017-00&ServiceCd=320&Type=search", "url2": "http://www.kiyonet.org/main/" }, "geometry": { "type": "Point", "coordinates": [ 130.205567317196738, 33.30047912659623 ] } },
{ "type": "Feature", "properties": { "内容": "グループホーム共生の里小城【認知症対応型共同生活介護】佐賀県小城市三日月町道辺８３８－１共生館1階", "url": "https://www.kaigokensaku.mhlw.go.jp/41/index.php?action_kouhyou_detail_004_kani=true&JigyosyoCd=4171300082-00&ServiceCd=320&Type=search", "url2": "kyouseinosato.com" }, "geometry": { "type": "Point", "coordinates": [ 130.232050399999906, 33.2917947 ] } },
{ "type": "Feature", "properties": { "内容": "グループホーム共生の里三日月道辺【認知症対応型共同生活介護】佐賀県小城市三日月町道辺８８０－３", "url": "https://www.kaigokensaku.mhlw.go.jp/41/index.php?action_kouhyou_detail_004_kani=true&JigyosyoCd=4171300132-00&ServiceCd=320&Type=search", "url2": "kyouseinosato.com" }, "geometry": { "type": "Point", "coordinates": [ 130.232803099999956, 33.2917142 ] } },
{ "type": "Feature", "properties": { "内容": "グループホーム　ゆとり苑【認知症対応型共同生活介護】佐賀県小城市三日月町甲柳原170番地2", "url": "https://www.kaigokensaku.mhlw.go.jp/41/index.php?action_kouhyou_detail_004_kani=true&JigyosyoCd=4171300140-00&ServiceCd=320&Type=search", "url2": null }, "geometry": { "type": "Point", "coordinates": [ 130.210044899999957, 33.2738451 ] } },
{ "type": "Feature", "properties": { "内容": "グループホームあいわ【認知症対応型共同生活介護】佐賀県小城市芦刈町永田３２２０番地２", "url": "https://www.kaigokensaku.mhlw.go.jp/41/index.php?action_kouhyou_detail_004_kani=true&JigyosyoCd=4191300104-00&ServiceCd=320&Type=search", "url2": "https://aiwa-grouphome.com" }, "geometry": { "type": "Point", "coordinates": [ 130.197571659524556, 33.201290296410889 ] } },
{ "type": "Feature", "properties": { "内容": "グループホーム　牛津あしはらの園【認知症対応型共同生活介護】佐賀県小城市牛津町牛津８０番地１", "url": "https://www.kaigokensaku.mhlw.go.jp/41/index.php?action_kouhyou_detail_004_kani=true&JigyosyoCd=4191300013-00&ServiceCd=320&Type=search", "url2": "http://rikushinfukushikai.com/" }, "geometry": { "type": "Point", "coordinates": [ 130.207451799999944, 33.2422482 ] } },
{ "type": "Feature", "properties": { "内容": "グループホーム　ふれあい【認知症対応型共同生活介護】小城町２８７番地22", "url": "https://www.kaigokensaku.mhlw.go.jp/41/index.php?action_kouhyou_detail_004_kani=true&JigyosyoCd=4191300054-00&ServiceCd=320&Type=search", "url2": "http://www.hiramatsu-hp.or,jp" }, "geometry": { "type": "Point", "coordinates": [ 130.200144799999947, 33.2907045 ] } },
{ "type": "Feature", "properties": { "内容": "シニアライフ三日月【認知症対応型共同生活介護】佐賀県小城市三日月町織島4773-1シニアライフ三日月", "url": "https://www.kaigokensaku.mhlw.go.jp/41/index.php?action_kouhyou_detail_004_kani=true&JigyosyoCd=4191300070-00&ServiceCd=320&Type=search", "url2": "http://sagakita.com" }, "geometry": { "type": "Point", "coordinates": [ 130.219115099999954, 33.2940136 ] } },
{ "type": "Feature", "properties": { "内容": "グループホームふぉれすと小城センター【認知症対応型共同生活介護】佐賀県小城市牛津町勝813-2", "url": "https://www.kaigokensaku.mhlw.go.jp/41/index.php?action_kouhyou_detail_004_kani=true&JigyosyoCd=4191300120-00&ServiceCd=320&Type=search", "url2": "http://lsneo.com" }, "geometry": { "type": "Point", "coordinates": [ 130.1971943, 33.2563298 ] } },
{ "type": "Feature", "properties": { "内容": "グループホームこころ小城【認知症対応型共同生活介護】佐賀県小城市小城町晴気2370-4", "url": "https://www.kaigokensaku.mhlw.go.jp/41/index.php?action_kouhyou_detail_004_kani=true&JigyosyoCd=4191300146-00&ServiceCd=320&Type=search", "url2": "https://www.senyuukai.com/day.html" }, "geometry": { "type": "Point", "coordinates": [ 130.168801164417999, 33.303336383448723 ] } },
{ "type": "Feature", "properties": { "内容": "グループホーム季楽里ふぁむ【認知症対応型共同生活介護】佐賀県嬉野市嬉野町大字下宿甲1879番地21グループホーム季楽里ふぁむ", "url": "https://www.kaigokensaku.mhlw.go.jp/41/index.php?action_kouhyou_detail_004_kani=true&JigyosyoCd=4190900060-00&ServiceCd=320&Type=search", "url2": "宅老所・デイサービス季楽里.com/" }, "geometry": { "type": "Point", "coordinates": [ 130.000427516008017, 33.117734250770859 ] } },
{ "type": "Feature", "properties": { "内容": "グループホーム　私とゆかいな仲間【認知症対応型共同生活介護】嬉野市嬉野町大字下宿甲4715番地5", "url": "https://www.kaigokensaku.mhlw.go.jp/41/index.php?action_kouhyou_detail_004_kani=true&JigyosyoCd=4171700125-00&ServiceCd=320&Type=search", "url2": null }, "geometry": { "type": "Point", "coordinates": [ 129.995183, 33.1032377 ] } },
{ "type": "Feature", "properties": { "内容": "しきぶの里【認知症対応型共同生活介護】佐賀県嬉野市塩田町大字谷所甲２３８５番地１", "url": "https://www.kaigokensaku.mhlw.go.jp/41/index.php?action_kouhyou_detail_004_kani=true&JigyosyoCd=4171700182-00&ServiceCd=320&Type=search", "url2": null }, "geometry": { "type": "Point", "coordinates": [ 130.065806047529549, 33.099997186351686 ] } },
{ "type": "Feature", "properties": { "内容": "グループホーム　　紫陽花の路【認知症対応型共同生活介護】嬉野市嬉野町大字下宿甲4714番地6", "url": "https://www.kaigokensaku.mhlw.go.jp/41/index.php?action_kouhyou_detail_004_kani=true&JigyosyoCd=4190900045-00&ServiceCd=320&Type=search", "url2": null }, "geometry": { "type": "Point", "coordinates": [ 129.996546399999943, 33.1119201 ] } },
{ "type": "Feature", "properties": { "内容": "グループホーム千寿荘【認知症対応型共同生活介護】佐賀県嬉野市嬉野町大字下宿乙１９１９番地", "url": "https://www.kaigokensaku.mhlw.go.jp/41/index.php?action_kouhyou_detail_004_kani=true&JigyosyoCd=4171700083-00&ServiceCd=320&Type=search", "url2": "http://www.yuhokai.com" }, "geometry": { "type": "Point", "coordinates": [ 129.97718100027771, 33.102015353574764 ] } },
{ "type": "Feature", "properties": { "内容": "グループホーム　次郎ん家【認知症対応型共同生活介護】神埼市千代田町境原282-2", "url": "https://www.kaigokensaku.mhlw.go.jp/41/index.php?action_kouhyou_detail_004_kani=true&JigyosyoCd=4111110930-00&ServiceCd=320&Type=search", "url2": "http://seibokai.net" }, "geometry": { "type": "Point", "coordinates": [ 130.35632970000006, 33.2621169 ] } },
{ "type": "Feature", "properties": { "内容": "グループホーム　菜のはな【認知症対応型共同生活介護】佐賀県神埼市千代田町詫田989番地1", "url": "https://www.kaigokensaku.mhlw.go.jp/41/index.php?action_kouhyou_detail_004_kani=true&JigyosyoCd=4171100011-00&ServiceCd=320&Type=search", "url2": "https://cosmosen.con" }, "geometry": { "type": "Point", "coordinates": [ 130.378439, 33.2673805 ] } },
{ "type": "Feature", "properties": { "内容": "佐賀整肢学園　かんざき清流苑【認知症対応型共同生活介護】佐賀県神埼市神埼町鶴２９２７番地２", "url": "https://www.kaigokensaku.mhlw.go.jp/41/index.php?action_kouhyou_detail_004_kani=true&JigyosyoCd=4171100037-00&ServiceCd=320&Type=search", "url2": "http://www.saganet.ne.jp/saseishi/top.html" }, "geometry": { "type": "Point", "coordinates": [ 130.3700351, 33.3221697 ] } },
{ "type": "Feature", "properties": { "内容": "グループホームきぼう神埼センター【認知症対応型共同生活介護】神埼市神埼町鶴1360番地", "url": "https://www.kaigokensaku.mhlw.go.jp/41/index.php?action_kouhyou_detail_004_kani=true&JigyosyoCd=4171100177-00&ServiceCd=320&Type=search", "url2": "URL:http://www.lsneo.com" }, "geometry": { "type": "Point", "coordinates": [ 130.373457406745985, 33.332387955643512 ] } },
{ "type": "Feature", "properties": { "内容": "神埼ひだまり【認知症対応型共同生活介護】神埼市神埼町竹４６９４－１", "url": "https://www.kaigokensaku.mhlw.go.jp/41/index.php?action_kouhyou_detail_004_kani=true&JigyosyoCd=4171100185-00&ServiceCd=320&Type=search", "url2": "hidamari-saga.com" }, "geometry": { "type": "Point", "coordinates": [ 130.35524190000001, 33.3122457 ] } },
{ "type": "Feature", "properties": { "内容": "グループホーム神埼ひだまり新館【認知症対応型共同生活介護】佐賀県神埼市神埼町竹4694-1", "url": "https://www.kaigokensaku.mhlw.go.jp/41/index.php?action_kouhyou_detail_004_kani=true&JigyosyoCd=4192000034-00&ServiceCd=320&Type=search", "url2": "hidamari-saga.com" }, "geometry": { "type": "Point", "coordinates": [ -8.24389, 53.41291 ] } },
{ "type": "Feature", "properties": { "内容": "グループホームさざんか園【認知症対応型共同生活介護】佐賀県神埼郡吉野ケ里町大曲3475-1", "url": "https://www.kaigokensaku.mhlw.go.jp/41/index.php?action_kouhyou_detail_004_kani=true&JigyosyoCd=4171100078-00&ServiceCd=320&Type=search", "url2": "kyueikai.com" }, "geometry": { "type": "Point", "coordinates": [ 130.396577100000059, 33.3425516 ] } },
{ "type": "Feature", "properties": { "内容": "グループホームいしなり【認知症対応型共同生活介護】佐賀県神埼郡吉野ヶ里町石動3291番地の1", "url": "https://www.kaigokensaku.mhlw.go.jp/41/index.php?action_kouhyou_detail_004_kani=true&JigyosyoCd=4171100144-00&ServiceCd=320&Type=search", "url2": "http://homepage2.nifty.com/sazankaen/" }, "geometry": { "type": "Point", "coordinates": [ 130.400702555242788, 33.356618775147631 ] } },
{ "type": "Feature", "properties": { "内容": "グループホーム　ゆうあい【認知症対応型共同生活介護】神埼郡吉野ケ里町吉田2273-7", "url": "https://www.kaigokensaku.mhlw.go.jp/41/index.php?action_kouhyou_detail_004_kani=true&JigyosyoCd=4191100025-00&ServiceCd=320&Type=search", "url2": null }, "geometry": { "type": "Point", "coordinates": [ 130.412112100000058, 33.3361771 ] } },
{ "type": "Feature", "properties": { "内容": "グループホーム　シルバーケア吉野ヶ里【認知症対応型共同生活介護】佐賀県神埼郡吉野ヶ里町吉田1493-1", "url": "https://www.kaigokensaku.mhlw.go.jp/41/index.php?action_kouhyou_detail_004_kani=true&JigyosyoCd=4191100033-00&ServiceCd=320&Type=search", "url2": "https://www.silvercare-yoshinogari.com/contact.html" }, "geometry": { "type": "Point", "coordinates": [ 130.39608290000001, 33.3317134 ] } },
{ "type": "Feature", "properties": { "内容": "グループホーム　クオーレ基山【認知症対応型共同生活介護】佐賀県三養基郡基山町大字宮浦字塚原８８５番６", "url": "https://www.kaigokensaku.mhlw.go.jp/41/index.php?action_kouhyou_detail_004_kani=true&JigyosyoCd=4171200308-00&ServiceCd=320&Type=search", "url2": "cuorekiyama@yahoo.co.jp" }, "geometry": { "type": "Point", "coordinates": [ 130.5228128, 33.4268521 ] } },
{ "type": "Feature", "properties": { "内容": "認知症対応型共同生活介護　グループホームかみみね【認知症対応型共同生活介護】佐賀県上峰町堤119-5", "url": "https://www.kaigokensaku.mhlw.go.jp/41/index.php?action_kouhyou_detail_004_kani=true&JigyosyoCd=4191200155-00&ServiceCd=320&Type=search", "url2": "https://www.c-pro.jp" }, "geometry": { "type": "Point", "coordinates": [ 130.4301295, 33.3385122 ] } },
{ "type": "Feature", "properties": { "内容": "さがケアセンターそよ風【認知症対応型共同生活介護】佐賀県三養基郡上峰町大字坊所1523-53さがケアセンターそよ風", "url": "https://www.kaigokensaku.mhlw.go.jp/41/index.php?action_kouhyou_detail_004_kani=true&JigyosyoCd=4191200023-00&ServiceCd=320&Type=search", "url2": "http://www.unimat-rc.co.jp/" }, "geometry": { "type": "Point", "coordinates": [ 130.4149926, 33.3309582 ] } },
{ "type": "Feature", "properties": { "内容": "グループホームさくらんぼ【認知症対応型共同生活介護】佐賀県三養基郡上峰町大字堤１９０７－１", "url": "https://www.kaigokensaku.mhlw.go.jp/41/index.php?action_kouhyou_detail_004_kani=true&JigyosyoCd=4171200316-00&ServiceCd=320&Type=search", "url2": null }, "geometry": { "type": "Point", "coordinates": [ 130.42154986693879, 33.337410741211912 ] } },
{ "type": "Feature", "properties": { "内容": "グループホーム　プルメリア【認知症対応型共同生活介護】佐賀県三養基郡上峰町大字前牟田1896番地-1", "url": "https://www.kaigokensaku.mhlw.go.jp/41/index.php?action_kouhyou_detail_004_kani=true&JigyosyoCd=4191200106-00&ServiceCd=320&Type=search", "url2": "https://www.gajumaru.or.jp/" }, "geometry": { "type": "Point", "coordinates": [ 130.412113500000032, 33.3082491 ] } },
{ "type": "Feature", "properties": { "内容": "グループホーム　みやき【認知症対応型共同生活介護】佐賀県三養基郡みやき町大字市武891-1", "url": "https://www.kaigokensaku.mhlw.go.jp/41/index.php?action_kouhyou_detail_004_kani=true&JigyosyoCd=4191200148-00&ServiceCd=320&Type=search", "url2": "https://www.c-pro.jp" }, "geometry": { "type": "Point", "coordinates": [ 130.4276501, 33.2922763 ] } },
{ "type": "Feature", "properties": { "内容": "グループホームいっぽ【認知症対応型共同生活介護】佐賀県三養基郡みやき町大字蓑原３０６７－２", "url": "https://www.kaigokensaku.mhlw.go.jp/41/index.php?action_kouhyou_detail_004_kani=true&JigyosyoCd=4171200233-00&ServiceCd=320&Type=search", "url2": null }, "geometry": { "type": "Point", "coordinates": [ 130.443583325842269, 33.354121171167805 ] } },
{ "type": "Feature", "properties": { "内容": "グループホーム　ありがとー【認知症対応型共同生活介護】三養基郡みやき町大字天建寺２０９６番地３グループホーム　ありがとー", "url": "https://www.kaigokensaku.mhlw.go.jp/41/index.php?action_kouhyou_detail_004_kani=true&JigyosyoCd=4171200266-00&ServiceCd=320&Type=search", "url2": null }, "geometry": { "type": "Point", "coordinates": [ 130.450868899999932, 33.2914792 ] } },
{ "type": "Feature", "properties": { "内容": "グループホームひまわりの郷【認知症対応型共同生活介護】佐賀県三養基郡みやき町大字寄人1997-1", "url": "https://www.kaigokensaku.mhlw.go.jp/41/index.php?action_kouhyou_detail_004_kani=true&JigyosyoCd=4171200332-00&ServiceCd=320&Type=search", "url2": null }, "geometry": { "type": "Point", "coordinates": [ 130.426870975594056, 33.284338038776283 ] } },
{ "type": "Feature", "properties": { "内容": "グループホーム　きらら【認知症対応型共同生活介護】三養基郡みやき町原古賀７４７０－３", "url": "https://www.kaigokensaku.mhlw.go.jp/41/index.php?action_kouhyou_detail_004_kani=true&JigyosyoCd=4191200015-00&ServiceCd=320&Type=search", "url2": null }, "geometry": { "type": "Point", "coordinates": [ 130.44651905038549, 33.334137629566641 ] } },
{ "type": "Feature", "properties": { "内容": "グループホーム　和が家【認知症対応型共同生活介護】佐賀県三養基郡みやき町大字中津隈３８６４番地", "url": "https://www.kaigokensaku.mhlw.go.jp/41/index.php?action_kouhyou_detail_004_kani=true&JigyosyoCd=4191200056-00&ServiceCd=320&Type=search", "url2": "http://www.magokoro.or.jp" }, "geometry": { "type": "Point", "coordinates": [ 130.437685699999946, 33.3249092 ] } },
{ "type": "Feature", "properties": { "内容": "グループホーム安心しらかべ【認知症対応型共同生活介護】佐賀県三養基郡みやき町大字白壁244番地１", "url": "https://www.kaigokensaku.mhlw.go.jp/41/index.php?action_kouhyou_detail_004_kani=true&JigyosyoCd=4191200064-00&ServiceCd=320&Type=search", "url2": "https://jintokukai.jp/介護施設情報/グループホーム/グループホームしらかべ/" }, "geometry": { "type": "Point", "coordinates": [ 130.464594799999986, 33.3271514 ] } },
{ "type": "Feature", "properties": { "内容": "グループホーム安心なかばる【認知症対応型共同生活介護】佐賀県三養基郡みやき町大字原古賀１９０番地３", "url": "https://www.kaigokensaku.mhlw.go.jp/41/index.php?action_kouhyou_detail_004_kani=true&JigyosyoCd=4191200072-00&ServiceCd=320&Type=search", "url2": "https://jintokukai.jp/介護施設情報/グループホーム/グループホームなかばる/" }, "geometry": { "type": "Point", "coordinates": [ 130.443037299999986, 33.3445911 ] } },
{ "type": "Feature", "properties": { "内容": "グループホーム安心いちたけ【認知症対応型共同生活介護】佐賀県三養基郡みやき町大字市武1234番地", "url": "https://www.kaigokensaku.mhlw.go.jp/41/index.php?action_kouhyou_detail_004_kani=true&JigyosyoCd=4191200080-00&ServiceCd=320&Type=search", "url2": "https://jintokukai.jp/介護施設情報/グループホーム/グループホームいちたけ/" }, "geometry": { "type": "Point", "coordinates": [ 130.429636859524493, 33.298229465157505 ] } },
{ "type": "Feature", "properties": { "内容": "グループホーム　つばき【認知症対応型共同生活介護】佐賀県東松浦郡玄海町大字平尾380-8", "url": "https://www.kaigokensaku.mhlw.go.jp/41/index.php?action_kouhyou_detail_004_kani=true&JigyosyoCd=4191400011-00&ServiceCd=320&Type=search", "url2": "http://www.tenjyukai.com" }, "geometry": { "type": "Point", "coordinates": [ 129.8455133, 33.4952389 ] } },
{ "type": "Feature", "properties": { "内容": "グループホーム　玄海園【認知症対応型共同生活介護】佐賀県東松浦郡玄海町平尾380-1", "url": "https://www.kaigokensaku.mhlw.go.jp/41/index.php?action_kouhyou_detail_004_kani=true&JigyosyoCd=4191400029-00&ServiceCd=320&Type=search", "url2": "http://www.tenjyukai.com" }, "geometry": { "type": "Point", "coordinates": [ 129.851034799999979, 33.4937552 ] } },
{ "type": "Feature", "properties": { "内容": "グループホームせせらぎ【認知症対応型共同生活介護】佐賀県西松浦郡有田町応法丙３９０２番地", "url": "https://www.kaigokensaku.mhlw.go.jp/41/index.php?action_kouhyou_detail_004_kani=true&JigyosyoCd=4191500042-00&ServiceCd=320&Type=search", "url2": "http://careful-care.co.jp/" }, "geometry": { "type": "Point", "coordinates": [ 129.88089489999993, 33.2049122 ] } },
{ "type": "Feature", "properties": { "内容": "グループホーム　光樹の杜【認知症対応型共同生活介護】佐賀県西松浦郡有田町戸杓　丙433番地1", "url": "https://www.kaigokensaku.mhlw.go.jp/41/index.php?action_kouhyou_detail_004_kani=true&JigyosyoCd=4171500079-00&ServiceCd=320&Type=search", "url2": null }, "geometry": { "type": "Point", "coordinates": [ 129.873254800000041, 33.1776641 ] } },
{ "type": "Feature", "properties": { "内容": "グループホームさくら苑【認知症対応型共同生活介護】佐賀県西松浦郡有田町仏ノ原甲1254番地2", "url": "https://www.kaigokensaku.mhlw.go.jp/41/index.php?action_kouhyou_detail_004_kani=true&JigyosyoCd=4191500034-00&ServiceCd=320&Type=search", "url2": "https://www.arita-sakuraen.jp/" }, "geometry": { "type": "Point", "coordinates": [ 129.855904568053433, 33.198505554423441 ] } },
{ "type": "Feature", "properties": { "内容": "介護付複合福祉施設　パークハウス・有田【認知症対応型共同生活介護】佐賀県西松浦郡有田町原明乙114番地1", "url": "https://www.kaigokensaku.mhlw.go.jp/41/index.php?action_kouhyou_detail_004_kani=true&JigyosyoCd=4191500067-00&ServiceCd=320&Type=search", "url2": "http://jikou-kai.net/park/index.html" }, "geometry": { "type": "Point", "coordinates": [ 129.851362965745523, 33.184453350844848 ] } },
{ "type": "Feature", "properties": { "内容": "グループホームうぐいす【認知症対応型共同生活介護】佐賀県西松浦郡有田町応法丙3869-1", "url": "https://www.kaigokensaku.mhlw.go.jp/41/index.php?action_kouhyou_detail_004_kani=true&JigyosyoCd=4191500075-00&ServiceCd=320&Type=search", "url2": "http://www.careful-care.co.jp" }, "geometry": { "type": "Point", "coordinates": [ 129.8823394, 33.206164 ] } },
{ "type": "Feature", "properties": { "内容": "グループホーム　ほほえみ荘【認知症対応型共同生活介護】佐賀県杵島郡大町町大字福母2591-21", "url": "https://www.kaigokensaku.mhlw.go.jp/41/index.php?action_kouhyou_detail_004_kani=true&JigyosyoCd=4171600218-00&ServiceCd=320&Type=search", "url2": "https://eijyukai-saga.jp/clinic/group-hohoemi/" }, "geometry": { "type": "Point", "coordinates": [ 130.109081300000071, 33.2189196 ] } },
{ "type": "Feature", "properties": { "内容": "グループホーム　江北紀水苑【認知症対応型共同生活介護】佐賀県杵島郡江北町大字上小田1268-1", "url": "https://www.kaigokensaku.mhlw.go.jp/41/index.php?action_kouhyou_detail_004_kani=true&JigyosyoCd=4171600200-00&ServiceCd=320&Type=search", "url2": "http://www.minegumi.com/cn12/kohokukisuien.html" }, "geometry": { "type": "Point", "coordinates": [ 130.13677359999997, 33.2206754 ] } },
{ "type": "Feature", "properties": { "内容": "グループホーム栄寿荘【認知症対応型共同生活介護】佐賀県杵島郡江北町大字上小田280-1", "url": "https://www.kaigokensaku.mhlw.go.jp/41/index.php?action_kouhyou_detail_004_kani=true&JigyosyoCd=4191600081-00&ServiceCd=320&Type=search", "url2": null }, "geometry": { "type": "Point", "coordinates": [ 130.145495200000028, 33.2256 ] } },
{ "type": "Feature", "properties": { "内容": "グループホーム白い石【認知症対応型共同生活介護】佐賀県杵島郡白石町福吉１８０８", "url": "https://www.kaigokensaku.mhlw.go.jp/41/index.php?action_kouhyou_detail_004_kani=true&JigyosyoCd=4171600143-00&ServiceCd=320&Type=search", "url2": "https://togen.or.jp" }, "geometry": { "type": "Point", "coordinates": [ 130.153442400000017, 33.185696 ] } },
{ "type": "Feature", "properties": { "内容": "グループホーム　佑紀苑【認知症対応型共同生活介護】佐賀県杵島郡白石町大字福富3125番地2", "url": "https://www.kaigokensaku.mhlw.go.jp/41/index.php?action_kouhyou_detail_004_kani=true&JigyosyoCd=4171600176-00&ServiceCd=320&Type=search", "url2": null }, "geometry": { "type": "Point", "coordinates": [ 130.18559879999998, 33.183761 ] } },
{ "type": "Feature", "properties": { "内容": "グループホームうたがきの里【認知症対応型共同生活介護】佐賀県杵島郡白石町大字築切264-1", "url": "https://www.kaigokensaku.mhlw.go.jp/41/index.php?action_kouhyou_detail_004_kani=true&JigyosyoCd=4171600226-00&ServiceCd=320&Type=search", "url2": "https://www.cableone.ne.jp/~utagaki-sato" }, "geometry": { "type": "Point", "coordinates": [ 130.1459294, 33.16707 ] } },
{ "type": "Feature", "properties": { "内容": "グループホームいこいの森【認知症対応型共同生活介護】白石町大字戸ヶ里2387-8", "url": "https://www.kaigokensaku.mhlw.go.jp/41/index.php?action_kouhyou_detail_004_kani=true&JigyosyoCd=4171600275-00&ServiceCd=320&Type=search", "url2": null }, "geometry": { "type": "Point", "coordinates": [ 130.125370942848463, 33.153090343277782 ] } },
{ "type": "Feature", "properties": { "内容": "グループホームたのうえ【認知症対応型共同生活介護】佐賀県杵島郡白石町大字田野上25-2", "url": "https://www.kaigokensaku.mhlw.go.jp/41/index.php?action_kouhyou_detail_004_kani=true&JigyosyoCd=4191600123-00&ServiceCd=320&Type=search", "url2": null }, "geometry": { "type": "Point", "coordinates": [ 130.11582660000002, 33.156083 ] } },
{ "type": "Feature", "properties": { "内容": "特定非営利活動法人　グループホーム太良の里【認知症対応型共同生活介護】佐賀県藤津郡太良町大字糸岐２４９１番地１", "url": "https://www.kaigokensaku.mhlw.go.jp/41/index.php?action_kouhyou_detail_004_kani=true&JigyosyoCd=4171700133-00&ServiceCd=320&Type=search", "url2": null }, "geometry": { "type": "Point", "coordinates": [ 130.181209800000033, 33.0119881 ] } },
{ "type": "Feature", "properties": { "内容": "グループホーム　さんはうす【認知症対応型共同生活介護】佐賀県藤津郡太良町大字糸岐786-1", "url": "https://www.kaigokensaku.mhlw.go.jp/41/index.php?action_kouhyou_detail_004_kani=true&JigyosyoCd=4191700014-00&ServiceCd=320&Type=search", "url2": null }, "geometry": { "type": "Point", "coordinates": [ 130.175457199999983, 33.0171323 ] } },
{ "type": "Feature", "properties": { "内容": "グループホームふるさとの森【認知症対応型共同生活介護】佐賀県藤津郡太良町大字糸岐6851-3", "url": "https://www.kaigokensaku.mhlw.go.jp/41/index.php?action_kouhyou_detail_004_kani=true&JigyosyoCd=4191700030-00&ServiceCd=320&Type=search", "url2": "https://furusatonomori1998.com/" }, "geometry": { "type": "Point", "coordinates": [ 130.180304200000023, 33.0152991 ] } },
{ "type": "Feature", "properties": { "内容": "グループホームふるさとの森２号館【認知症対応型共同生活介護】佐賀県藤津郡太良町大字糸岐6851番地1", "url": "https://www.kaigokensaku.mhlw.go.jp/41/index.php?action_kouhyou_detail_004_kani=true&JigyosyoCd=4191700055-00&ServiceCd=320&Type=search", "url2": "https://furusatonomori1998.com/" }, "geometry": { "type": "Point", "coordinates": [ 130.117111099999988, 32.9802052 ] } }
]
}
