{
"type": "FeatureCollection",
"name": "geo_41_4",
"crs": { "type": "name", "properties": { "name": "urn:ogc:def:crs:OGC:1.3:CRS84" } },
"features": [
{ "type": "Feature", "properties": { "ID": 4144419000001, "正式名称": "中川助産院", "機関区分": 4, "都道府県コード": 41, "市区町村コード": 202, "所在地": "佐賀県唐津市神田２３９９－１", "緯度": 33.440969, "経度": 129.95527, "url": "https://www.iryou.teikyouseido.mhlw.go.jp/znk-web/juminkanja/S2430/initialize?prefCd=41&kikanCd=4419000001&kikanKbn=4", "url2": null, "内容": "中川助産院【4:助産院】佐賀県唐津市神田２３９９－１" }, "geometry": { "type": "Point", "coordinates": [ 129.95527, 33.440969 ] } },
{ "type": "Feature", "properties": { "ID": 4144419000003, "正式名称": "やまさき母乳育児相談室", "機関区分": 4, "都道府県コード": 41, "市区町村コード": 206, "所在地": "佐賀県武雄市武雄町武雄２３４", "緯度": 33.185933, "経度": 130.00131, "url": "https://www.iryou.teikyouseido.mhlw.go.jp/znk-web/juminkanja/S2430/initialize?prefCd=41&kikanCd=4419000003&kikanKbn=4", "url2": null, "内容": "やまさき母乳育児相談室【4:助産院】佐賀県武雄市武雄町武雄２３４" }, "geometry": { "type": "Point", "coordinates": [ 130.00131, 33.185933 ] } },
{ "type": "Feature", "properties": { "ID": 4144419000004, "正式名称": "ママ＆ベビー・ひとみ育児相談室", "機関区分": 4, "都道府県コード": 41, "市区町村コード": 201, "所在地": "佐賀県佐賀市川副町早津江１５", "緯度": 33.240375, "経度": 130.302358, "url": "https://www.iryou.teikyouseido.mhlw.go.jp/znk-web/juminkanja/S2430/initialize?prefCd=41&kikanCd=4419000004&kikanKbn=4", "url2": "http://hitomi-ikuji.info", "内容": "ママ＆ベビー・ひとみ育児相談室【4:助産院】佐賀県佐賀市川副町早津江１５" }, "geometry": { "type": "Point", "coordinates": [ 130.302358, 33.240375 ] } },
{ "type": "Feature", "properties": { "ID": 4144419000006, "正式名称": "きやま助産所", "機関区分": 4, "都道府県コード": 41, "市区町村コード": 341, "所在地": "佐賀県三養基郡基山町大字宮浦９０－２ニューライフ基山２０１号", "緯度": 33.419385, "経度": 130.528477, "url": "https://www.iryou.teikyouseido.mhlw.go.jp/znk-web/juminkanja/S2430/initialize?prefCd=41&kikanCd=4419000006&kikanKbn=4", "url2": null, "内容": "きやま助産所【4:助産院】佐賀県三養基郡基山町大字宮浦９０－２ニューライフ基山２０１号" }, "geometry": { "type": "Point", "coordinates": [ 130.528477, 33.419385 ] } },
{ "type": "Feature", "properties": { "ID": 4144419000008, "正式名称": "堤式乳房マッサージ法母乳ケアＦｏｒｓｍｉｌｅ", "機関区分": 4, "都道府県コード": 41, "市区町村コード": 201, "所在地": "佐賀県佐賀市蓮池町小松４８８", "緯度": 33.248271, "経度": 130.368509, "url": "https://www.iryou.teikyouseido.mhlw.go.jp/znk-web/juminkanja/S2430/initialize?prefCd=41&kikanCd=4419000008&kikanKbn=4", "url2": null, "内容": "堤式乳房マッサージ法母乳ケアＦｏｒｓｍｉｌｅ【4:助産院】佐賀県佐賀市蓮池町小松４８８" }, "geometry": { "type": "Point", "coordinates": [ 130.368509, 33.248271 ] } },
{ "type": "Feature", "properties": { "ID": 4144419000009, "正式名称": "鍋島町あかね育児相談室", "機関区分": 4, "都道府県コード": 41, "市区町村コード": 201, "所在地": "佐賀県佐賀市鍋島町大字森田２８４ー２", "緯度": 33.267908, "経度": 130.262458, "url": "https://www.iryou.teikyouseido.mhlw.go.jp/znk-web/juminkanja/S2430/initialize?prefCd=41&kikanCd=4419000009&kikanKbn=4", "url2": "https://akane-babymassage.com", "内容": "鍋島町あかね育児相談室【4:助産院】佐賀県佐賀市鍋島町大字森田２８４ー２" }, "geometry": { "type": "Point", "coordinates": [ 130.262458, 33.267908 ] } },
{ "type": "Feature", "properties": { "ID": 4144419000011, "正式名称": "母乳育児・健康相談室「つなぐ」", "機関区分": 4, "都道府県コード": 41, "市区町村コード": 208, "所在地": "佐賀県小城市芦刈町永田３２００ー１", "緯度": 33.200157, "経度": 130.198374, "url": "https://www.iryou.teikyouseido.mhlw.go.jp/znk-web/juminkanja/S2430/initialize?prefCd=41&kikanCd=4419000011&kikanKbn=4", "url2": "https://tsunagu-mizuta.com/", "内容": "母乳育児・健康相談室「つなぐ」【4:助産院】佐賀県小城市芦刈町永田３２００ー１" }, "geometry": { "type": "Point", "coordinates": [ 130.198374, 33.200157 ] } },
{ "type": "Feature", "properties": { "ID": 4144419000012, "正式名称": "しお助産院", "機関区分": 4, "都道府県コード": 41, "市区町村コード": 201, "所在地": "佐賀県佐賀市久保田町大字徳万１８６ー１", "緯度": 33.248673, "経度": 130.239035, "url": "https://www.iryou.teikyouseido.mhlw.go.jp/znk-web/juminkanja/S2430/initialize?prefCd=41&kikanCd=4419000012&kikanKbn=4", "url2": "https://siojyosanin.amebaownd.com/", "内容": "しお助産院【4:助産院】佐賀県佐賀市久保田町大字徳万１８６ー１" }, "geometry": { "type": "Point", "coordinates": [ 130.239035, 33.248673 ] } },
{ "type": "Feature", "properties": { "ID": 4144419000014, "正式名称": "出張助産院　Ｌａ　Ｍａｈｉｎａ", "機関区分": 4, "都道府県コード": 41, "市区町村コード": 201, "所在地": "佐賀県佐賀市大和町尼寺２５７８－１ー８０５", "緯度": 33.302956, "経度": 130.27924, "url": "https://www.iryou.teikyouseido.mhlw.go.jp/znk-web/juminkanja/S2430/initialize?prefCd=41&kikanCd=4419000014&kikanKbn=4", "url2": "homebirth-lamahina.com", "内容": "出張助産院　Ｌａ　Ｍａｈｉｎａ【4:助産院】佐賀県佐賀市大和町尼寺２５７８－１ー８０５" }, "geometry": { "type": "Point", "coordinates": [ 130.27924, 33.302956 ] } },
{ "type": "Feature", "properties": { "ID": 4144419000016, "正式名称": "出張専門助産所だんでらいおん", "機関区分": 4, "都道府県コード": 41, "市区町村コード": 201, "所在地": "佐賀県佐賀市八丁畷町９−５１オーヴィジョン佐賀ネクシア３０５", "緯度": 33.2732, "経度": 130.29631, "url": "https://www.iryou.teikyouseido.mhlw.go.jp/znk-web/juminkanja/S2430/initialize?prefCd=41&kikanCd=4419000016&kikanKbn=4", "url2": null, "内容": "出張専門助産所だんでらいおん【4:助産院】佐賀県佐賀市八丁畷町９−５１オーヴィジョン佐賀ネクシア３０５" }, "geometry": { "type": "Point", "coordinates": [ 130.29631, 33.2732 ] } },
{ "type": "Feature", "properties": { "ID": 4144419000026, "正式名称": "ＨＡＲＡ助産院", "機関区分": 4, "都道府県コード": 41, "市区町村コード": 210, "所在地": "佐賀県神埼市千代田町姉９４３－２", "緯度": 33.282947, "経度": 130.368183, "url": "https://www.iryou.teikyouseido.mhlw.go.jp/znk-web/juminkanja/S2430/initialize?prefCd=41&kikanCd=4419000026&kikanKbn=4", "url2": null, "内容": "ＨＡＲＡ助産院【4:助産院】佐賀県神埼市千代田町姉９４３－２" }, "geometry": { "type": "Point", "coordinates": [ 130.368183, 33.282947 ] } },
{ "type": "Feature", "properties": { "ID": 4144419000027, "正式名称": "産前産後サポートステーション", "機関区分": 4, "都道府県コード": 41, "市区町村コード": 346, "所在地": "佐賀県三養基郡みやき町白壁２４７０－２四季彩の丘みやき内", "緯度": 33.337369, "経度": 130.478306, "url": "https://www.iryou.teikyouseido.mhlw.go.jp/znk-web/juminkanja/S2430/initialize?prefCd=41&kikanCd=4419000027&kikanKbn=4", "url2": "https://candle-heart.com/station/", "内容": "産前産後サポートステーション【4:助産院】佐賀県三養基郡みやき町白壁２４７０－２四季彩の丘みやき内" }, "geometry": { "type": "Point", "coordinates": [ 130.478306, 33.337369 ] } },
{ "type": "Feature", "properties": { "ID": 4144419000029, "正式名称": "助産院　Ｏｌｕ　Ｏｌｕ", "機関区分": 4, "都道府県コード": 41, "市区町村コード": 203, "所在地": "佐賀県鳥栖市儀徳町２２３１－５", "緯度": 33.35, "経度": 130.494139, "url": "https://www.iryou.teikyouseido.mhlw.go.jp/znk-web/juminkanja/S2430/initialize?prefCd=41&kikanCd=4419000029&kikanKbn=4", "url2": null, "内容": "助産院　Ｏｌｕ　Ｏｌｕ【4:助産院】佐賀県鳥栖市儀徳町２２３１－５" }, "geometry": { "type": "Point", "coordinates": [ 130.494139, 33.35 ] } },
{ "type": "Feature", "properties": { "ID": 4144419000030, "正式名称": "こどものこころを育むサロン　なないろのたね", "機関区分": 4, "都道府県コード": 41, "市区町村コード": 345, "所在地": "佐賀県三養基郡上峰町坊所２１１３－２１", "緯度": 33.314867, "経度": 130.421601, "url": "https://www.iryou.teikyouseido.mhlw.go.jp/znk-web/juminkanja/S2430/initialize?prefCd=41&kikanCd=4419000030&kikanKbn=4", "url2": null, "内容": "こどものこころを育むサロン　なないろのたね【4:助産院】佐賀県三養基郡上峰町坊所２１１３－２１" }, "geometry": { "type": "Point", "coordinates": [ 130.421601, 33.314867 ] } }
]
}
