{
"type": "FeatureCollection",
"name": "geo_41_訪問介護",
"crs": { "type": "name", "properties": { "name": "urn:ogc:def:crs:OGC:1.3:CRS84" } },
"features": [
{ "type": "Feature", "properties": { "内容": "アイランドケア【訪問介護】佐賀市神野東２－７－２", "url": "https://www.kaigokensaku.mhlw.go.jp/41/index.php?action_kouhyou_detail_004_kani=true&JigyosyoCd=4170102190-00&ServiceCd=110&Type=search", "url2": "http://www.ailife-ics.jp/" }, "geometry": { "type": "Point", "coordinates": [ 130.296288499999946, 33.2659317 ] } },
{ "type": "Feature", "properties": { "内容": "ニチイケアセンター諸富【訪問介護】佐賀市諸富町大字諸富津20-17澤野貸店舗　1階103号室", "url": "https://www.kaigokensaku.mhlw.go.jp/41/index.php?action_kouhyou_detail_004_kani=true&JigyosyoCd=4170103321-00&ServiceCd=110&Type=search", "url2": null }, "geometry": { "type": "Point", "coordinates": [ 130.3540535, 33.2229223 ] } },
{ "type": "Feature", "properties": { "内容": "あおぞらヘルパーステーション佐賀医大前【訪問介護】佐賀県佐賀市鍋島町大字鍋島２００１－１アヴィラージュ佐賀医大前", "url": "https://www.kaigokensaku.mhlw.go.jp/41/index.php?action_kouhyou_detail_004_kani=true&JigyosyoCd=4170102893-00&ServiceCd=110&Type=search", "url2": null }, "geometry": { "type": "Point", "coordinates": [ 130.263082, 33.2766465 ] } },
{ "type": "Feature", "properties": { "内容": "あいサポートこころ【訪問介護】佐賀県佐賀市鍋島町大字八戸溝1265-31", "url": "https://www.kaigokensaku.mhlw.go.jp/41/index.php?action_kouhyou_detail_004_kani=true&JigyosyoCd=4170101234-00&ServiceCd=110&Type=search", "url2": null }, "geometry": { "type": "Point", "coordinates": [ 130.2682744, 33.2599193 ] } },
{ "type": "Feature", "properties": { "内容": "アリス・さが【訪問介護】唐人2-3-28", "url": "https://www.kaigokensaku.mhlw.go.jp/41/index.php?action_kouhyou_detail_004_kani=true&JigyosyoCd=4170103479-00&ServiceCd=110&Type=search", "url2": null }, "geometry": { "type": "Point", "coordinates": [ 130.3003837, 33.2574775 ] } },
{ "type": "Feature", "properties": { "内容": "ホームヘルプサービスうえむら【訪問介護】佐賀市兵庫町大字渕4604番地１", "url": "https://www.kaigokensaku.mhlw.go.jp/41/index.php?action_kouhyou_detail_004_kani=true&JigyosyoCd=4110114925-00&ServiceCd=110&Type=search", "url2": "http://www3.ocn.ne.jp/uemurahp/" }, "geometry": { "type": "Point", "coordinates": [ 130.314084388954939, 33.283139909569186 ] } },
{ "type": "Feature", "properties": { "内容": "株式会社かほるケアサービス【訪問介護】佐賀市西田代２丁目４－１２", "url": "https://www.kaigokensaku.mhlw.go.jp/41/index.php?action_kouhyou_detail_004_kani=true&JigyosyoCd=4170100079-00&ServiceCd=110&Type=search", "url2": "http:www.kahoru-a.info/" }, "geometry": { "type": "Point", "coordinates": [ 130.287895299999946, 33.2487163 ] } },
{ "type": "Feature", "properties": { "内容": "介護　かんろ【訪問介護】佐賀県佐賀市北川副町大字新郷781", "url": "https://www.kaigokensaku.mhlw.go.jp/41/index.php?action_kouhyou_detail_004_kani=true&JigyosyoCd=4170103644-00&ServiceCd=110&Type=search", "url2": "kanro.230501@gmail.com" }, "geometry": { "type": "Point", "coordinates": [ 130.3119136, 33.2340301 ] } },
{ "type": "Feature", "properties": { "内容": "メティエ【訪問介護】大和町久池井853-5", "url": "https://www.kaigokensaku.mhlw.go.jp/41/index.php?action_kouhyou_detail_004_kani=true&JigyosyoCd=4170101754-00&ServiceCd=110&Type=search", "url2": null }, "geometry": { "type": "Point", "coordinates": [ 130.2946121, 33.3160299 ] } },
{ "type": "Feature", "properties": { "内容": "ヘルパーステーションあいあい【訪問介護】佐賀県佐賀市川副町大字早津江188番地5", "url": "https://www.kaigokensaku.mhlw.go.jp/41/index.php?action_kouhyou_detail_004_kani=true&JigyosyoCd=4170103701-00&ServiceCd=110&Type=search", "url2": null }, "geometry": { "type": "Point", "coordinates": [ 130.33606530000003, 33.2078772 ] } },
{ "type": "Feature", "properties": { "内容": "訪問介護ステーションあるば【訪問介護】佐賀県佐賀市日の出1-14-72-101", "url": "https://www.kaigokensaku.mhlw.go.jp/41/index.php?action_kouhyou_detail_004_kani=true&JigyosyoCd=4170103511-00&ServiceCd=110&Type=search", "url2": "作成中" }, "geometry": { "type": "Point", "coordinates": [ 130.2976941, 33.2801194 ] } },
{ "type": "Feature", "properties": { "内容": "訪問介護かがやき【訪問介護】大財6丁目1-1ｸﾞﾚｰｽﾌﾙ栄201", "url": "https://www.kaigokensaku.mhlw.go.jp/41/index.php?action_kouhyou_detail_004_kani=true&JigyosyoCd=4170102380-00&ServiceCd=110&Type=search", "url2": "kagayaki2013＠outlook.jp" }, "geometry": { "type": "Point", "coordinates": [ 130.311940014063993, 33.258592579292078 ] } },
{ "type": "Feature", "properties": { "内容": "しょうぶ苑訪問介護事業所【訪問介護】佐賀市大和町大字尼寺3227-1", "url": "https://www.kaigokensaku.mhlw.go.jp/41/index.php?action_kouhyou_detail_004_kani=true&JigyosyoCd=4171000203-00&ServiceCd=110&Type=search", "url2": "https://shobuen.com/" }, "geometry": { "type": "Point", "coordinates": [ 130.275833299999931, 33.3024226 ] } },
{ "type": "Feature", "properties": { "内容": "ホームヘルプサービス高木瀬【訪問介護】佐賀市高木瀬町大字東高木241-1", "url": "https://www.kaigokensaku.mhlw.go.jp/41/index.php?action_kouhyou_detail_004_kani=true&JigyosyoCd=4170101903-00&ServiceCd=110&Type=search", "url2": "http://www.senior-home.jp/" }, "geometry": { "type": "Point", "coordinates": [ 130.29975034655763, 33.27584071791766 ] } },
{ "type": "Feature", "properties": { "内容": "ちとせヘルパーステーション【訪問介護】佐賀県佐賀市北川副町光法1777-8", "url": "https://www.kaigokensaku.mhlw.go.jp/41/index.php?action_kouhyou_detail_004_kani=true&JigyosyoCd=4170101192-00&ServiceCd=110&Type=search", "url2": null }, "geometry": { "type": "Point", "coordinates": [ 130.325062212733428, 33.235222014327206 ] } },
{ "type": "Feature", "properties": { "内容": "訪問介護　ひまわり【訪問介護】佐賀市駅前中央二丁目９番１号", "url": "https://www.kaigokensaku.mhlw.go.jp/41/index.php?action_kouhyou_detail_004_kani=true&JigyosyoCd=4170101564-00&ServiceCd=110&Type=search", "url2": null }, "geometry": { "type": "Point", "coordinates": [ 130.301738, 33.2658791 ] } },
{ "type": "Feature", "properties": { "内容": "扇寿荘指定訪問介護センター【訪問介護】佐賀市嘉瀬町大字中原２５８５番地", "url": "https://www.kaigokensaku.mhlw.go.jp/41/index.php?action_kouhyou_detail_004_kani=true&JigyosyoCd=4170100111-00&ServiceCd=110&Type=search", "url2": null }, "geometry": { "type": "Point", "coordinates": [ 130.253795699999955, 33.2395133 ] } },
{ "type": "Feature", "properties": { "内容": "ライフエイドホームヘルプサービス【訪問介護】佐賀市久保泉町大字川久保5403", "url": "https://www.kaigokensaku.mhlw.go.jp/41/index.php?action_kouhyou_detail_004_kani=true&JigyosyoCd=4150180018-00&ServiceCd=110&Type=search", "url2": "http://seiyuukai.org/" }, "geometry": { "type": "Point", "coordinates": [ 130.323985499999907, 33.3401702 ] } },
{ "type": "Feature", "properties": { "内容": "きりん訪問介護事業所【訪問介護】佐賀市金立町久保泉町大字上和泉２２３２－１", "url": "https://www.kaigokensaku.mhlw.go.jp/41/index.php?action_kouhyou_detail_004_kani=true&JigyosyoCd=4150180042-00&ServiceCd=110&Type=search", "url2": "http://www.kirin-saga.or.jp" }, "geometry": { "type": "Point", "coordinates": [ 130.315802106411837, 33.304429023576432 ] } },
{ "type": "Feature", "properties": { "内容": "訪問介護ステーションエバーグリーン【訪問介護】佐賀県佐賀市嘉瀬町中原1965-1", "url": "https://www.kaigokensaku.mhlw.go.jp/41/index.php?action_kouhyou_detail_004_kani=true&JigyosyoCd=4150180059-00&ServiceCd=110&Type=search", "url2": "http://www.shimada.or.jp/" }, "geometry": { "type": "Point", "coordinates": [ 130.258750700000064, 33.2429048 ] } },
{ "type": "Feature", "properties": { "内容": "シオンの園　ホームヘルプサービス【訪問介護】佐賀市大和町大字久留間3865-1", "url": "https://www.kaigokensaku.mhlw.go.jp/41/index.php?action_kouhyou_detail_004_kani=true&JigyosyoCd=4161090032-00&ServiceCd=110&Type=search", "url2": "https://www.zion.or.jp" }, "geometry": { "type": "Point", "coordinates": [ 130.2433294, 33.3123104 ] } },
{ "type": "Feature", "properties": { "内容": "ホームヘルプケアポート晴寿【訪問介護】佐賀市高木瀬町東高木1170", "url": "https://www.kaigokensaku.mhlw.go.jp/41/index.php?action_kouhyou_detail_004_kani=true&JigyosyoCd=4170100012-00&ServiceCd=110&Type=search", "url2": "http://www.seijyukai.com/" }, "geometry": { "type": "Point", "coordinates": [ 130.299078530827245, 33.287462964265686 ] } },
{ "type": "Feature", "properties": { "内容": "つぼみ荘　ホームヘルプサービスチーム【訪問介護】佐賀市北川副町大字光法1480-2", "url": "https://www.kaigokensaku.mhlw.go.jp/41/index.php?action_kouhyou_detail_004_kani=true&JigyosyoCd=4170100103-00&ServiceCd=110&Type=search", "url2": "http://itwan.main.jp/tsubomi-sou/" }, "geometry": { "type": "Point", "coordinates": [ 130.331258400000024, 33.2321383 ] } },
{ "type": "Feature", "properties": { "内容": "ニチイケアセンターさが【訪問介護】佐賀県佐賀市鍋島三丁目14番28号", "url": "https://www.kaigokensaku.mhlw.go.jp/41/index.php?action_kouhyou_detail_004_kani=true&JigyosyoCd=4170100319-00&ServiceCd=110&Type=search", "url2": "http://www.nichiigakkann.co.jp" }, "geometry": { "type": "Point", "coordinates": [ 130.264159599999971, 33.2800741 ] } },
{ "type": "Feature", "properties": { "内容": "訪問介護　春庵【訪問介護】佐賀市鍋島町蛎久１３１３番地", "url": "https://www.kaigokensaku.mhlw.go.jp/41/index.php?action_kouhyou_detail_004_kani=true&JigyosyoCd=4170101044-00&ServiceCd=110&Type=search", "url2": "http://www.2006shunan.sakura.ne.jp" }, "geometry": { "type": "Point", "coordinates": [ 130.280577900000026, 33.2879155 ] } },
{ "type": "Feature", "properties": { "内容": "訪問介護　華みずき【訪問介護】佐賀市諸富町山領561-10", "url": "https://www.kaigokensaku.mhlw.go.jp/41/index.php?action_kouhyou_detail_004_kani=true&JigyosyoCd=4170101143-00&ServiceCd=110&Type=search", "url2": null }, "geometry": { "type": "Point", "coordinates": [ 130.343073595106517, 33.229878815018736 ] } },
{ "type": "Feature", "properties": { "内容": "まちの移動ケアサービス鍋島センター【訪問介護】佐賀県佐賀市鍋島3丁目３番２０号鍋島シェストビル３階", "url": "https://www.kaigokensaku.mhlw.go.jp/41/index.php?action_kouhyou_detail_004_kani=true&JigyosyoCd=4170101150-00&ServiceCd=110&Type=search", "url2": "https://fukushinoie-saga.com/" }, "geometry": { "type": "Point", "coordinates": [ 130.268476, 33.280252 ] } },
{ "type": "Feature", "properties": { "内容": "訪問介護　つむぎ【訪問介護】佐賀市本庄町本庄264番地1小規模多機能ホーム　このはな内", "url": "https://www.kaigokensaku.mhlw.go.jp/41/index.php?action_kouhyou_detail_004_kani=true&JigyosyoCd=4170101440-00&ServiceCd=110&Type=search", "url2": null }, "geometry": { "type": "Point", "coordinates": [ 130.292831685552983, 33.238071924863924 ] } },
{ "type": "Feature", "properties": { "内容": "ホームヘルプサービスチーム　桂寿苑【訪問介護】佐賀市金立町大字千布4088-1", "url": "https://www.kaigokensaku.mhlw.go.jp/41/index.php?action_kouhyou_detail_004_kani=true&JigyosyoCd=4170101507-00&ServiceCd=110&Type=search", "url2": "http://www.ryoyuukai.jp" }, "geometry": { "type": "Point", "coordinates": [ 130.297306899999967, 33.2981177 ] } },
{ "type": "Feature", "properties": { "内容": "社会福祉法人グリーンコープふくしサービスセンターびすけっと佐賀【訪問介護】佐賀市高木瀬東３丁目９番１３号", "url": "https://www.kaigokensaku.mhlw.go.jp/41/index.php?action_kouhyou_detail_004_kani=true&JigyosyoCd=4170101531-00&ServiceCd=110&Type=search", "url2": "https://www.fukushi-greencoop.or.jp/office/385" }, "geometry": { "type": "Point", "coordinates": [ 130.295096400000034, 33.283677300000022 ] } },
{ "type": "Feature", "properties": { "内容": "訪問介護　クローバー【訪問介護】佐賀市高木瀬町大字長瀬１２４０番地１号", "url": "https://www.kaigokensaku.mhlw.go.jp/41/index.php?action_kouhyou_detail_004_kani=true&JigyosyoCd=4170101606-00&ServiceCd=110&Type=search", "url2": null }, "geometry": { "type": "Point", "coordinates": [ 130.282502600000043, 33.2931873 ] } },
{ "type": "Feature", "properties": { "内容": "ホームヘルプサービス　すみれ【訪問介護】佐賀県佐賀市金立町大字千布2307番地2", "url": "https://www.kaigokensaku.mhlw.go.jp/41/index.php?action_kouhyou_detail_004_kani=true&JigyosyoCd=4170101879-00&ServiceCd=110&Type=search", "url2": null }, "geometry": { "type": "Point", "coordinates": [ 130.301192300000025, 33.3079725 ] } },
{ "type": "Feature", "properties": { "内容": "訪問介護事業所　わいわい【訪問介護】佐賀市金立町大字金立799", "url": "https://www.kaigokensaku.mhlw.go.jp/41/index.php?action_kouhyou_detail_004_kani=true&JigyosyoCd=4170101895-00&ServiceCd=110&Type=search", "url2": "https://sakou21.jp/" }, "geometry": { "type": "Point", "coordinates": [ 130.303499327994587, 33.324363851713727 ] } },
{ "type": "Feature", "properties": { "内容": "訪問介護ステーション愛咲【訪問介護】佐賀市水ヶ江二丁目7-23", "url": "https://www.kaigokensaku.mhlw.go.jp/41/index.php?action_kouhyou_detail_004_kani=true&JigyosyoCd=4170101911-00&ServiceCd=110&Type=search", "url2": "info@shida-hp.com" }, "geometry": { "type": "Point", "coordinates": [ 130.307993500000066, 33.2492946 ] } },
{ "type": "Feature", "properties": { "内容": "長光園障害者支援センター【訪問介護】佐賀県佐賀市兵庫南２丁目１６番３９号", "url": "https://www.kaigokensaku.mhlw.go.jp/41/index.php?action_kouhyou_detail_004_kani=true&JigyosyoCd=4170101994-00&ServiceCd=110&Type=search", "url2": "http://www.chokoen.com/" }, "geometry": { "type": "Point", "coordinates": [ 130.315891599999986, 33.2640502 ] } },
{ "type": "Feature", "properties": { "内容": "ヘルパーネット青空【訪問介護】佐賀県佐賀市神野西４丁目１２番１２号", "url": "https://www.kaigokensaku.mhlw.go.jp/41/index.php?action_kouhyou_detail_004_kani=true&JigyosyoCd=4170102109-00&ServiceCd=110&Type=search", "url2": null }, "geometry": { "type": "Point", "coordinates": [ 130.2862781, 33.2691478 ] } },
{ "type": "Feature", "properties": { "内容": "ヘルパーステーション西与賀【訪問介護】佐賀市西与賀町大字高太郎１８４－１", "url": "https://www.kaigokensaku.mhlw.go.jp/41/index.php?action_kouhyou_detail_004_kani=true&JigyosyoCd=4170102117-00&ServiceCd=110&Type=search", "url2": "http://www.sunnycourt.info/" }, "geometry": { "type": "Point", "coordinates": [ 130.2683839, 33.2254293 ] } },
{ "type": "Feature", "properties": { "内容": "訪問介護　カームの里【訪問介護】佐賀県佐賀市富士町大字上熊川337番地4", "url": "https://www.kaigokensaku.mhlw.go.jp/41/index.php?action_kouhyou_detail_004_kani=true&JigyosyoCd=4170102158-00&ServiceCd=110&Type=search", "url2": null }, "geometry": { "type": "Point", "coordinates": [ 130.235624067289791, 33.363100376047186 ] } },
{ "type": "Feature", "properties": { "内容": "ヘルパーステーション昇開橋【訪問介護】佐賀市諸富町大字徳富19-1", "url": "https://www.kaigokensaku.mhlw.go.jp/41/index.php?action_kouhyou_detail_004_kani=true&JigyosyoCd=4170102174-00&ServiceCd=110&Type=search", "url2": "http://www.souseikai.or.jp/" }, "geometry": { "type": "Point", "coordinates": [ 130.364804899999967, 33.2184346 ] } },
{ "type": "Feature", "properties": { "内容": "ヘルパーステーションいこいの里巨勢【訪問介護】巨勢町大字牛島681-1", "url": "https://www.kaigokensaku.mhlw.go.jp/41/index.php?action_kouhyou_detail_004_kani=true&JigyosyoCd=4170102307-00&ServiceCd=110&Type=search", "url2": "http://ikoino-sato.com" }, "geometry": { "type": "Point", "coordinates": [ 130.3182342, 33.2502754 ] } },
{ "type": "Feature", "properties": { "内容": "ホームヘルプサービス吉原【訪問介護】北川副町新郷654-1夢館", "url": "https://www.kaigokensaku.mhlw.go.jp/41/index.php?action_kouhyou_detail_004_kani=true&JigyosyoCd=4170102414-00&ServiceCd=110&Type=search", "url2": "http://www.sagareha.or.jp" }, "geometry": { "type": "Point", "coordinates": [ 130.31280449999997, 33.2381486 ] } },
{ "type": "Feature", "properties": { "内容": "ホームヘルプサービス杏の樹【訪問介護】佐賀県佐賀市鬼丸町15-38", "url": "https://www.kaigokensaku.mhlw.go.jp/41/index.php?action_kouhyou_detail_004_kani=true&JigyosyoCd=4170102455-00&ServiceCd=110&Type=search", "url2": "https://kyokaen.wixsite.com/nicelandkitagata" }, "geometry": { "type": "Point", "coordinates": [ 130.295455899999979, 33.2423282 ] } },
{ "type": "Feature", "properties": { "内容": "ヘルパーステーション　きらきら【訪問介護】佐賀県佐賀市西与賀町厘外１２３０番地６", "url": "https://www.kaigokensaku.mhlw.go.jp/41/index.php?action_kouhyou_detail_004_kani=true&JigyosyoCd=4170102653-00&ServiceCd=110&Type=search", "url2": null }, "geometry": { "type": "Point", "coordinates": [ 130.276567943185341, 33.235250286260445 ] } },
{ "type": "Feature", "properties": { "内容": "ケアネット　リング【訪問介護】佐賀県佐賀市水ヶ江5丁目8番18号", "url": "https://www.kaigokensaku.mhlw.go.jp/41/index.php?action_kouhyou_detail_004_kani=true&JigyosyoCd=4170102687-00&ServiceCd=110&Type=search", "url2": null }, "geometry": { "type": "Point", "coordinates": [ 130.310338017790968, 33.241615977966688 ] } },
{ "type": "Feature", "properties": { "内容": "合同会社絆（訪問介護絆）【訪問介護】佐賀県佐賀市西田代１－５－１０ファミーユM２０１号", "url": "https://www.kaigokensaku.mhlw.go.jp/41/index.php?action_kouhyou_detail_004_kani=true&JigyosyoCd=4170102851-00&ServiceCd=110&Type=search", "url2": null }, "geometry": { "type": "Point", "coordinates": [ 130.2861045, 33.2493215 ] } },
{ "type": "Feature", "properties": { "内容": "ホームヘルプサービス　くるみ【訪問介護】佐賀県佐賀市新中町8番20号", "url": "https://www.kaigokensaku.mhlw.go.jp/41/index.php?action_kouhyou_detail_004_kani=true&JigyosyoCd=4170103594-00&ServiceCd=110&Type=search", "url2": "https://www.npo-hinoki.or.jp" }, "geometry": { "type": "Point", "coordinates": [ 130.3000405, 33.2723287 ] } },
{ "type": "Feature", "properties": { "内容": "ほうもんかいごじぎょうしょけあかふぇ【訪問介護】佐賀県佐賀市本庄町大字本庄1153-2", "url": "https://www.kaigokensaku.mhlw.go.jp/41/index.php?action_kouhyou_detail_004_kani=true&JigyosyoCd=4170103669-00&ServiceCd=110&Type=search", "url2": "http://hakuhou-saga.com" }, "geometry": { "type": "Point", "coordinates": [ 130.281512464418029, 33.243150564533963 ] } },
{ "type": "Feature", "properties": { "内容": "ロザリオの園　ホームヘルプサービス事業所【訪問介護】佐賀県佐賀市大和町大字久池井１３８６－２", "url": "https://www.kaigokensaku.mhlw.go.jp/41/index.php?action_kouhyou_detail_004_kani=true&JigyosyoCd=4171000013-00&ServiceCd=110&Type=search", "url2": "http://www.rosaryo.jp/" }, "geometry": { "type": "Point", "coordinates": [ 130.288170700000023, 33.3257233 ] } },
{ "type": "Feature", "properties": { "内容": "南鴎荘ホームヘルプサービス【訪問介護】佐賀市久保田町大字久富３４５９番地２", "url": "https://www.kaigokensaku.mhlw.go.jp/41/index.php?action_kouhyou_detail_004_kani=true&JigyosyoCd=4171000039-00&ServiceCd=110&Type=search", "url2": "https://www.nanousou.com" }, "geometry": { "type": "Point", "coordinates": [ 130.238202600000022, 33.2195266 ] } },
{ "type": "Feature", "properties": { "内容": "なごみ荘ホームヘルプサービス【訪問介護】佐賀県佐賀市富士町大字小副川562", "url": "https://www.kaigokensaku.mhlw.go.jp/41/index.php?action_kouhyou_detail_004_kani=true&JigyosyoCd=4171000047-00&ServiceCd=110&Type=search", "url2": "https://www.kenjyu-nagomi" }, "geometry": { "type": "Point", "coordinates": [ 130.243894725131184, 33.365159770733442 ] } },
{ "type": "Feature", "properties": { "内容": "けやき荘ホームヘルプサービス【訪問介護】佐賀市川副町大字福富828-1", "url": "https://www.kaigokensaku.mhlw.go.jp/41/index.php?action_kouhyou_detail_004_kani=true&JigyosyoCd=4171000054-00&ServiceCd=110&Type=search", "url2": "http://www.keyakisou.or.jp/" }, "geometry": { "type": "Point", "coordinates": [ 130.321751, 33.2113929 ] } },
{ "type": "Feature", "properties": { "内容": "福寿園ホームヘルプサービスセンター【訪問介護】佐賀県佐賀市諸富町大字諸富津２０９番地３", "url": "https://www.kaigokensaku.mhlw.go.jp/41/index.php?action_kouhyou_detail_004_kani=true&JigyosyoCd=4171000096-00&ServiceCd=110&Type=search", "url2": "https://fukujukaisaga.com/" }, "geometry": { "type": "Point", "coordinates": [ 130.360997099999963, 33.2197317 ] } },
{ "type": "Feature", "properties": { "内容": "ホームヘルプサービス　ゆうゆう【訪問介護】佐賀市大和町大字久池井1663番地1プレミアムアイランド久池井1・106", "url": "https://www.kaigokensaku.mhlw.go.jp/41/index.php?action_kouhyou_detail_004_kani=true&JigyosyoCd=4171000286-00&ServiceCd=110&Type=search", "url2": null }, "geometry": { "type": "Point", "coordinates": [ 130.287662227477995, 33.31915998501178 ] } },
{ "type": "Feature", "properties": { "内容": "訪問介護ステーション　ぴーす【訪問介護】佐賀県佐賀市諸富町大字諸富津139-1", "url": "https://www.kaigokensaku.mhlw.go.jp/41/index.php?action_kouhyou_detail_004_kani=true&JigyosyoCd=4170103826-00&ServiceCd=110&Type=search", "url2": "https：//www.ekiten.jp" }, "geometry": { "type": "Point", "coordinates": [ 130.3580034, 33.2227019 ] } },
{ "type": "Feature", "properties": { "内容": "真　ヘルプサービス【訪問介護】佐賀市鍋島６丁目15-15　A202", "url": "https://www.kaigokensaku.mhlw.go.jp/41/index.php?action_kouhyou_detail_004_kani=true&JigyosyoCd=4170103875-00&ServiceCd=110&Type=search", "url2": "https://www.shumakoto.com" }, "geometry": { "type": "Point", "coordinates": [ 130.266406, 33.2890872 ] } },
{ "type": "Feature", "properties": { "内容": "ニチイケアセンター佐賀みなみ【訪問介護】佐賀県佐賀市本庄町袋142-1", "url": "https://www.kaigokensaku.mhlw.go.jp/41/index.php?action_kouhyou_detail_004_kani=true&JigyosyoCd=4170100772-00&ServiceCd=110&Type=search", "url2": "http://www.nichiigakkan.co.jp" }, "geometry": { "type": "Point", "coordinates": [ 130.303272, 33.2377178 ] } },
{ "type": "Feature", "properties": { "内容": "訪問介護ステーション　ケアビレッジ夢咲【訪問介護】佐賀市兵庫北６丁目2-23ケアビレッジ夢咲", "url": "https://www.kaigokensaku.mhlw.go.jp/41/index.php?action_kouhyou_detail_004_kani=true&JigyosyoCd=4170101309-00&ServiceCd=110&Type=search", "url2": "www.cv-yumesaki.com/" }, "geometry": { "type": "Point", "coordinates": [ 130.311903499999971, 33.2733454 ] } },
{ "type": "Feature", "properties": { "内容": "セントケア佐賀【訪問介護】佐賀市兵庫南3－1－19", "url": "https://www.kaigokensaku.mhlw.go.jp/41/index.php?action_kouhyou_detail_004_kani=true&JigyosyoCd=4170101945-00&ServiceCd=110&Type=search", "url2": null }, "geometry": { "type": "Point", "coordinates": [ 130.317111599999947, 33.2648602 ] } },
{ "type": "Feature", "properties": { "内容": "ニチイケアセンター久保田【訪問介護】佐賀市久保田町大字徳万345番地6", "url": "https://www.kaigokensaku.mhlw.go.jp/41/index.php?action_kouhyou_detail_004_kani=true&JigyosyoCd=4170102323-00&ServiceCd=110&Type=search", "url2": null }, "geometry": { "type": "Point", "coordinates": [ 130.238851899999986, 33.2472039 ] } },
{ "type": "Feature", "properties": { "内容": "訪問介護　ヒルビレッジ【訪問介護】佐賀県佐賀市神野東４丁目5-12", "url": "https://www.kaigokensaku.mhlw.go.jp/41/index.php?action_kouhyou_detail_004_kani=true&JigyosyoCd=4170103677-00&ServiceCd=110&Type=search", "url2": null }, "geometry": { "type": "Point", "coordinates": [ 130.299325296606412, 33.268166147145834 ] } },
{ "type": "Feature", "properties": { "内容": "指定訪問介護事業所河畔【訪問介護】唐津市松南町１１９－２", "url": "https://www.kaigokensaku.mhlw.go.jp/41/index.php?action_kouhyou_detail_004_kani=true&JigyosyoCd=4110211978-00&ServiceCd=110&Type=search", "url2": null }, "geometry": { "type": "Point", "coordinates": [ 130.001575499999944, 33.4387818 ] } },
{ "type": "Feature", "properties": { "内容": "訪問介護サービス岩本内科かなえ隊【訪問介護】佐賀県唐津市海岸通7182番地78", "url": "https://www.kaigokensaku.mhlw.go.jp/41/index.php?action_kouhyou_detail_004_kani=true&JigyosyoCd=4110212687-00&ServiceCd=110&Type=search", "url2": null }, "geometry": { "type": "Point", "coordinates": [ 129.957336899999973, 33.4683136 ] } },
{ "type": "Feature", "properties": { "内容": "佐賀県済生会指定訪問介護事業所【訪問介護】佐賀県唐津市江川町694-1", "url": "https://www.kaigokensaku.mhlw.go.jp/41/index.php?action_kouhyou_detail_004_kani=true&JigyosyoCd=4150280016-00&ServiceCd=110&Type=search", "url2": "http://www.saiseikai-karatsu.com" }, "geometry": { "type": "Point", "coordinates": [ 129.963634714155546, 33.454062446721359 ] } },
{ "type": "Feature", "properties": { "内容": "訪問介護サービスのぞみ【訪問介護】佐賀県唐津市養母田553-1", "url": "https://www.kaigokensaku.mhlw.go.jp/41/index.php?action_kouhyou_detail_004_kani=true&JigyosyoCd=4150280032-00&ServiceCd=110&Type=search", "url2": "http://www.shujinkai.or.jp" }, "geometry": { "type": "Point", "coordinates": [ 129.984463099999971, 33.4127368 ] } },
{ "type": "Feature", "properties": { "内容": "唐津市社会福祉協議会訪問介護唐津事業所【訪問介護】佐賀県唐津市二夕子3丁目155番地4唐津市高齢者ふれあい会館りふれ2F", "url": "https://www.kaigokensaku.mhlw.go.jp/41/index.php?action_kouhyou_detail_004_kani=true&JigyosyoCd=4170200010-00&ServiceCd=110&Type=search", "url2": "http://www.karatsu-shakyo.or.jp/" }, "geometry": { "type": "Point", "coordinates": [ 129.957967927833579, 33.463076817204858 ] } },
{ "type": "Feature", "properties": { "内容": "栄荘ホームヘルプサービス【訪問介護】佐賀県唐津市栄町2588-19", "url": "https://www.kaigokensaku.mhlw.go.jp/41/index.php?action_kouhyou_detail_004_kani=true&JigyosyoCd=4170200028-00&ServiceCd=110&Type=search", "url2": "http://k-fukushikai.jp/sakae-gaiyou.html" }, "geometry": { "type": "Point", "coordinates": [ 129.976963500000011, 33.4493601 ] } },
{ "type": "Feature", "properties": { "内容": "ヘルパーステーション　からっと【訪問介護】佐賀県唐津市相知町牟田部973-1", "url": "https://www.kaigokensaku.mhlw.go.jp/41/index.php?action_kouhyou_detail_004_kani=true&JigyosyoCd=4170200325-00&ServiceCd=110&Type=search", "url2": "https://karat-life.com/" }, "geometry": { "type": "Point", "coordinates": [ 130.001076, 33.3677226 ] } },
{ "type": "Feature", "properties": { "内容": "ヘルパーステーション　ひばり【訪問介護】佐賀県唐津市山田2824-5", "url": "https://www.kaigokensaku.mhlw.go.jp/41/index.php?action_kouhyou_detail_004_kani=true&JigyosyoCd=4170200424-00&ServiceCd=110&Type=search", "url2": "http://link2005.jp/" }, "geometry": { "type": "Point", "coordinates": [ 129.951368111053398, 33.421992710536195 ] } },
{ "type": "Feature", "properties": { "内容": "訪問介護サービスサリバン【訪問介護】佐賀県唐津市相知町佐里1646-13", "url": "https://www.kaigokensaku.mhlw.go.jp/41/index.php?action_kouhyou_detail_004_kani=true&JigyosyoCd=4170200549-00&ServiceCd=110&Type=search", "url2": "hikarinosono@vc1.people-i.ne.jp" }, "geometry": { "type": "Point", "coordinates": [ 129.981650400000035, 33.3417195 ] } },
{ "type": "Feature", "properties": { "内容": "株式会社からつヘルパーステーションあすなろ会【訪問介護】佐賀県唐津市熊原町3120-5", "url": "https://www.kaigokensaku.mhlw.go.jp/41/index.php?action_kouhyou_detail_004_kani=true&JigyosyoCd=4170200606-00&ServiceCd=110&Type=search", "url2": "http://www." }, "geometry": { "type": "Point", "coordinates": [ 129.963536919326771, 33.446591837038419 ] } },
{ "type": "Feature", "properties": { "内容": "ぽっかぽかハートケア東唐津【訪問介護】唐津市鏡新開９５番地", "url": "https://www.kaigokensaku.mhlw.go.jp/41/index.php?action_kouhyou_detail_004_kani=true&JigyosyoCd=4170200929-00&ServiceCd=110&Type=search", "url2": null }, "geometry": { "type": "Point", "coordinates": [ 130.000721699999986, 33.4368757 ] } },
{ "type": "Feature", "properties": { "内容": "セントケア　唐津【訪問介護】佐賀県唐津市神田2029-2隆成ホーム神田B棟1階1号室", "url": "https://www.kaigokensaku.mhlw.go.jp/41/index.php?action_kouhyou_detail_004_kani=true&JigyosyoCd=4170200945-00&ServiceCd=110&Type=search", "url2": "http://www,care-mado,com" }, "geometry": { "type": "Point", "coordinates": [ 129.978877080473353, 33.437793532265353 ] } },
{ "type": "Feature", "properties": { "内容": "社会福祉法人ふくしサービスセンターびすけっと唐津【訪問介護】佐賀県唐津市和多田本村5-29グリーンコープ生協からつセンター内", "url": "https://www.kaigokensaku.mhlw.go.jp/41/index.php?action_kouhyou_detail_004_kani=true&JigyosyoCd=4170201281-00&ServiceCd=110&Type=search", "url2": "g0welc@greencoop.co.jp" }, "geometry": { "type": "Point", "coordinates": [ 129.983224299999961, 33.4324289 ] } },
{ "type": "Feature", "properties": { "内容": "訪問介護ステーションひだまり【訪問介護】佐賀県唐津市山田4025番地1", "url": "https://www.kaigokensaku.mhlw.go.jp/41/index.php?action_kouhyou_detail_004_kani=true&JigyosyoCd=4170201299-00&ServiceCd=110&Type=search", "url2": "www.vf-life.com" }, "geometry": { "type": "Point", "coordinates": [ 129.944688, 33.4086722 ] } },
{ "type": "Feature", "properties": { "内容": "訪問介護事業所ウェルビー唐津【訪問介護】佐賀県唐津市浜玉町浜崎字長田297-7", "url": "https://www.kaigokensaku.mhlw.go.jp/41/index.php?action_kouhyou_detail_004_kani=true&JigyosyoCd=4170201372-00&ServiceCd=110&Type=search", "url2": null }, "geometry": { "type": "Point", "coordinates": [ 130.044179828697196, 33.446180341396378 ] } },
{ "type": "Feature", "properties": { "内容": "宝寿荘ホームヘルプサービス【訪問介護】佐賀県唐津市呼子町殿ノ浦797-23", "url": "https://www.kaigokensaku.mhlw.go.jp/41/index.php?action_kouhyou_detail_004_kani=true&JigyosyoCd=4170201406-00&ServiceCd=110&Type=search", "url2": "ｋ－fukushikai.jp" }, "geometry": { "type": "Point", "coordinates": [ 129.889237200000025, 33.531855 ] } },
{ "type": "Feature", "properties": { "内容": "お世話宅配便【訪問介護】佐賀県唐津市町田2丁目6-39有料老人ホーム自宅ぐらし", "url": "https://www.kaigokensaku.mhlw.go.jp/41/index.php?action_kouhyou_detail_004_kani=true&JigyosyoCd=4170201570-00&ServiceCd=110&Type=search", "url2": "https://osewa.jp" }, "geometry": { "type": "Point", "coordinates": [ 129.965701139217344, 33.439894571668518 ] } },
{ "type": "Feature", "properties": { "内容": "浜玉荘ホームヘルプサービス【訪問介護】佐賀県唐津市浜玉町東山田2399番地", "url": "https://www.kaigokensaku.mhlw.go.jp/41/index.php?action_kouhyou_detail_004_kani=true&JigyosyoCd=4171400049-00&ServiceCd=110&Type=search", "url2": "http://k-fukushikai.jp/h_about_riyou.html" }, "geometry": { "type": "Point", "coordinates": [ 130.045613600000024, 33.4300291 ] } },
{ "type": "Feature", "properties": { "内容": "ニチイケアセンター唐津【訪問介護】佐賀県唐津市鏡新開9番地", "url": "https://www.kaigokensaku.mhlw.go.jp/41/index.php?action_kouhyou_detail_004_kani=true&JigyosyoCd=4170200077-00&ServiceCd=110&Type=search", "url2": "http://www.nichiigakkan.co.jp" }, "geometry": { "type": "Point", "coordinates": [ 129.996628800000053, 33.4372317 ] } },
{ "type": "Feature", "properties": { "内容": "作礼荘ホームヘルプサービス【訪問介護】佐賀県唐津市相知町中山3544番地1", "url": "https://www.kaigokensaku.mhlw.go.jp/41/index.php?action_kouhyou_detail_004_kani=true&JigyosyoCd=4171400072-00&ServiceCd=110&Type=search", "url2": "karatu＠k-fukushikai.jp" }, "geometry": { "type": "Point", "coordinates": [ 130.015995100000026, 33.3509978 ] } },
{ "type": "Feature", "properties": { "内容": "あいぞら訪問介護ステーション【訪問介護】田代外町６５５－２０", "url": "https://www.kaigokensaku.mhlw.go.jp/41/index.php?action_kouhyou_detail_004_kani=true&JigyosyoCd=4160390102-00&ServiceCd=110&Type=search", "url2": "aizora@orion.ocn.ne.jp" }, "geometry": { "type": "Point", "coordinates": [ 130.51661124901679, 33.386844717709565 ] } },
{ "type": "Feature", "properties": { "内容": "ホームヘルプサービスセントポーリア【訪問介護】佐賀県鳥栖市真木町1990番地", "url": "https://www.kaigokensaku.mhlw.go.jp/41/index.php?action_kouhyou_detail_004_kani=true&JigyosyoCd=4170301016-00&ServiceCd=110&Type=search", "url2": "www15.ocn.ne.jp/~setojima" }, "geometry": { "type": "Point", "coordinates": [ 130.5065247, 33.3613048 ] } },
{ "type": "Feature", "properties": { "内容": "ヘルパーステーション　ゆかりん【訪問介護】佐賀県鳥栖市宿町1421番地5", "url": "https://www.kaigokensaku.mhlw.go.jp/41/index.php?action_kouhyou_detail_004_kani=true&JigyosyoCd=4171200811-00&ServiceCd=110&Type=search", "url2": null }, "geometry": { "type": "Point", "coordinates": [ 130.4372481, 33.3398 ] } },
{ "type": "Feature", "properties": { "内容": "やよいがおかヘルパーステーション【訪問介護】佐賀県鳥栖市弥生が丘2丁目1番光寿　やよいが丘ビル3階", "url": "https://www.kaigokensaku.mhlw.go.jp/41/index.php?action_kouhyou_detail_004_kani=true&JigyosyoCd=4170300679-00&ServiceCd=110&Type=search", "url2": null }, "geometry": { "type": "Point", "coordinates": [ 130.525083399999971, 33.4033028 ] } },
{ "type": "Feature", "properties": { "内容": "訪問介護こでまり【訪問介護】佐賀県鳥栖市立石町2069番地22", "url": "https://www.kaigokensaku.mhlw.go.jp/41/index.php?action_kouhyou_detail_004_kani=true&JigyosyoCd=4170301271-00&ServiceCd=110&Type=search", "url2": null }, "geometry": { "type": "Point", "coordinates": [ 130.468798600000014, 33.3648126 ] } },
{ "type": "Feature", "properties": { "内容": "ヘルパーステーションえにし【訪問介護】佐賀県鳥栖市下野町1391番地3", "url": "https://www.kaigokensaku.mhlw.go.jp/41/index.php?action_kouhyou_detail_004_kani=true&JigyosyoCd=4170301131-00&ServiceCd=110&Type=search", "url2": null }, "geometry": { "type": "Point", "coordinates": [ 130.502021600000035, 33.331241 ] } },
{ "type": "Feature", "properties": { "内容": "パイン介護サービス【訪問介護】佐賀県鳥栖市桜町1103番地7", "url": "https://www.kaigokensaku.mhlw.go.jp/41/index.php?action_kouhyou_detail_004_kani=true&JigyosyoCd=4170301248-00&ServiceCd=110&Type=search", "url2": null }, "geometry": { "type": "Point", "coordinates": [ 130.525491, 33.389258 ] } },
{ "type": "Feature", "properties": { "内容": "真心の園ホームヘルパーステーション【訪問介護】佐賀県鳥栖市村田町1250番地1", "url": "https://www.kaigokensaku.mhlw.go.jp/41/index.php?action_kouhyou_detail_004_kani=true&JigyosyoCd=4170300034-00&ServiceCd=110&Type=search", "url2": "http://www.magokoro.or.jp" }, "geometry": { "type": "Point", "coordinates": [ 130.474957, 33.3692489 ] } },
{ "type": "Feature", "properties": { "内容": "ニチイケアセンター鳥栖【訪問介護】鳥栖市大正町703-1", "url": "https://www.kaigokensaku.mhlw.go.jp/41/index.php?action_kouhyou_detail_004_kani=true&JigyosyoCd=4170300307-00&ServiceCd=110&Type=search", "url2": "http://www.nichigakkan.co.jp" }, "geometry": { "type": "Point", "coordinates": [ 130.515841099999989, 33.3755135 ] } },
{ "type": "Feature", "properties": { "内容": "ホームヘルプけいしん【訪問介護】佐賀県鳥栖市原町字恒石６８８－１", "url": "https://www.kaigokensaku.mhlw.go.jp/41/index.php?action_kouhyou_detail_004_kani=true&JigyosyoCd=4170300687-00&ServiceCd=110&Type=search", "url2": "http://www.keishinkai.jp" }, "geometry": { "type": "Point", "coordinates": [ 130.5258983, 33.3824769 ] } },
{ "type": "Feature", "properties": { "内容": "南風田代ヘルパーステーション【訪問介護】佐賀県鳥栖市田代外町699-4", "url": "https://www.kaigokensaku.mhlw.go.jp/41/index.php?action_kouhyou_detail_004_kani=true&JigyosyoCd=4170300935-00&ServiceCd=110&Type=search", "url2": "http://minamikaze-g.jp" }, "geometry": { "type": "Point", "coordinates": [ 130.515325499999989, 33.3876673 ] } },
{ "type": "Feature", "properties": { "内容": "ヘルパーステーションろしゅう【訪問介護】佐賀県鳥栖市儀徳町2907-1", "url": "https://www.kaigokensaku.mhlw.go.jp/41/index.php?action_kouhyou_detail_004_kani=true&JigyosyoCd=4170300968-00&ServiceCd=110&Type=search", "url2": "https://rosyuu-rukkusu.com" }, "geometry": { "type": "Point", "coordinates": [ 130.494209599999976, 33.3522119 ] } },
{ "type": "Feature", "properties": { "内容": "社会福祉法人グリーンコープふくしサービスセンターびすけっと鳥栖【訪問介護】佐賀県鳥栖市養父町３５－１－２コーポヒロ１０３号室", "url": "https://www.kaigokensaku.mhlw.go.jp/41/index.php?action_kouhyou_detail_004_kani=true&JigyosyoCd=4170300992-00&ServiceCd=110&Type=search", "url2": null }, "geometry": { "type": "Point", "coordinates": [ 130.499944300000038, 33.3801348 ] } },
{ "type": "Feature", "properties": { "内容": "ヘルパーステーション三介【訪問介護】佐賀県鳥栖市弥生が丘６−３３０", "url": "https://www.kaigokensaku.mhlw.go.jp/41/index.php?action_kouhyou_detail_004_kani=true&JigyosyoCd=4170301123-00&ServiceCd=110&Type=search", "url2": null }, "geometry": { "type": "Point", "coordinates": [ 130.5144388, 33.4018546 ] } },
{ "type": "Feature", "properties": { "内容": "山津ヘルパーステーション【訪問介護】佐賀県鳥栖市萱方町２７０番地", "url": "https://www.kaigokensaku.mhlw.go.jp/41/index.php?action_kouhyou_detail_004_kani=true&JigyosyoCd=4170301180-00&ServiceCd=110&Type=search", "url2": "http://www.sanzenkai.jp/" }, "geometry": { "type": "Point", "coordinates": [ 130.500045300000011, 33.3902339 ] } },
{ "type": "Feature", "properties": { "内容": "ホームヘルプサービス寿楽園【訪問介護】佐賀県鳥栖市弥生が丘2丁目146番地1", "url": "https://www.kaigokensaku.mhlw.go.jp/41/index.php?action_kouhyou_detail_004_kani=true&JigyosyoCd=4171200043-00&ServiceCd=110&Type=search", "url2": "http://www.jurakuen.jp/" }, "geometry": { "type": "Point", "coordinates": [ 130.523020504627226, 33.404805084732395 ] } },
{ "type": "Feature", "properties": { "内容": "佐賀県鳥栖市西新町1422-137【訪問介護】佐賀県鳥栖市西新町1422-137", "url": "https://www.kaigokensaku.mhlw.go.jp/41/index.php?action_kouhyou_detail_004_kani=true&JigyosyoCd=4170301370-00&ServiceCd=110&Type=search", "url2": "https://www.houmonkaigo-ri-no0301.com/" }, "geometry": { "type": "Point", "coordinates": [ 130.469347335581944, 33.353142985322734 ] } },
{ "type": "Feature", "properties": { "内容": "指定訪問介護すこやか【訪問介護】佐賀県鳥栖市蔵上町６６３番地１", "url": "https://www.kaigokensaku.mhlw.go.jp/41/index.php?action_kouhyou_detail_004_kani=true&JigyosyoCd=4170300091-00&ServiceCd=110&Type=search", "url2": "https://carehome-sukoyaka.com/" }, "geometry": { "type": "Point", "coordinates": [ 130.497955800000028, 33.3756495 ] } },
{ "type": "Feature", "properties": { "内容": "訪問介護ステーションライフサポ【訪問介護】佐賀県鳥栖市田代本町９９８－１", "url": "https://www.kaigokensaku.mhlw.go.jp/41/index.php?action_kouhyou_detail_004_kani=true&JigyosyoCd=4170300646-00&ServiceCd=110&Type=search", "url2": "https://totalcaresupports/com" }, "geometry": { "type": "Point", "coordinates": [ 130.521967586942765, 33.391692907526327 ] } },
{ "type": "Feature", "properties": { "内容": "ヘルパーステーション人と木【訪問介護】佐賀県鳥栖市原町1253-1", "url": "https://www.kaigokensaku.mhlw.go.jp/41/index.php?action_kouhyou_detail_004_kani=true&JigyosyoCd=4170300752-00&ServiceCd=110&Type=search", "url2": "http://hitotoki-b.jp/" }, "geometry": { "type": "Point", "coordinates": [ 130.526254593848421, 33.386411071202595 ] } },
{ "type": "Feature", "properties": { "内容": "ヘルパーステーション花ノ木【訪問介護】古賀町花ノ木554", "url": "https://www.kaigokensaku.mhlw.go.jp/41/index.php?action_kouhyou_detail_004_kani=true&JigyosyoCd=4170300778-00&ServiceCd=110&Type=search", "url2": null }, "geometry": { "type": "Point", "coordinates": [ 130.498364199999969, 33.3864803 ] } },
{ "type": "Feature", "properties": { "内容": "訪問介護事業所　わらび【訪問介護】佐賀県鳥栖市養父町497-1住宅型有料老人ホーム　わらび", "url": "https://www.kaigokensaku.mhlw.go.jp/41/index.php?action_kouhyou_detail_004_kani=true&JigyosyoCd=4170301347-00&ServiceCd=110&Type=search", "url2": "osmedicare.net" }, "geometry": { "type": "Point", "coordinates": [ 130.5003438, 33.3818239 ] } },
{ "type": "Feature", "properties": { "内容": "天寿荘ホームヘルプサービス【訪問介護】佐賀県多久市北多久町大字小侍132-6", "url": "https://www.kaigokensaku.mhlw.go.jp/41/index.php?action_kouhyou_detail_004_kani=true&JigyosyoCd=4170400016-00&ServiceCd=110&Type=search", "url2": "http://www.tenjyukai.com" }, "geometry": { "type": "Point", "coordinates": [ 130.09888669999998, 33.2887018 ] } },
{ "type": "Feature", "properties": { "内容": "社会福祉法人　多久市社会福祉協議会【訪問介護】佐賀県多久市北多久町大字小侍４５－３１", "url": "https://www.kaigokensaku.mhlw.go.jp/41/index.php?action_kouhyou_detail_004_kani=true&JigyosyoCd=4170400024-00&ServiceCd=110&Type=search", "url2": "http://care‐net.biz/41/takushishakyo/" }, "geometry": { "type": "Point", "coordinates": [ 130.1100801, 33.2865907 ] } },
{ "type": "Feature", "properties": { "内容": "訪問介護センター　多久いこいの里【訪問介護】佐賀県多久市北多久町多久原2512-24", "url": "https://www.kaigokensaku.mhlw.go.jp/41/index.php?action_kouhyou_detail_004_kani=true&JigyosyoCd=4150480020-00&ServiceCd=110&Type=search", "url2": "http://www.koujinkai.net/" }, "geometry": { "type": "Point", "coordinates": [ 130.1130743, 33.2848158 ] } },
{ "type": "Feature", "properties": { "内容": "瑠璃光苑【訪問介護】佐賀県伊万里市二里町大里乙403番地1", "url": "https://www.kaigokensaku.mhlw.go.jp/41/index.php?action_kouhyou_detail_004_kani=true&JigyosyoCd=4170500245-00&ServiceCd=110&Type=search", "url2": "https://rurikouen.jp/" }, "geometry": { "type": "Point", "coordinates": [ 129.847521198950176, 33.253133036546274 ] } },
{ "type": "Feature", "properties": { "内容": "西光苑訪問介護事業所【訪問介護】佐賀県伊万里市山代町峰6522番地4", "url": "https://www.kaigokensaku.mhlw.go.jp/41/index.php?action_kouhyou_detail_004_kani=true&JigyosyoCd=4150580019-00&ServiceCd=110&Type=search", "url2": "http://www.saganet.ne.jp/kojinkai/" }, "geometry": { "type": "Point", "coordinates": [ 129.816393400000038, 33.2988444 ] } },
{ "type": "Feature", "properties": { "内容": "ユートピア訪問介護事業所【訪問介護】佐賀県伊万里市大川町大川野字赤坂1647", "url": "https://www.kaigokensaku.mhlw.go.jp/41/index.php?action_kouhyou_detail_004_kani=true&JigyosyoCd=4170500021-00&ServiceCd=110&Type=search", "url2": "http://www.kenjin-kai.com/utopia/" }, "geometry": { "type": "Point", "coordinates": [ 129.971874427447545, 33.294588568769015 ] } },
{ "type": "Feature", "properties": { "内容": "ホームヘルプサービス　敬愛園【訪問介護】佐賀県伊万里市黒川町大黒川2201番地", "url": "https://www.kaigokensaku.mhlw.go.jp/41/index.php?action_kouhyou_detail_004_kani=true&JigyosyoCd=4170500039-00&ServiceCd=110&Type=search", "url2": "http://imari-keiaikai.com" }, "geometry": { "type": "Point", "coordinates": [ 129.865575900000067, 33.335224900000014 ] } },
{ "type": "Feature", "properties": { "内容": "謙仁会　訪問介護事業所【訪問介護】伊万里市二里町八谷搦１３番地５", "url": "https://www.kaigokensaku.mhlw.go.jp/41/index.php?action_kouhyou_detail_004_kani=true&JigyosyoCd=4170500278-00&ServiceCd=110&Type=search", "url2": "http://www.kenjin-kai.com/care-support" }, "geometry": { "type": "Point", "coordinates": [ 129.871567, 33.2732426 ] } },
{ "type": "Feature", "properties": { "内容": "セントケア伊万里松島【訪問介護】佐賀県伊万里市松島町969番地アベニールMⅡ-101", "url": "https://www.kaigokensaku.mhlw.go.jp/41/index.php?action_kouhyou_detail_004_kani=true&JigyosyoCd=4170500625-00&ServiceCd=110&Type=search", "url2": "imarimatsushima_sc41@saint-care.com" }, "geometry": { "type": "Point", "coordinates": [ 129.880082899999934, 33.2808975 ] } },
{ "type": "Feature", "properties": { "内容": "ヘルパーステーション　いこいの里伊万里【訪問介護】伊万里市立花町2394番1", "url": "https://www.kaigokensaku.mhlw.go.jp/41/index.php?action_kouhyou_detail_004_kani=true&JigyosyoCd=4170500674-00&ServiceCd=110&Type=search", "url2": "https://ikoino-sato.com/imari/" }, "geometry": { "type": "Point", "coordinates": [ 129.888596099999972, 33.2596087 ] } },
{ "type": "Feature", "properties": { "内容": "ニチイケアセンターいすい【訪問介護】伊万里市立花町1891-47ＨＩＲＡＯビル2階", "url": "https://www.kaigokensaku.mhlw.go.jp/41/index.php?action_kouhyou_detail_004_kani=true&JigyosyoCd=4170500682-00&ServiceCd=110&Type=search", "url2": "http://www.nichiigakkan.co.jp" }, "geometry": { "type": "Point", "coordinates": [ 129.883890899999983, 33.260264 ] } },
{ "type": "Feature", "properties": { "内容": "ホームヘルプサービス紅葉【訪問介護】佐賀県伊万里市立花町小敷山2404-123", "url": "https://www.kaigokensaku.mhlw.go.jp/41/index.php?action_kouhyou_detail_004_kani=true&JigyosyoCd=4170500864-00&ServiceCd=110&Type=search", "url2": null }, "geometry": { "type": "Point", "coordinates": [ 129.881054, 33.2598052 ] } },
{ "type": "Feature", "properties": { "内容": "ヘルパーステーションジョウジマ【訪問介護】佐賀県伊万里市南波多町大川原4224－１", "url": "https://www.kaigokensaku.mhlw.go.jp/41/index.php?action_kouhyou_detail_004_kani=true&JigyosyoCd=4170500906-00&ServiceCd=110&Type=search", "url2": "http://gh-imari,com" }, "geometry": { "type": "Point", "coordinates": [ 129.873569, 33.3345934 ] } },
{ "type": "Feature", "properties": { "内容": "長生園ホームヘルプサービス【訪問介護】佐賀県伊万里市立花町２７０３番地２", "url": "https://www.kaigokensaku.mhlw.go.jp/41/index.php?action_kouhyou_detail_004_kani=true&JigyosyoCd=4170500013-00&ServiceCd=110&Type=search", "url2": "http://chousei-imari.jp" }, "geometry": { "type": "Point", "coordinates": [ 129.89025220000002, 33.264877 ] } },
{ "type": "Feature", "properties": { "内容": "訪問介護サービス　ほほえみ【訪問介護】佐賀県武雄市北方町大字大崎4０７０番地１", "url": "https://www.kaigokensaku.mhlw.go.jp/41/index.php?action_kouhyou_detail_004_kani=true&JigyosyoCd=4170600326-00&ServiceCd=110&Type=search", "url2": null }, "geometry": { "type": "Point", "coordinates": [ 130.04578511011195, 33.228538806840739 ] } },
{ "type": "Feature", "properties": { "内容": "有限会社　介護家事サービス武雄訪問介護事業所【訪問介護】佐賀県武雄市武雄町大字武雄133番地1", "url": "https://www.kaigokensaku.mhlw.go.jp/41/index.php?action_kouhyou_detail_004_kani=true&JigyosyoCd=4170600052-00&ServiceCd=110&Type=search", "url2": "https://www.kaigokaji-takeo.com/" }, "geometry": { "type": "Point", "coordinates": [ 130.002694606864907, 33.187629935810463 ] } },
{ "type": "Feature", "properties": { "内容": "ヘルパーステーション道の家【訪問介護】佐賀県武雄市武雄町大字富岡11083番地1", "url": "https://www.kaigokensaku.mhlw.go.jp/41/index.php?action_kouhyou_detail_004_kani=true&JigyosyoCd=4170600474-00&ServiceCd=110&Type=search", "url2": "http://npo-yutori.jp" }, "geometry": { "type": "Point", "coordinates": [ 130.0230858, 33.2075947 ] } },
{ "type": "Feature", "properties": { "内容": "御船荘ホームヘルプサービスステーション【訪問介護】佐賀県武雄市東川登町大字永野3494番地1", "url": "https://www.kaigokensaku.mhlw.go.jp/41/index.php?action_kouhyou_detail_004_kani=true&JigyosyoCd=4170600029-00&ServiceCd=110&Type=search", "url2": "https://takeo-seiwafukushikai.jp/" }, "geometry": { "type": "Point", "coordinates": [ 130.016040299999986, 33.1624876 ] } },
{ "type": "Feature", "properties": { "内容": "セントケア武雄【訪問介護】武雄市大字武雄４６０４番地３スミレマンション１０２号室", "url": "https://www.kaigokensaku.mhlw.go.jp/41/index.php?action_kouhyou_detail_004_kani=true&JigyosyoCd=4170600458-00&ServiceCd=110&Type=search", "url2": "http://www.saint-care.com/" }, "geometry": { "type": "Point", "coordinates": [ 130.028036266897317, 33.187083847833684 ] } },
{ "type": "Feature", "properties": { "内容": "あすなろ【訪問介護】佐賀県武雄市北方町大字志久3242-8", "url": "https://www.kaigokensaku.mhlw.go.jp/41/index.php?action_kouhyou_detail_004_kani=true&JigyosyoCd=4170600482-00&ServiceCd=110&Type=search", "url2": null }, "geometry": { "type": "Point", "coordinates": [ 130.068765522997097, 33.221767340229341 ] } },
{ "type": "Feature", "properties": { "内容": "ホームヘルプ事業杏花苑【訪問介護】佐賀県武雄市北方町大字志久4531-14", "url": "https://www.kaigokensaku.mhlw.go.jp/41/index.php?action_kouhyou_detail_004_kani=true&JigyosyoCd=4170600763-00&ServiceCd=110&Type=search", "url2": "https://kyokaen.wixsite.com/nicelandkitagata" }, "geometry": { "type": "Point", "coordinates": [ 130.082763032540896, 33.222220469656854 ] } },
{ "type": "Feature", "properties": { "内容": "OARETサービス【訪問介護】佐賀県武雄市武雄町大字永島14377-13住宅型有料老人ホームOARETHOUSE", "url": "https://www.kaigokensaku.mhlw.go.jp/41/index.php?action_kouhyou_detail_004_kani=true&JigyosyoCd=4170600771-00&ServiceCd=110&Type=search", "url2": "https://oaret.com/" }, "geometry": { "type": "Point", "coordinates": [ 130.0371327, 33.1911028 ] } },
{ "type": "Feature", "properties": { "内容": "ホームヘルプサービス　そよかぜの杜【訪問介護】佐賀県武雄市山内町大字大野7045番地", "url": "https://www.kaigokensaku.mhlw.go.jp/41/index.php?action_kouhyou_detail_004_kani=true&JigyosyoCd=4171600069-00&ServiceCd=110&Type=search", "url2": "https://www.seiwafukushikai.net" }, "geometry": { "type": "Point", "coordinates": [ 129.9350154, 33.2058735 ] } },
{ "type": "Feature", "properties": { "内容": "ヘルパーステーション道の家【訪問介護】佐賀県武雄市大字富岡11083番地1", "url": "https://www.kaigokensaku.mhlw.go.jp/41/index.php?action_kouhyou_detail_004_kani=true&JigyosyoCd=4170600813-00&ServiceCd=110&Type=search", "url2": "https://www.akinokai.jp/facility/michinoie.html" }, "geometry": { "type": "Point", "coordinates": [ 130.022411299999987, 33.2073921 ] } },
{ "type": "Feature", "properties": { "内容": "竜門堂訪問介護事業所爽風館【訪問介護】佐賀県武雄市山内町大字三間坂甲１４０４３番地", "url": "https://www.kaigokensaku.mhlw.go.jp/41/index.php?action_kouhyou_detail_004_kani=true&JigyosyoCd=4170600375-00&ServiceCd=110&Type=search", "url2": null }, "geometry": { "type": "Point", "coordinates": [ 129.954969799999958, 33.1915748 ] } },
{ "type": "Feature", "properties": { "内容": "ニチイケアセンタ－武雄【訪問介護】佐賀県武雄市大字昭和841前田事務所　B-2", "url": "https://www.kaigokensaku.mhlw.go.jp/41/index.php?action_kouhyou_detail_004_kani=true&JigyosyoCd=4170600730-00&ServiceCd=110&Type=search", "url2": null }, "geometry": { "type": "Point", "coordinates": [ 130.03080780489347, 33.194985159440606 ] } },
{ "type": "Feature", "properties": { "内容": "ヘルパーステーションゆうあい【訪問介護】佐賀県鹿島市大字高津原2962番地1", "url": "https://www.kaigokensaku.mhlw.go.jp/41/index.php?action_kouhyou_detail_004_kani=true&JigyosyoCd=4150780015-00&ServiceCd=110&Type=search", "url2": "https://www.yuaivillage.com/" }, "geometry": { "type": "Point", "coordinates": [ 130.095867238048811, 33.111413137897699 ] } },
{ "type": "Feature", "properties": { "内容": "好日の園ホームヘルプサービス【訪問介護】佐賀県鹿島市大字高津原667番地1", "url": "https://www.kaigokensaku.mhlw.go.jp/41/index.php?action_kouhyou_detail_004_kani=true&JigyosyoCd=4170700050-00&ServiceCd=110&Type=search", "url2": "https://www.koujitu.or.jp/" }, "geometry": { "type": "Point", "coordinates": [ 130.095377879376173, 33.108768915706491 ] } },
{ "type": "Feature", "properties": { "内容": "有限会社　ひかり介護サービス【訪問介護】佐賀県鹿島市納富分1079番地1", "url": "https://www.kaigokensaku.mhlw.go.jp/41/index.php?action_kouhyou_detail_004_kani=true&JigyosyoCd=4170700142-00&ServiceCd=110&Type=search", "url2": "http://hikari1079-1.com" }, "geometry": { "type": "Point", "coordinates": [ 130.093583057008374, 33.093580070082233 ] } },
{ "type": "Feature", "properties": { "内容": "清水園ホームヘルプチームサービス【訪問介護】佐賀県小城市小城町８２６番地1", "url": "https://www.kaigokensaku.mhlw.go.jp/41/index.php?action_kouhyou_detail_004_kani=true&JigyosyoCd=4171300017-00&ServiceCd=110&Type=search", "url2": "http://www,kiyonet@star,saganet,ne,jp" }, "geometry": { "type": "Point", "coordinates": [ 130.20626859999993, 33.300368 ] } },
{ "type": "Feature", "properties": { "内容": "訪問介護事業　鳳寿苑【訪問介護】佐賀県小城市三日月町甲柳原68-1", "url": "https://www.kaigokensaku.mhlw.go.jp/41/index.php?action_kouhyou_detail_004_kani=true&JigyosyoCd=4171300025-00&ServiceCd=110&Type=search", "url2": "http://care-net.biz/41/houjyuen-hp/company.php" }, "geometry": { "type": "Point", "coordinates": [ 130.209889400000066, 33.2726452 ] } },
{ "type": "Feature", "properties": { "内容": "合同会社中島商事訪問介護さくら【訪問介護】佐賀県小城市三日月町織島744-12一戸建て", "url": "https://www.kaigokensaku.mhlw.go.jp/41/index.php?action_kouhyou_detail_004_kani=true&JigyosyoCd=4170400321-00&ServiceCd=110&Type=search", "url2": null }, "geometry": { "type": "Point", "coordinates": [ 130.22555504299163, 33.304270049799321 ] } },
{ "type": "Feature", "properties": { "内容": "セントケア小城【訪問介護】佐賀県小城市小城町廿地217－1ミントハイツ高原１F", "url": "https://www.kaigokensaku.mhlw.go.jp/41/index.php?action_kouhyou_detail_004_kani=true&JigyosyoCd=4171300371-00&ServiceCd=110&Type=search", "url2": "http://www.saint-care.com" }, "geometry": { "type": "Point", "coordinates": [ 130.207075824597979, 33.29839758806213 ] } },
{ "type": "Feature", "properties": { "内容": "社会福祉法人グリーンコープふくしサービスセンターびすけっと西部【訪問介護】佐賀県嬉野市塩田町大字五町田3256-1", "url": "https://www.kaigokensaku.mhlw.go.jp/41/index.php?action_kouhyou_detail_004_kani=true&JigyosyoCd=4170600615-00&ServiceCd=110&Type=search", "url2": "http://www.fukushi-greencoop.or.jp/" }, "geometry": { "type": "Point", "coordinates": [ 130.060978847013047, 33.12207796539338 ] } },
{ "type": "Feature", "properties": { "内容": "訪問介護事業所　青空【訪問介護】佐賀県嬉野市嬉野町大字下宿甲2011番地", "url": "https://www.kaigokensaku.mhlw.go.jp/41/index.php?action_kouhyou_detail_004_kani=true&JigyosyoCd=4170900056-00&ServiceCd=110&Type=search", "url2": "https://npo-aozora.jp/" }, "geometry": { "type": "Point", "coordinates": [ 129.996515899999963, 33.1107619 ] } },
{ "type": "Feature", "properties": { "内容": "合同会社　さくら【訪問介護】佐賀県嬉野市嬉野町大字下宿丙2245番地2山口アパート7号", "url": "https://www.kaigokensaku.mhlw.go.jp/41/index.php?action_kouhyou_detail_004_kani=true&JigyosyoCd=4170900320-00&ServiceCd=110&Type=search", "url2": null }, "geometry": { "type": "Point", "coordinates": [ 129.977154, 33.0964973 ] } },
{ "type": "Feature", "properties": { "内容": "ヘルパーステーション　ココカラ【訪問介護】佐賀県嬉野市嬉野町大字下野丙246", "url": "https://www.kaigokensaku.mhlw.go.jp/41/index.php?action_kouhyou_detail_004_kani=true&JigyosyoCd=4170900338-00&ServiceCd=110&Type=search", "url2": null }, "geometry": { "type": "Point", "coordinates": [ 130.0036168, 33.1239229 ] } },
{ "type": "Feature", "properties": { "内容": "済昭園ホームヘルプサービス事業【訪問介護】佐賀県嬉野市塩田町大字五町田甲3432番地1", "url": "https://www.kaigokensaku.mhlw.go.jp/41/index.php?action_kouhyou_detail_004_kani=true&JigyosyoCd=4171700018-00&ServiceCd=110&Type=search", "url2": "http://www.saisyouen.jp/" }, "geometry": { "type": "Point", "coordinates": [ 130.057383380238861, 33.122464675417888 ] } },
{ "type": "Feature", "properties": { "内容": "訪問介護ステーション百花之里【訪問介護】嬉野町大字下宿乙961-1", "url": "https://www.kaigokensaku.mhlw.go.jp/41/index.php?action_kouhyou_detail_004_kani=true&JigyosyoCd=4170900197-00&ServiceCd=110&Type=search", "url2": null }, "geometry": { "type": "Point", "coordinates": [ 129.987242299999906, 33.0980076 ] } },
{ "type": "Feature", "properties": { "内容": "訪問介護ステーションひだまり【訪問介護】佐賀県神埼市神埼町竹4694-1", "url": "https://www.kaigokensaku.mhlw.go.jp/41/index.php?action_kouhyou_detail_004_kani=true&JigyosyoCd=4170102844-00&ServiceCd=110&Type=search", "url2": "http://hidamari-saga.com/" }, "geometry": { "type": "Point", "coordinates": [ 130.35529511349182, 33.312151616069649 ] } },
{ "type": "Feature", "properties": { "内容": "こすもす苑　ホームヘルプサービス【訪問介護】佐賀県神埼市千代田町用作2098-3", "url": "https://www.kaigokensaku.mhlw.go.jp/41/index.php?action_kouhyou_detail_004_kani=true&JigyosyoCd=4171100011-00&ServiceCd=110&Type=search", "url2": "ｈｔｔｐｓ：//ｃｏｓｍｏｓｅｎ．ｃｏｍ" }, "geometry": { "type": "Point", "coordinates": [ 130.379134032912191, 33.266284733351114 ] } },
{ "type": "Feature", "properties": { "内容": "セントケア吉野ヶ里【訪問介護】神埼市神埼町田道ヶ里2892-1", "url": "https://www.kaigokensaku.mhlw.go.jp/41/index.php?action_kouhyou_detail_004_kani=true&JigyosyoCd=4172000137-00&ServiceCd=110&Type=search", "url2": null }, "geometry": { "type": "Point", "coordinates": [ 130.380095799999907, 33.3173037 ] } },
{ "type": "Feature", "properties": { "内容": "訪問介護ステーション　バルーン【訪問介護】佐賀県神埼市神埼町枝ヶ里61番地1", "url": "https://www.kaigokensaku.mhlw.go.jp/41/index.php?action_kouhyou_detail_004_kani=true&JigyosyoCd=4172000244-00&ServiceCd=110&Type=search", "url2": "https://www.houmon-balloon.com/" }, "geometry": { "type": "Point", "coordinates": [ 130.371648698441646, 33.306583270217672 ] } },
{ "type": "Feature", "properties": { "内容": "訪問介護事業所　あんず【訪問介護】佐賀県神埼市神埼町鶴3823-1住宅型有料老人ホームあんず", "url": "https://www.kaigokensaku.mhlw.go.jp/41/index.php?action_kouhyou_detail_004_kani=true&JigyosyoCd=4172000319-00&ServiceCd=110&Type=search", "url2": "https://osmedicare.net" }, "geometry": { "type": "Point", "coordinates": [ 130.3693854, 33.3118453 ] } },
{ "type": "Feature", "properties": { "内容": "ニチイケアセンター吉野ヶ里【訪問介護】佐賀県神埼郡吉野ヶ里町吉田261-4", "url": "https://www.kaigokensaku.mhlw.go.jp/41/index.php?action_kouhyou_detail_004_kani=true&JigyosyoCd=4171100276-00&ServiceCd=110&Type=search", "url2": "http://www.nichiigaqkkan.co.jp" }, "geometry": { "type": "Point", "coordinates": [ 130.3992776, 33.3241977 ] } },
{ "type": "Feature", "properties": { "内容": "訪問介護commesoiコムソワ【訪問介護】佐賀県神埼郡吉野ヶ里町大曲4941‐1", "url": "https://www.kaigokensaku.mhlw.go.jp/41/index.php?action_kouhyou_detail_004_kani=true&JigyosyoCd=4171100359-00&ServiceCd=110&Type=search", "url2": null }, "geometry": { "type": "Point", "coordinates": [ 130.4073077, 33.3495409 ] } },
{ "type": "Feature", "properties": { "内容": "さくら訪問介護ｽﾃｰｼｮﾝ【訪問介護】佐賀県三養基郡基山町大字小倉457-2セカンドライフさくら", "url": "https://www.kaigokensaku.mhlw.go.jp/41/index.php?action_kouhyou_detail_004_kani=true&JigyosyoCd=4171200720-00&ServiceCd=110&Type=search", "url2": null }, "geometry": { "type": "Point", "coordinates": [ 130.535408085827612, 33.41778651410899 ] } },
{ "type": "Feature", "properties": { "内容": "ニチイケアセンター基山【訪問介護】佐賀県三養基郡基山町大字小倉字倉野1052番地1", "url": "https://www.kaigokensaku.mhlw.go.jp/41/index.php?action_kouhyou_detail_004_kani=true&JigyosyoCd=4171200753-00&ServiceCd=110&Type=search", "url2": "http://www.nichiigakkan/co.jp" }, "geometry": { "type": "Point", "coordinates": [ 130.5203448, 33.4351756 ] } },
{ "type": "Feature", "properties": { "内容": "ヘルパーステーションプルメリア【訪問介護】佐賀県三養基郡上峰町大字前牟田1949番地", "url": "https://www.kaigokensaku.mhlw.go.jp/41/index.php?action_kouhyou_detail_004_kani=true&JigyosyoCd=4171200019-00&ServiceCd=110&Type=search", "url2": "http://www.esaga.jp/~gajyumaru.or.jp" }, "geometry": { "type": "Point", "coordinates": [ 130.416751699999963, 33.3155901 ] } },
{ "type": "Feature", "properties": { "内容": "ヘルパーステーションほがらか【訪問介護】佐賀県三養基郡みやき町大字白壁4204番地19", "url": "https://www.kaigokensaku.mhlw.go.jp/41/index.php?action_kouhyou_detail_004_kani=true&JigyosyoCd=4171100284-00&ServiceCd=110&Type=search", "url2": null }, "geometry": { "type": "Point", "coordinates": [ 130.459217159119987, 33.348295027635963 ] } },
{ "type": "Feature", "properties": { "内容": "ニチイケアセンターみやき【訪問介護】佐賀県三養基郡みやき町西島1648-4御厨店舗", "url": "https://www.kaigokensaku.mhlw.go.jp/41/index.php?action_kouhyou_detail_004_kani=true&JigyosyoCd=4171200761-00&ServiceCd=110&Type=search", "url2": "http://www.nichiigakkan.co.jp" }, "geometry": { "type": "Point", "coordinates": [ 130.4371586, 33.297433699999978 ] } },
{ "type": "Feature", "properties": { "内容": "よつば訪問ステーション【訪問介護】佐賀県三養基郡みやき町大字中津隈6017-3", "url": "https://www.kaigokensaku.mhlw.go.jp/41/index.php?action_kouhyou_detail_004_kani=true&JigyosyoCd=4161290053-00&ServiceCd=110&Type=search", "url2": "https://www.yotsubakai.net" }, "geometry": { "type": "Point", "coordinates": [ 130.449162594792028, 33.31974916724986 ] } },
{ "type": "Feature", "properties": { "内容": "ホームヘルパーステーション「ありた」【訪問介護】佐賀県西松浦郡有田町南原甲６６４番地４", "url": "https://www.kaigokensaku.mhlw.go.jp/41/index.php?action_kouhyou_detail_004_kani=true&JigyosyoCd=4171500012-00&ServiceCd=110&Type=search", "url2": "http://arita-shakyo.com/" }, "geometry": { "type": "Point", "coordinates": [ 129.86392257637408, 33.192883323061736 ] } },
{ "type": "Feature", "properties": { "内容": "江北町社会福祉協議会ヘルプサービスセンター【訪問介護】佐賀県杵島郡江北町大字山口2637番地7江北町老人福祉センター", "url": "https://www.kaigokensaku.mhlw.go.jp/41/index.php?action_kouhyou_detail_004_kani=true&JigyosyoCd=4171600051-00&ServiceCd=110&Type=search", "url2": null }, "geometry": { "type": "Point", "coordinates": [ 130.149592200000029, 33.2167122 ] } },
{ "type": "Feature", "properties": { "内容": "ニチイケアセンター江北【訪問介護】佐賀県杵島郡江北町大字山口22番さくせすPOINT1階103号室", "url": "https://www.kaigokensaku.mhlw.go.jp/41/index.php?action_kouhyou_detail_004_kani=true&JigyosyoCd=4171600663-00&ServiceCd=110&Type=search", "url2": null }, "geometry": { "type": "Point", "coordinates": [ 130.152198099999964, 33.2107817 ] } },
{ "type": "Feature", "properties": { "内容": "ヘルパーステーションいちょうの木【訪問介護】佐賀県杵島郡江北町大字上小田2061番", "url": "https://www.kaigokensaku.mhlw.go.jp/41/index.php?action_kouhyou_detail_004_kani=true&JigyosyoCd=4171600697-00&ServiceCd=110&Type=search", "url2": null }, "geometry": { "type": "Point", "coordinates": [ 130.136922518985187, 33.232561532244446 ] } },
{ "type": "Feature", "properties": { "内容": "訪問介護事業所　白い石【訪問介護】杵島郡白石町福吉1808", "url": "https://www.kaigokensaku.mhlw.go.jp/41/index.php?action_kouhyou_detail_004_kani=true&JigyosyoCd=4151680024-00&ServiceCd=110&Type=search", "url2": "siroiisi@helen.ocn.ne.jp" }, "geometry": { "type": "Point", "coordinates": [ 130.153442400000017, 33.185696 ] } },
{ "type": "Feature", "properties": { "内容": "ホームヘルプサービスセンター桜の園【訪問介護】佐賀県杵島郡白石町大字福富２３８７番地３", "url": "https://www.kaigokensaku.mhlw.go.jp/41/index.php?action_kouhyou_detail_004_kani=true&JigyosyoCd=4171600028-00&ServiceCd=110&Type=search", "url2": "http://www.sakuranosono.biz" }, "geometry": { "type": "Point", "coordinates": [ 130.198956200894145, 33.192048383574004 ] } }
]
}
